<?xml version="1.0"?><gpx xmlns="http://www.topografix.com/GPX/1/1" xmlns:xsi="http://www.w3.org/2001/XMLSchema-instance" xmlns:gpx_style="http://www.topografix.com/GPX/gpx_style/0/2" xsi:schemaLocation="http://www.topografix.com/GPX/1/1 http://www.topografix.com/GPX/1/1/gpx.xsd" creator="ANWB" version="1.1"><wpt lat="52.127563" lon="5.070065"><name>Start Tussen Rietveld en Mondriaan</name><sym>Flag, Green</sym></wpt><wpt lat="52.12706906720996" lon="5.07327614352107"><name>Slot Zuylen</name><sym>Flag, Blue</sym></wpt><wpt lat="52.08375692367554" lon="5.125916004180908"><name>Centraal Museum</name><sym>Flag, Blue</sym></wpt><wpt lat="52.07769328728318" lon="5.129799507558346"><name>Grafmonument van Rietveld</name><sym>Flag, Blue</sym></wpt><wpt lat="52.07825998775661" lon="5.13808929361403"><name>Bankje en twee bungalows</name><sym>Flag, Blue</sym></wpt><wpt lat="52.08164921030402" lon="5.140653820708394"><name>Meubelmakerij</name><sym>Flag, Blue</sym></wpt><wpt lat="52.08441607654095" lon="5.13938857242465"><name>Chauffeurswoning</name><sym>Flag, Blue</sym></wpt><wpt lat="52.08465429022908" lon="5.138781974092126"><name>Julianalaan 10</name><sym>Flag, Blue</sym></wpt><wpt lat="52.085323333740234" lon="5.14758825302124"><name>Rietveld Schröderhuis</name><sym>Flag, Blue</sym></wpt><wpt lat="52.085028206929564" lon="5.148036349564791"><name>Sitting in Blue</name><sym>Flag, Blue</sym></wpt><wpt lat="52.08549407310784" lon="5.14855032786727"><name>Het Nieuwe Bouwen</name><sym>Flag, Blue</sym></wpt><wpt lat="52.08335308358073" lon="5.23567870259285"><name>Muziekschool</name><sym>Flag, Blue</sym></wpt><wpt lat="52.10978298448026" lon="5.24183789268136"><name>Villa’s Van ’t Hoff</name><sym>Flag, Blue</sym></wpt><wpt lat="52.128977878019214" lon="5.274442657828331"><name>Park Vliegbasis Soesterberg</name><sym>Flag, Blue</sym></wpt><wpt lat="52.15230278670788" lon="5.384883368387818"><name>De Zonnehof</name><sym>Flag, Blue</sym></wpt><wpt lat="52.15471526607871" lon="5.390372844412923"><name>Mondriaanhuis</name><sym>Flag, Blue</sym></wpt><trk><name>Tussen Rietveld en Mondriaan</name><trkseg><trkpt lat="52.127480000000006" lon="5.072430000000001"/><trkpt lat="52.127190000000006" lon="5.07158"/><trkpt lat="52.127190000000006" lon="5.07146"/><trkpt lat="52.127210000000005" lon="5.0712600000000005"/><trkpt lat="52.127250000000004" lon="5.070480000000001"/><trkpt lat="52.12745" lon="5.070150000000001"/><trkpt lat="52.12753000000001" lon="5.070080000000001"/><trkpt lat="52.12745" lon="5.070150000000001"/><trkpt lat="52.127250000000004" lon="5.07049"/><trkpt lat="52.126920000000005" lon="5.0709800000000005"/><trkpt lat="52.12661000000001" lon="5.07141"/><trkpt lat="52.1259" lon="5.072220000000001"/><trkpt lat="52.12552" lon="5.0726"/><trkpt lat="52.12651" lon="5.074330000000001"/><trkpt lat="52.12716" lon="5.07542"/><trkpt lat="52.127230000000004" lon="5.07558"/><trkpt lat="52.126360000000005" lon="5.0772"/><trkpt lat="52.125130000000006" lon="5.079490000000001"/><trkpt lat="52.122800000000005" lon="5.0834"/><trkpt lat="52.1223" lon="5.08265"/><trkpt lat="52.121990000000004" lon="5.082330000000001"/><trkpt lat="52.121680000000005" lon="5.08209"/><trkpt lat="52.1212" lon="5.0818900000000005"/><trkpt lat="52.121120000000005" lon="5.0818900000000005"/><trkpt lat="52.12107" lon="5.081980000000001"/><trkpt lat="52.12015" lon="5.085170000000001"/><trkpt lat="52.12006" lon="5.085190000000001"/><trkpt lat="52.120050000000006" lon="5.08507"/><trkpt lat="52.11999" lon="5.0850100000000005"/><trkpt lat="52.11988" lon="5.08495"/><trkpt lat="52.11912" lon="5.0847500000000005"/><trkpt lat="52.119060000000005" lon="5.08553"/><trkpt lat="52.118990000000004" lon="5.086220000000001"/><trkpt lat="52.11894" lon="5.0864400000000005"/><trkpt lat="52.11880000000001" lon="5.08804"/><trkpt lat="52.11871000000001" lon="5.088760000000001"/><trkpt lat="52.118480000000005" lon="5.09016"/><trkpt lat="52.11847" lon="5.09036"/><trkpt lat="52.11854" lon="5.09055"/><trkpt lat="52.118480000000005" lon="5.09097"/><trkpt lat="52.118390000000005" lon="5.0913"/><trkpt lat="52.118390000000005" lon="5.09142"/><trkpt lat="52.11829" lon="5.092350000000001"/><trkpt lat="52.118170000000006" lon="5.0929400000000005"/><trkpt lat="52.11809" lon="5.09321"/><trkpt lat="52.117830000000005" lon="5.093800000000001"/><trkpt lat="52.11759000000001" lon="5.0941600000000005"/><trkpt lat="52.117380000000004" lon="5.09442"/><trkpt lat="52.117180000000005" lon="5.09456"/><trkpt lat="52.11634" lon="5.095160000000001"/><trkpt lat="52.116110000000006" lon="5.09534"/><trkpt lat="52.115680000000005" lon="5.095750000000001"/><trkpt lat="52.114580000000004" lon="5.097230000000001"/><trkpt lat="52.11357" lon="5.09874"/><trkpt lat="52.1135" lon="5.0989"/><trkpt lat="52.11338000000001" lon="5.099080000000001"/><trkpt lat="52.11336000000001" lon="5.099200000000001"/><trkpt lat="52.113330000000005" lon="5.0992500000000005"/><trkpt lat="52.113260000000004" lon="5.09931"/><trkpt lat="52.111940000000004" lon="5.1011500000000005"/><trkpt lat="52.11094000000001" lon="5.102580000000001"/><trkpt lat="52.110530000000004" lon="5.10325"/><trkpt lat="52.109320000000004" lon="5.105"/><trkpt lat="52.109010000000005" lon="5.10555"/><trkpt lat="52.10871" lon="5.1059"/><trkpt lat="52.108650000000004" lon="5.10601"/><trkpt lat="52.108610000000006" lon="5.10611"/><trkpt lat="52.108430000000006" lon="5.10613"/><trkpt lat="52.10810000000001" lon="5.10632"/><trkpt lat="52.10680000000001" lon="5.10723"/><trkpt lat="52.10652" lon="5.10747"/><trkpt lat="52.106460000000006" lon="5.107530000000001"/><trkpt lat="52.10667" lon="5.108320000000001"/><trkpt lat="52.10622000000001" lon="5.1085"/><trkpt lat="52.10528000000001" lon="5.10897"/><trkpt lat="52.10508" lon="5.109400000000001"/><trkpt lat="52.10466" lon="5.11022"/><trkpt lat="52.10463000000001" lon="5.1103000000000005"/><trkpt lat="52.104380000000006" lon="5.11068"/><trkpt lat="52.1037" lon="5.1113100000000005"/><trkpt lat="52.103350000000006" lon="5.111540000000001"/><trkpt lat="52.10331000000001" lon="5.11158"/><trkpt lat="52.103190000000005" lon="5.111630000000001"/><trkpt lat="52.1024" lon="5.11211"/><trkpt lat="52.102070000000005" lon="5.112220000000001"/><trkpt lat="52.100860000000004" lon="5.11242"/><trkpt lat="52.10060000000001" lon="5.11244"/><trkpt lat="52.10038" lon="5.11256"/><trkpt lat="52.100100000000005" lon="5.11291"/><trkpt lat="52.09998" lon="5.112990000000001"/><trkpt lat="52.099650000000004" lon="5.113160000000001"/><trkpt lat="52.098890000000004" lon="5.113770000000001"/><trkpt lat="52.098600000000005" lon="5.11402"/><trkpt lat="52.09754" lon="5.115010000000001"/><trkpt lat="52.097" lon="5.1155800000000005"/><trkpt lat="52.09666000000001" lon="5.11596"/><trkpt lat="52.096630000000005" lon="5.116070000000001"/><trkpt lat="52.09626" lon="5.116280000000001"/><trkpt lat="52.09622" lon="5.116280000000001"/><trkpt lat="52.096210000000006" lon="5.1161900000000005"/><trkpt lat="52.096160000000005" lon="5.11608"/><trkpt lat="52.096140000000005" lon="5.1159300000000005"/><trkpt lat="52.096070000000005" lon="5.11601"/><trkpt lat="52.09593" lon="5.116090000000001"/><trkpt lat="52.09554000000001" lon="5.116280000000001"/><trkpt lat="52.095180000000006" lon="5.116370000000001"/><trkpt lat="52.09498000000001" lon="5.11639"/><trkpt lat="52.09487000000001" lon="5.11641"/><trkpt lat="52.09474" lon="5.116420000000001"/><trkpt lat="52.09431000000001" lon="5.116350000000001"/><trkpt lat="52.09413000000001" lon="5.11636"/><trkpt lat="52.093880000000006" lon="5.11639"/><trkpt lat="52.093590000000006" lon="5.11648"/><trkpt lat="52.093430000000005" lon="5.11653"/><trkpt lat="52.09331" lon="5.1166"/><trkpt lat="52.09337000000001" lon="5.117030000000001"/><trkpt lat="52.09347" lon="5.11829"/><trkpt lat="52.09348000000001" lon="5.11843"/><trkpt lat="52.093540000000004" lon="5.11882"/><trkpt lat="52.093540000000004" lon="5.11899"/><trkpt lat="52.093500000000006" lon="5.11941"/><trkpt lat="52.09349" lon="5.11958"/><trkpt lat="52.09337000000001" lon="5.120480000000001"/><trkpt lat="52.093340000000005" lon="5.1206000000000005"/><trkpt lat="52.093300000000006" lon="5.1208100000000005"/><trkpt lat="52.09293" lon="5.12161"/><trkpt lat="52.092780000000005" lon="5.121910000000001"/><trkpt lat="52.09255" lon="5.12201"/><trkpt lat="52.09199" lon="5.12225"/><trkpt lat="52.091710000000006" lon="5.122330000000001"/><trkpt lat="52.09118" lon="5.12237"/><trkpt lat="52.091240000000006" lon="5.1227"/><trkpt lat="52.09105" lon="5.122850000000001"/><trkpt lat="52.090860000000006" lon="5.12295"/><trkpt lat="52.090700000000005" lon="5.123"/><trkpt lat="52.090610000000005" lon="5.123080000000001"/><trkpt lat="52.09049" lon="5.12319"/><trkpt lat="52.090210000000006" lon="5.123670000000001"/><trkpt lat="52.090120000000006" lon="5.12384"/><trkpt lat="52.09" lon="5.12377"/><trkpt lat="52.08957" lon="5.12385"/><trkpt lat="52.08906" lon="5.124040000000001"/><trkpt lat="52.088840000000005" lon="5.124180000000001"/><trkpt lat="52.08811000000001" lon="5.12492"/><trkpt lat="52.087410000000006" lon="5.12561"/><trkpt lat="52.08738" lon="5.12565"/><trkpt lat="52.08664" lon="5.12624"/><trkpt lat="52.08608" lon="5.12664"/><trkpt lat="52.08560000000001" lon="5.12699"/><trkpt lat="52.085330000000006" lon="5.127190000000001"/><trkpt lat="52.08493000000001" lon="5.12741"/><trkpt lat="52.0846" lon="5.12755"/><trkpt lat="52.08408000000001" lon="5.126390000000001"/><trkpt lat="52.083690000000004" lon="5.125450000000001"/><trkpt lat="52.08363000000001" lon="5.125260000000001"/><trkpt lat="52.08337" lon="5.124370000000001"/><trkpt lat="52.08328" lon="5.124090000000001"/><trkpt lat="52.083090000000006" lon="5.123430000000001"/><trkpt lat="52.082730000000005" lon="5.12344"/><trkpt lat="52.082510000000006" lon="5.12347"/><trkpt lat="52.082240000000006" lon="5.123620000000001"/><trkpt lat="52.08198" lon="5.1238600000000005"/><trkpt lat="52.08184000000001" lon="5.12392"/><trkpt lat="52.081830000000004" lon="5.123810000000001"/><trkpt lat="52.08153" lon="5.12401"/><trkpt lat="52.081320000000005" lon="5.124090000000001"/><trkpt lat="52.08127" lon="5.12413"/><trkpt lat="52.081250000000004" lon="5.1241"/><trkpt lat="52.081140000000005" lon="5.12439"/><trkpt lat="52.08091" lon="5.124140000000001"/><trkpt lat="52.080630000000006" lon="5.12488"/><trkpt lat="52.080540000000006" lon="5.12506"/><trkpt lat="52.080290000000005" lon="5.12565"/><trkpt lat="52.08001" lon="5.126130000000001"/><trkpt lat="52.07996000000001" lon="5.1262300000000005"/><trkpt lat="52.0799" lon="5.12633"/><trkpt lat="52.079730000000005" lon="5.126550000000001"/><trkpt lat="52.07945" lon="5.12699"/><trkpt lat="52.07918" lon="5.127420000000001"/><trkpt lat="52.07893000000001" lon="5.12793"/><trkpt lat="52.078900000000004" lon="5.1279900000000005"/><trkpt lat="52.07884000000001" lon="5.128240000000001"/><trkpt lat="52.07858" lon="5.128990000000001"/><trkpt lat="52.07837000000001" lon="5.12976"/><trkpt lat="52.07822" lon="5.13023"/><trkpt lat="52.077400000000004" lon="5.1327300000000005"/><trkpt lat="52.0771" lon="5.133520000000001"/><trkpt lat="52.077000000000005" lon="5.13377"/><trkpt lat="52.076660000000004" lon="5.13492"/><trkpt lat="52.076570000000004" lon="5.135260000000001"/><trkpt lat="52.07629000000001" lon="5.13625"/><trkpt lat="52.076010000000004" lon="5.13724"/><trkpt lat="52.075540000000004" lon="5.1390400000000005"/><trkpt lat="52.075450000000004" lon="5.1391"/><trkpt lat="52.07537000000001" lon="5.13933"/><trkpt lat="52.075410000000005" lon="5.139220000000001"/><trkpt lat="52.07596" lon="5.1396500000000005"/><trkpt lat="52.076130000000006" lon="5.13996"/><trkpt lat="52.076350000000005" lon="5.140210000000001"/><trkpt lat="52.07795" lon="5.14132"/><trkpt lat="52.07837000000001" lon="5.141360000000001"/><trkpt lat="52.078810000000004" lon="5.14132"/><trkpt lat="52.07945" lon="5.1413"/><trkpt lat="52.07961" lon="5.14153"/><trkpt lat="52.07994000000001" lon="5.14151"/><trkpt lat="52.080070000000006" lon="5.141310000000001"/><trkpt lat="52.08144000000001" lon="5.14109"/><trkpt lat="52.0816" lon="5.140980000000001"/><trkpt lat="52.081880000000005" lon="5.14088"/><trkpt lat="52.082190000000004" lon="5.140720000000001"/><trkpt lat="52.08276000000001" lon="5.1403300000000005"/><trkpt lat="52.08344" lon="5.13973"/><trkpt lat="52.08370000000001" lon="5.13947"/><trkpt lat="52.08393" lon="5.13916"/><trkpt lat="52.08410000000001" lon="5.13893"/><trkpt lat="52.08424" lon="5.138750000000001"/><trkpt lat="52.08431" lon="5.13876"/><trkpt lat="52.08442" lon="5.13867"/><trkpt lat="52.08451" lon="5.138660000000001"/><trkpt lat="52.0846" lon="5.1387100000000006"/><trkpt lat="52.085040000000006" lon="5.1390400000000005"/><trkpt lat="52.08516" lon="5.13924"/><trkpt lat="52.085190000000004" lon="5.139390000000001"/><trkpt lat="52.085280000000004" lon="5.13949"/><trkpt lat="52.08538000000001" lon="5.1395800000000005"/><trkpt lat="52.085480000000004" lon="5.139620000000001"/><trkpt lat="52.085570000000004" lon="5.140180000000001"/><trkpt lat="52.085770000000004" lon="5.140840000000001"/><trkpt lat="52.085930000000005" lon="5.141220000000001"/><trkpt lat="52.08612" lon="5.14156"/><trkpt lat="52.086360000000006" lon="5.141870000000001"/><trkpt lat="52.086600000000004" lon="5.142110000000001"/><trkpt lat="52.086850000000005" lon="5.14228"/><trkpt lat="52.08666" lon="5.142880000000001"/><trkpt lat="52.08663000000001" lon="5.14304"/><trkpt lat="52.086600000000004" lon="5.1431000000000004"/><trkpt lat="52.086180000000006" lon="5.14454"/><trkpt lat="52.085710000000006" lon="5.1458900000000005"/><trkpt lat="52.08560000000001" lon="5.14625"/><trkpt lat="52.085080000000005" lon="5.147760000000001"/><trkpt lat="52.08457000000001" lon="5.149240000000001"/><trkpt lat="52.08408000000001" lon="5.1506300000000005"/><trkpt lat="52.08404" lon="5.150880000000001"/><trkpt lat="52.08397" lon="5.151820000000001"/><trkpt lat="52.084010000000006" lon="5.15216"/><trkpt lat="52.08408000000001" lon="5.15225"/><trkpt lat="52.084250000000004" lon="5.15263"/><trkpt lat="52.08451" lon="5.15315"/><trkpt lat="52.08455000000001" lon="5.15324"/><trkpt lat="52.08453" lon="5.1533500000000005"/><trkpt lat="52.08316000000001" lon="5.1554400000000005"/><trkpt lat="52.082840000000004" lon="5.15591"/><trkpt lat="52.08279" lon="5.15601"/><trkpt lat="52.08263" lon="5.156230000000001"/><trkpt lat="52.082170000000005" lon="5.1569400000000005"/><trkpt lat="52.08213000000001" lon="5.157030000000001"/><trkpt lat="52.0818" lon="5.157500000000001"/><trkpt lat="52.081680000000006" lon="5.15779"/><trkpt lat="52.08165" lon="5.15805"/><trkpt lat="52.081630000000004" lon="5.15894"/><trkpt lat="52.081500000000005" lon="5.15922"/><trkpt lat="52.081120000000006" lon="5.159700000000001"/><trkpt lat="52.08086" lon="5.16004"/><trkpt lat="52.08053" lon="5.16058"/><trkpt lat="52.08016000000001" lon="5.161160000000001"/><trkpt lat="52.07996000000001" lon="5.161390000000001"/><trkpt lat="52.07968" lon="5.161580000000001"/><trkpt lat="52.079080000000005" lon="5.161860000000001"/><trkpt lat="52.0788" lon="5.162070000000001"/><trkpt lat="52.07856" lon="5.16235"/><trkpt lat="52.07837000000001" lon="5.162660000000001"/><trkpt lat="52.07813" lon="5.163080000000001"/><trkpt lat="52.077380000000005" lon="5.16514"/><trkpt lat="52.076950000000004" lon="5.166180000000001"/><trkpt lat="52.07659" lon="5.167000000000001"/><trkpt lat="52.075880000000005" lon="5.168430000000001"/><trkpt lat="52.07517000000001" lon="5.170100000000001"/><trkpt lat="52.074690000000004" lon="5.17121"/><trkpt lat="52.07453" lon="5.1715100000000005"/><trkpt lat="52.073080000000004" lon="5.173570000000001"/><trkpt lat="52.073010000000004" lon="5.17372"/><trkpt lat="52.072970000000005" lon="5.1740200000000005"/><trkpt lat="52.0726" lon="5.174460000000001"/><trkpt lat="52.070690000000006" lon="5.176810000000001"/><trkpt lat="52.072750000000006" lon="5.180680000000001"/><trkpt lat="52.0735" lon="5.18205"/><trkpt lat="52.07356000000001" lon="5.18238"/><trkpt lat="52.07405000000001" lon="5.183090000000001"/><trkpt lat="52.074360000000006" lon="5.18372"/><trkpt lat="52.07618" lon="5.18149"/><trkpt lat="52.07625" lon="5.181620000000001"/><trkpt lat="52.07676000000001" lon="5.183870000000001"/><trkpt lat="52.076890000000006" lon="5.18466"/><trkpt lat="52.076890000000006" lon="5.18702"/><trkpt lat="52.07694000000001" lon="5.1875"/><trkpt lat="52.077160000000006" lon="5.1883300000000006"/><trkpt lat="52.07726" lon="5.188750000000001"/><trkpt lat="52.07728" lon="5.18895"/><trkpt lat="52.077360000000006" lon="5.19054"/><trkpt lat="52.07741000000001" lon="5.19075"/><trkpt lat="52.077830000000006" lon="5.19223"/><trkpt lat="52.07790000000001" lon="5.19261"/><trkpt lat="52.077870000000004" lon="5.19291"/><trkpt lat="52.077830000000006" lon="5.19317"/><trkpt lat="52.07728" lon="5.19528"/><trkpt lat="52.076980000000006" lon="5.196490000000001"/><trkpt lat="52.07683" lon="5.196840000000001"/><trkpt lat="52.0765" lon="5.196960000000001"/><trkpt lat="52.074270000000006" lon="5.197690000000001"/><trkpt lat="52.073820000000005" lon="5.19786"/><trkpt lat="52.07341" lon="5.197990000000001"/><trkpt lat="52.07314" lon="5.1981"/><trkpt lat="52.07307" lon="5.19812"/><trkpt lat="52.07294" lon="5.198250000000001"/><trkpt lat="52.06944000000001" lon="5.204000000000001"/><trkpt lat="52.06953000000001" lon="5.20422"/><trkpt lat="52.06953000000001" lon="5.20422"/><trkpt lat="52.06949" lon="5.204540000000001"/><trkpt lat="52.06906000000001" lon="5.20546"/><trkpt lat="52.068780000000004" lon="5.20608"/><trkpt lat="52.06861000000001" lon="5.206580000000001"/><trkpt lat="52.06837" lon="5.20737"/><trkpt lat="52.06833" lon="5.207540000000001"/><trkpt lat="52.068160000000006" lon="5.208100000000001"/><trkpt lat="52.068110000000004" lon="5.208270000000001"/><trkpt lat="52.068070000000006" lon="5.20861"/><trkpt lat="52.07009000000001" lon="5.213760000000001"/><trkpt lat="52.07011000000001" lon="5.214"/><trkpt lat="52.07007" lon="5.214110000000001"/><trkpt lat="52.069100000000006" lon="5.216270000000001"/><trkpt lat="52.068780000000004" lon="5.2170700000000005"/><trkpt lat="52.06861000000001" lon="5.217650000000001"/><trkpt lat="52.068560000000005" lon="5.21814"/><trkpt lat="52.068560000000005" lon="5.21868"/><trkpt lat="52.068630000000006" lon="5.219110000000001"/><trkpt lat="52.068740000000005" lon="5.21949"/><trkpt lat="52.06889" lon="5.219880000000001"/><trkpt lat="52.073440000000005" lon="5.22642"/><trkpt lat="52.07547" lon="5.2293"/><trkpt lat="52.075540000000004" lon="5.22932"/><trkpt lat="52.075630000000004" lon="5.22932"/><trkpt lat="52.07573000000001" lon="5.22949"/><trkpt lat="52.07574" lon="5.2296700000000005"/><trkpt lat="52.0758" lon="5.22973"/><trkpt lat="52.075860000000006" lon="5.2298100000000005"/><trkpt lat="52.07592" lon="5.23007"/><trkpt lat="52.07674" lon="5.23123"/><trkpt lat="52.077560000000005" lon="5.2323900000000005"/><trkpt lat="52.077600000000004" lon="5.232430000000001"/><trkpt lat="52.077510000000004" lon="5.232670000000001"/><trkpt lat="52.077510000000004" lon="5.23275"/><trkpt lat="52.077510000000004" lon="5.23284"/><trkpt lat="52.077450000000006" lon="5.233160000000001"/><trkpt lat="52.077470000000005" lon="5.234470000000001"/><trkpt lat="52.077510000000004" lon="5.234470000000001"/><trkpt lat="52.077400000000004" lon="5.23505"/><trkpt lat="52.07741000000001" lon="5.235200000000001"/><trkpt lat="52.077490000000004" lon="5.235340000000001"/><trkpt lat="52.077600000000004" lon="5.23552"/><trkpt lat="52.07784" lon="5.23585"/><trkpt lat="52.078520000000005" lon="5.2368500000000004"/><trkpt lat="52.0786" lon="5.2367300000000006"/><trkpt lat="52.079240000000006" lon="5.235530000000001"/><trkpt lat="52.07932" lon="5.23543"/><trkpt lat="52.07932" lon="5.23538"/><trkpt lat="52.079420000000006" lon="5.23522"/><trkpt lat="52.080560000000006" lon="5.23683"/><trkpt lat="52.08129" lon="5.23786"/><trkpt lat="52.08131" lon="5.237900000000001"/><trkpt lat="52.08133" lon="5.2381"/><trkpt lat="52.081390000000006" lon="5.238230000000001"/><trkpt lat="52.081500000000005" lon="5.23838"/><trkpt lat="52.081880000000005" lon="5.2389600000000005"/><trkpt lat="52.08193000000001" lon="5.239000000000001"/><trkpt lat="52.08279" lon="5.240200000000001"/><trkpt lat="52.08457000000001" lon="5.2427600000000005"/><trkpt lat="52.08464000000001" lon="5.24286"/><trkpt lat="52.08513000000001" lon="5.243550000000001"/><trkpt lat="52.085370000000005" lon="5.243790000000001"/><trkpt lat="52.08569000000001" lon="5.244260000000001"/><trkpt lat="52.08594" lon="5.2446"/><trkpt lat="52.086330000000004" lon="5.2452000000000005"/><trkpt lat="52.08661000000001" lon="5.245590000000001"/><trkpt lat="52.08778" lon="5.24727"/><trkpt lat="52.088460000000005" lon="5.248270000000001"/><trkpt lat="52.088710000000006" lon="5.24866"/><trkpt lat="52.08899" lon="5.24906"/><trkpt lat="52.089020000000005" lon="5.24924"/><trkpt lat="52.08953" lon="5.24997"/><trkpt lat="52.09002" lon="5.250660000000001"/><trkpt lat="52.09002" lon="5.25084"/><trkpt lat="52.090050000000005" lon="5.25091"/><trkpt lat="52.09013" lon="5.25103"/><trkpt lat="52.09017000000001" lon="5.251060000000001"/><trkpt lat="52.09026000000001" lon="5.251060000000001"/><trkpt lat="52.090300000000006" lon="5.251040000000001"/><trkpt lat="52.090410000000006" lon="5.25088"/><trkpt lat="52.090430000000005" lon="5.25074"/><trkpt lat="52.090520000000005" lon="5.25072"/><trkpt lat="52.091010000000004" lon="5.25091"/><trkpt lat="52.093450000000004" lon="5.25211"/><trkpt lat="52.093500000000006" lon="5.2519100000000005"/><trkpt lat="52.09367" lon="5.2502200000000006"/><trkpt lat="52.09369" lon="5.25007"/><trkpt lat="52.09373" lon="5.24943"/><trkpt lat="52.094100000000005" lon="5.245710000000001"/><trkpt lat="52.09414" lon="5.24539"/><trkpt lat="52.09436" lon="5.243200000000001"/><trkpt lat="52.09519" lon="5.24342"/><trkpt lat="52.09528" lon="5.243510000000001"/><trkpt lat="52.09557" lon="5.24359"/><trkpt lat="52.09566" lon="5.243650000000001"/><trkpt lat="52.095710000000004" lon="5.24378"/><trkpt lat="52.095740000000006" lon="5.24382"/><trkpt lat="52.09577" lon="5.24383"/><trkpt lat="52.09579" lon="5.2438"/><trkpt lat="52.09601000000001" lon="5.2438400000000005"/><trkpt lat="52.09610000000001" lon="5.243810000000001"/><trkpt lat="52.096250000000005" lon="5.24385"/><trkpt lat="52.09639000000001" lon="5.24385"/><trkpt lat="52.096970000000006" lon="5.24404"/><trkpt lat="52.097100000000005" lon="5.244070000000001"/><trkpt lat="52.097300000000004" lon="5.24399"/><trkpt lat="52.09743" lon="5.24389"/><trkpt lat="52.09843000000001" lon="5.24312"/><trkpt lat="52.09922" lon="5.2426"/><trkpt lat="52.09978" lon="5.2422"/><trkpt lat="52.10054" lon="5.24164"/><trkpt lat="52.10116000000001" lon="5.241230000000001"/><trkpt lat="52.10159" lon="5.24096"/><trkpt lat="52.102070000000005" lon="5.240620000000001"/><trkpt lat="52.102470000000004" lon="5.240460000000001"/><trkpt lat="52.102700000000006" lon="5.240270000000001"/><trkpt lat="52.10277000000001" lon="5.24031"/><trkpt lat="52.102880000000006" lon="5.240290000000001"/><trkpt lat="52.102940000000004" lon="5.24026"/><trkpt lat="52.10305" lon="5.2401800000000005"/><trkpt lat="52.10309" lon="5.239990000000001"/><trkpt lat="52.103120000000004" lon="5.23993"/><trkpt lat="52.103730000000006" lon="5.239490000000001"/><trkpt lat="52.10380000000001" lon="5.239450000000001"/><trkpt lat="52.104330000000004" lon="5.23906"/><trkpt lat="52.10573" lon="5.2380700000000004"/><trkpt lat="52.106500000000004" lon="5.237450000000001"/><trkpt lat="52.107020000000006" lon="5.23709"/><trkpt lat="52.10712" lon="5.23702"/><trkpt lat="52.10734000000001" lon="5.2369200000000005"/><trkpt lat="52.107530000000004" lon="5.2369200000000005"/><trkpt lat="52.10763000000001" lon="5.236980000000001"/><trkpt lat="52.107690000000005" lon="5.237050000000001"/><trkpt lat="52.107940000000006" lon="5.2369900000000005"/><trkpt lat="52.108050000000006" lon="5.237030000000001"/><trkpt lat="52.108070000000005" lon="5.23726"/><trkpt lat="52.10822" lon="5.238020000000001"/><trkpt lat="52.10844" lon="5.238910000000001"/><trkpt lat="52.11045000000001" lon="5.24622"/><trkpt lat="52.110980000000005" lon="5.24807"/><trkpt lat="52.111650000000004" lon="5.250260000000001"/><trkpt lat="52.11211" lon="5.251880000000001"/><trkpt lat="52.112170000000006" lon="5.25215"/><trkpt lat="52.112590000000004" lon="5.253520000000001"/><trkpt lat="52.112680000000005" lon="5.253850000000001"/><trkpt lat="52.112730000000006" lon="5.2540700000000005"/><trkpt lat="52.112790000000004" lon="5.25436"/><trkpt lat="52.113530000000004" lon="5.25703"/><trkpt lat="52.11412000000001" lon="5.25917"/><trkpt lat="52.114270000000005" lon="5.259670000000001"/><trkpt lat="52.115010000000005" lon="5.2624200000000005"/><trkpt lat="52.115190000000005" lon="5.26297"/><trkpt lat="52.115320000000004" lon="5.26353"/><trkpt lat="52.11558" lon="5.264500000000001"/><trkpt lat="52.11558" lon="5.264620000000001"/><trkpt lat="52.115880000000004" lon="5.26571"/><trkpt lat="52.11605" lon="5.26593"/><trkpt lat="52.1161" lon="5.26602"/><trkpt lat="52.11656000000001" lon="5.2676300000000005"/><trkpt lat="52.11708" lon="5.2693200000000004"/><trkpt lat="52.11719" lon="5.2697"/><trkpt lat="52.11764" lon="5.2712"/><trkpt lat="52.11862000000001" lon="5.2739400000000005"/><trkpt lat="52.119420000000005" lon="5.27599"/><trkpt lat="52.11965000000001" lon="5.27646"/><trkpt lat="52.11979" lon="5.2767800000000005"/><trkpt lat="52.119930000000004" lon="5.2770600000000005"/><trkpt lat="52.11966" lon="5.277430000000001"/><trkpt lat="52.11959" lon="5.277450000000001"/><trkpt lat="52.119510000000005" lon="5.277340000000001"/><trkpt lat="52.119400000000006" lon="5.2773"/><trkpt lat="52.119310000000006" lon="5.277340000000001"/><trkpt lat="52.11903" lon="5.27756"/><trkpt lat="52.118930000000006" lon="5.277620000000001"/><trkpt lat="52.119620000000005" lon="5.28012"/><trkpt lat="52.12023000000001" lon="5.282400000000001"/><trkpt lat="52.120340000000006" lon="5.282730000000001"/><trkpt lat="52.121030000000005" lon="5.285310000000001"/><trkpt lat="52.12182000000001" lon="5.284750000000001"/><trkpt lat="52.122040000000005" lon="5.28462"/><trkpt lat="52.122550000000004" lon="5.28429"/><trkpt lat="52.122600000000006" lon="5.28434"/><trkpt lat="52.12277" lon="5.284260000000001"/><trkpt lat="52.123050000000006" lon="5.284050000000001"/><trkpt lat="52.12328" lon="5.28389"/><trkpt lat="52.12326" lon="5.28383"/><trkpt lat="52.124480000000005" lon="5.282990000000001"/><trkpt lat="52.124990000000004" lon="5.28272"/><trkpt lat="52.1251" lon="5.28265"/><trkpt lat="52.125170000000004" lon="5.282570000000001"/><trkpt lat="52.12519" lon="5.282520000000001"/><trkpt lat="52.12519" lon="5.282430000000001"/><trkpt lat="52.12532" lon="5.282450000000001"/><trkpt lat="52.125490000000006" lon="5.28232"/><trkpt lat="52.127210000000005" lon="5.282400000000001"/><trkpt lat="52.12845" lon="5.282430000000001"/><trkpt lat="52.12841" lon="5.2855300000000005"/><trkpt lat="52.128460000000004" lon="5.2857"/><trkpt lat="52.12961000000001" lon="5.2868900000000005"/><trkpt lat="52.13002" lon="5.287280000000001"/><trkpt lat="52.13008000000001" lon="5.287280000000001"/><trkpt lat="52.130570000000006" lon="5.2877"/><trkpt lat="52.13071000000001" lon="5.28777"/><trkpt lat="52.13313" lon="5.28828"/><trkpt lat="52.13349" lon="5.288390000000001"/><trkpt lat="52.13392" lon="5.28863"/><trkpt lat="52.13438000000001" lon="5.2889100000000004"/><trkpt lat="52.13485000000001" lon="5.28917"/><trkpt lat="52.136950000000006" lon="5.29037"/><trkpt lat="52.137640000000005" lon="5.290850000000001"/><trkpt lat="52.14045" lon="5.29363"/><trkpt lat="52.14088" lon="5.294090000000001"/><trkpt lat="52.141560000000005" lon="5.294860000000001"/><trkpt lat="52.14171" lon="5.29506"/><trkpt lat="52.141650000000006" lon="5.29518"/><trkpt lat="52.141630000000006" lon="5.29525"/><trkpt lat="52.14164" lon="5.2953"/><trkpt lat="52.14166" lon="5.29535"/><trkpt lat="52.14215" lon="5.296"/><trkpt lat="52.143370000000004" lon="5.29769"/><trkpt lat="52.14499000000001" lon="5.299910000000001"/><trkpt lat="52.14515" lon="5.30013"/><trkpt lat="52.145230000000005" lon="5.29997"/><trkpt lat="52.145320000000005" lon="5.30006"/><trkpt lat="52.145360000000004" lon="5.299440000000001"/><trkpt lat="52.145430000000005" lon="5.29847"/><trkpt lat="52.146750000000004" lon="5.298900000000001"/><trkpt lat="52.14678000000001" lon="5.29896"/><trkpt lat="52.147800000000004" lon="5.29938"/><trkpt lat="52.14786" lon="5.299370000000001"/><trkpt lat="52.14871" lon="5.2991"/><trkpt lat="52.148860000000006" lon="5.29917"/><trkpt lat="52.14905" lon="5.299510000000001"/><trkpt lat="52.149150000000006" lon="5.299550000000001"/><trkpt lat="52.149330000000006" lon="5.299530000000001"/><trkpt lat="52.14945" lon="5.299550000000001"/><trkpt lat="52.150180000000006" lon="5.30004"/><trkpt lat="52.15055" lon="5.300560000000001"/><trkpt lat="52.15077" lon="5.301150000000001"/><trkpt lat="52.15084" lon="5.30126"/><trkpt lat="52.15090000000001" lon="5.301480000000001"/><trkpt lat="52.150980000000004" lon="5.301690000000001"/><trkpt lat="52.15110000000001" lon="5.30189"/><trkpt lat="52.151270000000004" lon="5.30212"/><trkpt lat="52.15142" lon="5.3022800000000005"/><trkpt lat="52.15169" lon="5.30245"/><trkpt lat="52.151880000000006" lon="5.3025400000000005"/><trkpt lat="52.15214" lon="5.302530000000001"/><trkpt lat="52.15220000000001" lon="5.30255"/><trkpt lat="52.15234" lon="5.30264"/><trkpt lat="52.15265" lon="5.3026800000000005"/><trkpt lat="52.15278000000001" lon="5.302770000000001"/><trkpt lat="52.152930000000005" lon="5.30271"/><trkpt lat="52.15306" lon="5.30273"/><trkpt lat="52.15319" lon="5.30283"/><trkpt lat="52.15335" lon="5.30283"/><trkpt lat="52.15375" lon="5.30264"/><trkpt lat="52.15388" lon="5.30267"/><trkpt lat="52.15399000000001" lon="5.30262"/><trkpt lat="52.15397" lon="5.30273"/><trkpt lat="52.153960000000005" lon="5.30285"/><trkpt lat="52.15401000000001" lon="5.303030000000001"/><trkpt lat="52.15401000000001" lon="5.303260000000001"/><trkpt lat="52.15399000000001" lon="5.30339"/><trkpt lat="52.15388" lon="5.303750000000001"/><trkpt lat="52.15392000000001" lon="5.30409"/><trkpt lat="52.15392000000001" lon="5.30447"/><trkpt lat="52.15390000000001" lon="5.3047"/><trkpt lat="52.15390000000001" lon="5.305020000000001"/><trkpt lat="52.15397" lon="5.305420000000001"/><trkpt lat="52.153960000000005" lon="5.305580000000001"/><trkpt lat="52.15401000000001" lon="5.30567"/><trkpt lat="52.15401000000001" lon="5.305770000000001"/><trkpt lat="52.15399000000001" lon="5.30588"/><trkpt lat="52.15397" lon="5.306010000000001"/><trkpt lat="52.15399000000001" lon="5.30607"/><trkpt lat="52.15401000000001" lon="5.306290000000001"/><trkpt lat="52.154140000000005" lon="5.306730000000001"/><trkpt lat="52.154180000000004" lon="5.306970000000001"/><trkpt lat="52.15444" lon="5.3079600000000005"/><trkpt lat="52.15444" lon="5.308210000000001"/><trkpt lat="52.154740000000004" lon="5.30977"/><trkpt lat="52.15491" lon="5.310350000000001"/><trkpt lat="52.15493000000001" lon="5.3105400000000005"/><trkpt lat="52.15493000000001" lon="5.31071"/><trkpt lat="52.15487" lon="5.31095"/><trkpt lat="52.15487" lon="5.3112"/><trkpt lat="52.15491" lon="5.311680000000001"/><trkpt lat="52.155" lon="5.312080000000001"/><trkpt lat="52.15493000000001" lon="5.31254"/><trkpt lat="52.15491" lon="5.3134500000000005"/><trkpt lat="52.154700000000005" lon="5.314640000000001"/><trkpt lat="52.15478" lon="5.314990000000001"/><trkpt lat="52.15482" lon="5.31526"/><trkpt lat="52.15489" lon="5.3157700000000006"/><trkpt lat="52.15487" lon="5.31597"/><trkpt lat="52.15489" lon="5.316120000000001"/><trkpt lat="52.15502000000001" lon="5.316420000000001"/><trkpt lat="52.15605000000001" lon="5.31698"/><trkpt lat="52.15607000000001" lon="5.31723"/><trkpt lat="52.156000000000006" lon="5.3174"/><trkpt lat="52.15599" lon="5.3174600000000005"/><trkpt lat="52.155770000000004" lon="5.31782"/><trkpt lat="52.155590000000004" lon="5.318370000000001"/><trkpt lat="52.15543" lon="5.31927"/><trkpt lat="52.155350000000006" lon="5.3193600000000005"/><trkpt lat="52.155240000000006" lon="5.319400000000001"/><trkpt lat="52.155" lon="5.3195500000000004"/><trkpt lat="52.15482" lon="5.31974"/><trkpt lat="52.15478" lon="5.32"/><trkpt lat="52.15491" lon="5.32078"/><trkpt lat="52.15489" lon="5.3212600000000005"/><trkpt lat="52.1548" lon="5.3215"/><trkpt lat="52.154740000000004" lon="5.32174"/><trkpt lat="52.15451" lon="5.32183"/><trkpt lat="52.15438" lon="5.3218000000000005"/><trkpt lat="52.154140000000005" lon="5.321510000000001"/><trkpt lat="52.153960000000005" lon="5.321440000000001"/><trkpt lat="52.15377" lon="5.321330000000001"/><trkpt lat="52.15343000000001" lon="5.321350000000001"/><trkpt lat="52.1533" lon="5.32148"/><trkpt lat="52.15317" lon="5.32185"/><trkpt lat="52.153090000000006" lon="5.32202"/><trkpt lat="52.152680000000004" lon="5.3223400000000005"/><trkpt lat="52.1525" lon="5.322360000000001"/><trkpt lat="52.15234" lon="5.3222000000000005"/><trkpt lat="52.152190000000004" lon="5.322150000000001"/><trkpt lat="52.15193000000001" lon="5.32225"/><trkpt lat="52.15176" lon="5.3224"/><trkpt lat="52.151430000000005" lon="5.32305"/><trkpt lat="52.15122" lon="5.323370000000001"/><trkpt lat="52.151" lon="5.32361"/><trkpt lat="52.15119000000001" lon="5.323950000000001"/><trkpt lat="52.15133" lon="5.32444"/><trkpt lat="52.15128000000001" lon="5.32469"/><trkpt lat="52.151180000000004" lon="5.32505"/><trkpt lat="52.150920000000006" lon="5.325970000000001"/><trkpt lat="52.15088" lon="5.32645"/><trkpt lat="52.150920000000006" lon="5.327120000000001"/><trkpt lat="52.15088" lon="5.3273600000000005"/><trkpt lat="52.15079000000001" lon="5.327590000000001"/><trkpt lat="52.15081000000001" lon="5.3277"/><trkpt lat="52.150870000000005" lon="5.32779"/><trkpt lat="52.151180000000004" lon="5.3285100000000005"/><trkpt lat="52.151390000000006" lon="5.32899"/><trkpt lat="52.15155000000001" lon="5.32906"/><trkpt lat="52.15225" lon="5.32925"/><trkpt lat="52.15247" lon="5.32932"/><trkpt lat="52.152570000000004" lon="5.3310200000000005"/><trkpt lat="52.152680000000004" lon="5.332540000000001"/><trkpt lat="52.15272" lon="5.332940000000001"/><trkpt lat="52.15279" lon="5.33307"/><trkpt lat="52.152860000000004" lon="5.33312"/><trkpt lat="52.15296000000001" lon="5.33316"/><trkpt lat="52.153000000000006" lon="5.3332500000000005"/><trkpt lat="52.15298000000001" lon="5.3344700000000005"/><trkpt lat="52.153000000000006" lon="5.33481"/><trkpt lat="52.153020000000005" lon="5.3365800000000005"/><trkpt lat="52.153020000000005" lon="5.33753"/><trkpt lat="52.15306" lon="5.33762"/><trkpt lat="52.15306" lon="5.3378000000000005"/><trkpt lat="52.153150000000004" lon="5.3394900000000005"/><trkpt lat="52.153150000000004" lon="5.33992"/><trkpt lat="52.15319" lon="5.340210000000001"/><trkpt lat="52.15319" lon="5.340310000000001"/><trkpt lat="52.15317" lon="5.34044"/><trkpt lat="52.153110000000005" lon="5.3407800000000005"/><trkpt lat="52.153110000000005" lon="5.341100000000001"/><trkpt lat="52.15307000000001" lon="5.3414"/><trkpt lat="52.153040000000004" lon="5.341620000000001"/><trkpt lat="52.15308" lon="5.34212"/><trkpt lat="52.15308" lon="5.342320000000001"/><trkpt lat="52.153130000000004" lon="5.34243"/><trkpt lat="52.153130000000004" lon="5.3425"/><trkpt lat="52.153110000000005" lon="5.343000000000001"/><trkpt lat="52.153090000000006" lon="5.34313"/><trkpt lat="52.15305000000001" lon="5.34323"/><trkpt lat="52.152950000000004" lon="5.34334"/><trkpt lat="52.152890000000006" lon="5.34344"/><trkpt lat="52.152800000000006" lon="5.34365"/><trkpt lat="52.152660000000004" lon="5.34384"/><trkpt lat="52.152100000000004" lon="5.34449"/><trkpt lat="52.152080000000005" lon="5.344620000000001"/><trkpt lat="52.15214" lon="5.34497"/><trkpt lat="52.15220000000001" lon="5.34543"/><trkpt lat="52.15229000000001" lon="5.346360000000001"/><trkpt lat="52.15231000000001" lon="5.346830000000001"/><trkpt lat="52.15231000000001" lon="5.347700000000001"/><trkpt lat="52.15223" lon="5.3481700000000005"/><trkpt lat="52.152120000000004" lon="5.34822"/><trkpt lat="52.15182" lon="5.348280000000001"/><trkpt lat="52.151680000000006" lon="5.348400000000001"/><trkpt lat="52.15158" lon="5.34851"/><trkpt lat="52.15146000000001" lon="5.34869"/><trkpt lat="52.15137000000001" lon="5.34895"/><trkpt lat="52.151300000000006" lon="5.34924"/><trkpt lat="52.15129" lon="5.34991"/><trkpt lat="52.15122" lon="5.350930000000001"/><trkpt lat="52.151180000000004" lon="5.351590000000001"/><trkpt lat="52.15115" lon="5.351800000000001"/><trkpt lat="52.15111" lon="5.35249"/><trkpt lat="52.151070000000004" lon="5.35273"/><trkpt lat="52.15093" lon="5.35304"/><trkpt lat="52.150850000000005" lon="5.353160000000001"/><trkpt lat="52.15075" lon="5.353280000000001"/><trkpt lat="52.150380000000006" lon="5.35358"/><trkpt lat="52.15025000000001" lon="5.35371"/><trkpt lat="52.15021" lon="5.353820000000001"/><trkpt lat="52.15019" lon="5.35395"/><trkpt lat="52.15019" lon="5.354080000000001"/><trkpt lat="52.15021" lon="5.35419"/><trkpt lat="52.150560000000006" lon="5.355110000000001"/><trkpt lat="52.150600000000004" lon="5.35545"/><trkpt lat="52.15055" lon="5.3554900000000005"/><trkpt lat="52.15034000000001" lon="5.355580000000001"/><trkpt lat="52.15034000000001" lon="5.35587"/><trkpt lat="52.15032000000001" lon="5.3560300000000005"/><trkpt lat="52.15003" lon="5.35681"/><trkpt lat="52.149890000000006" lon="5.357170000000001"/><trkpt lat="52.14972" lon="5.35773"/><trkpt lat="52.149530000000006" lon="5.3584700000000005"/><trkpt lat="52.149440000000006" lon="5.358930000000001"/><trkpt lat="52.149550000000005" lon="5.359000000000001"/><trkpt lat="52.149950000000004" lon="5.3597"/><trkpt lat="52.15081000000001" lon="5.36117"/><trkpt lat="52.151300000000006" lon="5.3620600000000005"/><trkpt lat="52.15167" lon="5.363580000000001"/><trkpt lat="52.15138" lon="5.363700000000001"/><trkpt lat="52.151180000000004" lon="5.363810000000001"/><trkpt lat="52.151070000000004" lon="5.363930000000001"/><trkpt lat="52.150980000000004" lon="5.364120000000001"/><trkpt lat="52.15090000000001" lon="5.364420000000001"/><trkpt lat="52.15077" lon="5.3652500000000005"/><trkpt lat="52.15073" lon="5.36599"/><trkpt lat="52.15081000000001" lon="5.36671"/><trkpt lat="52.15088" lon="5.36692"/><trkpt lat="52.15095" lon="5.367050000000001"/><trkpt lat="52.151410000000006" lon="5.36805"/><trkpt lat="52.151430000000005" lon="5.368150000000001"/><trkpt lat="52.152530000000006" lon="5.368130000000001"/><trkpt lat="52.152550000000005" lon="5.370240000000001"/><trkpt lat="52.152570000000004" lon="5.37058"/><trkpt lat="52.152590000000004" lon="5.371720000000001"/><trkpt lat="52.152590000000004" lon="5.3724300000000005"/><trkpt lat="52.15261" lon="5.37258"/><trkpt lat="52.152620000000006" lon="5.37283"/><trkpt lat="52.152660000000004" lon="5.37323"/><trkpt lat="52.15276000000001" lon="5.3737900000000005"/><trkpt lat="52.15276000000001" lon="5.37394"/><trkpt lat="52.152750000000005" lon="5.374350000000001"/><trkpt lat="52.15274" lon="5.374560000000001"/><trkpt lat="52.15272" lon="5.37567"/><trkpt lat="52.15272" lon="5.375850000000001"/><trkpt lat="52.15274" lon="5.3760200000000005"/><trkpt lat="52.152730000000005" lon="5.3765"/><trkpt lat="52.15274" lon="5.37664"/><trkpt lat="52.152750000000005" lon="5.3767700000000005"/><trkpt lat="52.152800000000006" lon="5.37694"/><trkpt lat="52.1529" lon="5.3772"/><trkpt lat="52.15301" lon="5.377490000000001"/><trkpt lat="52.15321" lon="5.3779900000000005"/><trkpt lat="52.15348" lon="5.378620000000001"/><trkpt lat="52.153580000000005" lon="5.37893"/><trkpt lat="52.15375" lon="5.37873"/><trkpt lat="52.154250000000005" lon="5.37823"/><trkpt lat="52.15431" lon="5.378170000000001"/><trkpt lat="52.154720000000005" lon="5.37891"/><trkpt lat="52.155170000000005" lon="5.37945"/><trkpt lat="52.155280000000005" lon="5.37959"/><trkpt lat="52.15549000000001" lon="5.38002"/><trkpt lat="52.155750000000005" lon="5.380420000000001"/><trkpt lat="52.156330000000004" lon="5.38112"/><trkpt lat="52.15693" lon="5.38163"/><trkpt lat="52.157340000000005" lon="5.382140000000001"/><trkpt lat="52.157300000000006" lon="5.382180000000001"/><trkpt lat="52.156850000000006" lon="5.38299"/><trkpt lat="52.15675" lon="5.38311"/><trkpt lat="52.156650000000006" lon="5.383170000000001"/><trkpt lat="52.1565" lon="5.383240000000001"/><trkpt lat="52.15626" lon="5.38328"/><trkpt lat="52.156040000000004" lon="5.38328"/><trkpt lat="52.15592" lon="5.383330000000001"/><trkpt lat="52.155550000000005" lon="5.3833400000000005"/><trkpt lat="52.15545" lon="5.38335"/><trkpt lat="52.15538" lon="5.383380000000001"/><trkpt lat="52.1544" lon="5.38356"/><trkpt lat="52.154070000000004" lon="5.38365"/><trkpt lat="52.15386" lon="5.38375"/><trkpt lat="52.15368" lon="5.383920000000001"/><trkpt lat="52.153560000000006" lon="5.3840900000000005"/><trkpt lat="52.15354000000001" lon="5.3841600000000005"/><trkpt lat="52.15341" lon="5.3844"/><trkpt lat="52.152570000000004" lon="5.385940000000001"/><trkpt lat="52.152550000000005" lon="5.38612"/><trkpt lat="52.15251000000001" lon="5.38626"/><trkpt lat="52.152480000000004" lon="5.386430000000001"/><trkpt lat="52.152440000000006" lon="5.3865300000000005"/><trkpt lat="52.152440000000006" lon="5.386590000000001"/><trkpt lat="52.15238" lon="5.38698"/><trkpt lat="52.15236" lon="5.387180000000001"/><trkpt lat="52.15225" lon="5.38757"/><trkpt lat="52.15218" lon="5.38766"/><trkpt lat="52.152120000000004" lon="5.38766"/><trkpt lat="52.152100000000004" lon="5.38773"/><trkpt lat="52.152100000000004" lon="5.38778"/><trkpt lat="52.15214" lon="5.3879"/><trkpt lat="52.15225" lon="5.38813"/><trkpt lat="52.152210000000004" lon="5.38869"/><trkpt lat="52.152210000000004" lon="5.389200000000001"/><trkpt lat="52.15229000000001" lon="5.38978"/><trkpt lat="52.15251000000001" lon="5.39078"/><trkpt lat="52.152530000000006" lon="5.39095"/><trkpt lat="52.152550000000005" lon="5.391050000000001"/><trkpt lat="52.15260000000001" lon="5.39116"/><trkpt lat="52.152680000000004" lon="5.39109"/><trkpt lat="52.15279" lon="5.39099"/><trkpt lat="52.15283" lon="5.39092"/><trkpt lat="52.15287000000001" lon="5.390750000000001"/><trkpt lat="52.152910000000006" lon="5.390650000000001"/><trkpt lat="52.15314000000001" lon="5.390250000000001"/><trkpt lat="52.153400000000005" lon="5.390020000000001"/><trkpt lat="52.15375" lon="5.38984"/><trkpt lat="52.15392000000001" lon="5.3912"/><trkpt lat="52.154070000000004" lon="5.39114"/><trkpt lat="52.15429" lon="5.3910100000000005"/><trkpt lat="52.15437000000001" lon="5.3912"/><trkpt lat="52.15457000000001" lon="5.39083"/><trkpt lat="52.15478" lon="5.39046"/></trkseg></trk></gpx>