<?xml version="1.0" encoding="UTF-8"?>
<gpx xmlns="http://www.topografix.com/GPX/1/1" creator="RouteYou" version="1.1" xmlns:xsi="http://www.w3.org/2001/XMLSchema-instance" xsi:schemaLocation="http://www.topografix.com/GPX/1/1 http://www.topografix.com/GPX/1/1/gpx.xsd">
  <wpt lat="52.09069" lon="5.12173">
    <name>Catedral de Utrecht</name>
    <desc>&lt;p&gt;La catedral de Utrecht es una de las pocas iglesias por las que se puede pasear o andar en bicicleta.&lt;br/&gt;
La Catedral de Utrecht fue construida sobre el Castellum Romanum. La primera piedra de esta versión gótica de la iglesia fue colocada por el obispo Hendrik de Vianden en 1254. La construcción duraría hasta 1517.&lt;br/&gt;
La gloria de la catedral no fue duradera. Debido a la reforma, los ingresos colapsaron y el mantenimiento también se volvió difícil.&lt;br/&gt;
En 1847 se retiraron los restos de la nave. En este lugar ahora se encuentra la plaza de la catedral, que separa la torre del resto de la iglesia. Así que ofrece una perspectiva excepcional de esta iglesia. A pesar de las adversidades, esta es una de las más bellas muestras de gótico en los Países Bajos.&lt;/p&gt;&lt;br/&gt;&lt;br/&gt;Autor: &lt;a href="https://www.routeyou.com/user/view/2482.es"&gt;Dromos&lt;/a&gt;&lt;br/&gt;&lt;a href="https://www.routeyou.com/location/view/4570013.es?toptext=398442"&gt;Más información&lt;/a&gt;</desc>
    <type>Iglesia</type>
  </wpt>
  <wpt lat="52.0926" lon="5.12126">
    <name>Iglesia de Willibrordo</name>
    <desc>&lt;p&gt;En la calle Minrebroeder estaba el Hotel Place Royale, donde en abril de 1766 se alojaron los Mozart (incluido Wolfgang Amadeus Mozart). En el lugar donde ahora se encuentra la iglesia de Willibrordus, estaba el Place Royal.&lt;/p&gt;&lt;br/&gt;&lt;br/&gt;Autor: &lt;a href="https://www.routeyou.com/user/view/2482.es"&gt;Dromos&lt;/a&gt;&lt;br/&gt;&lt;a href="https://www.routeyou.com/location/view/47225334.es?toptext=577033"&gt;Más información&lt;/a&gt;</desc>
    <type>Iglesia</type>
  </wpt>
  <wpt lat="52.11072" lon="5.15812">
    <name>Nueva Línea de Agua Holandesa - Fuerte Voordorp</name>
    <desc>La Nueva Línea de Agua Holandesa se construyó a partir de 1816. La línea estaba mucho más al este que la Antigua Línea de Agua Holandesa e incluía la ciudad de Utrecht. Una franja de tierra desde Muiden hasta Biesbosch podía inundarse hasta 40 cm. Esta profundidad se eligió deliberadamente: era demasiado poco profunda para ser navegable, pero demasiado profunda para poder vadear correctamente. La línea fue asegurada por muchas fortalezas, que fueron ampliadas en la década de 1850 con edificios a prueba de bombas. Después del primer uso de la línea a finales del siglo XIX, salieron a la luz muchas deficiencias. Estas se abordaron posteriormente. Sin embargo, la tecnología cambió demasiado rápido para las fortalezas. Con la introducción de proyectiles más potentes en el siglo XX, muchas de las fortificaciones ya no estaban adecuadamente equipadas. Estas fortalezas fueron complementadas con refugios de concreto y casamatas en y alrededor de las fortalezas. Dado que a partir de la Segunda Guerra Mundial una gran parte del desplazamiento se realizaba por aire, inundar la tierra ya no era una técnica defensiva eficaz y la Nueva Línea de Agua Holandesa fue desactivada. A partir de entonces, surgieron muchas iniciativas para preservar las fortalezas.

Esta fortaleza en la dike de Voordorp se encontraba en medio de las áreas de inundación en un segundo anillo alrededor de Utrecht. Este segundo anillo se construyó alrededor de 1870 para mantener al enemigo más alejado de la ciudad de Utrecht. Además, la fortaleza podía proporcionar fuego lateral en la línea de tren Amersfoort - Utrecht. Desde 1990, la fortaleza ha sido restaurada y convertida en un lugar para eventos, que ahora puede albergar hasta 2500 personas.&lt;br/&gt;&lt;br/&gt;Autor: &lt;a href="https://www.routeyou.com/user/view/175709.es"&gt;Teun van Woerkom&lt;/a&gt;&lt;br/&gt;&lt;a href="https://www.routeyou.com/location/view/48656656.es?toptext=2305090"&gt;Más información&lt;/a&gt;</desc>
    <type>Fortaleza</type>
  </wpt>
  <wpt lat="52.10139" lon="5.17842">
    <name>El KNMI</name>
    <desc>El KNMI fue fundado en 1854 y se estableció inicialmente en el bastión Sonnenborg en Utrecht. En 1897, el instituto se trasladó a De Bilt. Con la llegada de la aviación y los informes meteorológicos a través del éter, el KNMI se hizo conocido a nivel nacional. Desde el año 2000, los más de 450 empleados están ubicados en un nuevo edificio que fue inaugurado por la reina Beatriz. Es posible que el instituto se mude a un entorno menos urbanizado en los próximos años. Se pretende que la notable torre de radar con bola, que coloquialmente se llama 'De Spijker', se conserve para De Bilt.&lt;br/&gt;&lt;br/&gt;Autor: &lt;a href="https://www.routeyou.com/user/view/171527.es"&gt;De Wandelmaker&lt;/a&gt;&lt;br/&gt;&lt;a href="https://www.routeyou.com/location/view/48683575.es?toptext=2342205"&gt;Más información&lt;/a&gt;</desc>
    <type>Estación meteorológico</type>
  </wpt>
  <wpt lat="52.10433" lon="5.18172">
    <name>Iglesia del Pueblo De Bilt</name>
    <desc>La Iglesia del Pueblo data de 1652 y es, por lo tanto, la iglesia más antigua de De Bilt. Originalmente había un campanario en la cúspide del techo donde colgaba la campana. En 1839 se reemplazó porque se añadió una verdadera torre a la iglesia. Desde la fusión de la iglesia Reformada, la iglesia Reformada y la iglesia Luterana en 2004, la iglesia del pueblo es utilizada por la Comunidad Protestante De Bilt (PKN).&lt;br/&gt;&lt;br/&gt;Autor: &lt;a href="https://www.routeyou.com/user/view/171527.es"&gt;De Wandelmaker&lt;/a&gt;&lt;br/&gt;&lt;a href="https://www.routeyou.com/location/view/48684912.es?toptext=2342412"&gt;Más información&lt;/a&gt;</desc>
    <type>Iglesia</type>
  </wpt>
  <wpt lat="52.09819" lon="5.13819">
    <name>Terreno de veterinaria</name>
    <desc>Desde aquí hasta el puente en Biltstraat se pueden ver diversos edificios empresariales que datan de la época en que la Escuela de Veterinaria estaba ubicada aquí. En 1818 se compró terreno aquí, en 1988 la facultad de medicina se trasladó al nuevo campus universitario en Uithof. La mayoría de los edificios datan del período 1870-1920. A la izquierda, un poco más lejos del agua, primero la clínica de animales pequeños. Actualmente aquí hay, entre otras cosas, un consultorio médico. A la derecha, entre otros, el edificio de anatomía (ahora guardería infantil) y la escuela de equitación (ahora el teatro De Paardenkathedraal). En el jardín hay una mesa de corte. Muchos edificios, incluidos los establos, han sido converted to homes. El elegante restaurante "Goesting" está ubicado en los antiguos perreras.

¡Atraque el barco para hacer un picnic!&lt;br/&gt;&lt;br/&gt;Autor: &lt;a href="https://www.routeyou.com/user/view/205956.es"&gt;Kleine Boten Club Utrecht&lt;/a&gt;&lt;br/&gt;&lt;a href="https://www.routeyou.com/location/view/48690539.es?toptext=2351858"&gt;Más información&lt;/a&gt;</desc>
    <type>Edificio histórico</type>
  </wpt>
  <wpt lat="52.094" lon="5.14446">
    <name>Opcional: hacia la Bilt</name>
    <desc>Navegamos entre Waterlinieweg este y el cementerio de Santa Bárbara. Santa Bárbara es un cementerio católico, el último lugar de descanso de, entre otros, los cardenales de Utrecht Alfrink y Willebrands.  
Este trozo de agua se llama Ridderschapsvaart: en el pasado, conectaba todas las fortificaciones de la línea de agua en el lado este de Utrecht para su abastecimiento.  

Es posible continuar navegando hacia el este bajo Waterlinieweg en dirección a Bilt a través del parque Bloeyendaal. Si tienes un bote muy bajo, puedes pasar bajo los puentes bajos e incluso llegar a Bilt. Es un trozo de agua aventurero donde debes maniobrar con cuidado entre los árboles. Los martinetes se pueden encontrar en esta área y si te gusta recoger moras, este es el lugar para estar.&lt;br/&gt;&lt;br/&gt;Autor: &lt;a href="https://www.routeyou.com/user/view/205956.es"&gt;Kleine Boten Club Utrecht&lt;/a&gt;&lt;br/&gt;&lt;a href="https://www.routeyou.com/location/view/48690541.es?toptext=2351860"&gt;Más información&lt;/a&gt;</desc>
    <type>Señal</type>
  </wpt>
  <wpt lat="52.10948" lon="5.15933">
    <name>Fort Voordorp</name>
    <desc>Fort Voordorp fue construido entre 1867 y 1871. Formaba parte de la Nueva Línea de Agua Holandesa que se extiende desde la isla de Pampus en el Zuiderzee hasta Biesbosch. En total se construyeron 46 fuertes en la línea de agua. La totalidad de la Nueva Línea de Agua Holandesa podría formar parte de la lista del Patrimonio Mundial de la Unesco en 2019. 
Fort Voordorp se utiliza como lugar para eventos.&lt;br/&gt;&lt;br/&gt;Autor: &lt;a href="https://www.routeyou.com/user/view/171527.es"&gt;De Wandelmaker&lt;/a&gt;&lt;br/&gt;&lt;a href="https://www.routeyou.com/location/view/48826297.es?toptext=2509030"&gt;Más información&lt;/a&gt;</desc>
    <type>Fortaleza</type>
  </wpt>
  <wpt lat="52.05699" lon="5.16952">
    <name>POI</name>
    <desc>Bajo la estación Lunetten, pasa por debajo de las vías. En la bifurcación T gira a la derecha a lo largo de las vías y en la siguiente bifurcación T vuelve a la derecha.
&lt;br/&gt;A lo largo del campo de golf.
&lt;br/&gt;Pasa por debajo de la A12 y en Marsdijk gira a la izquierda. A lo largo de Fort bij Vechten. En Achterdijk gira a la izquierda y justo antes de la A12 gira a la derecha en un camino donde está prohibido para coches.
&lt;br/&gt;Sigue este camino hasta la salida de la A12. Cruza en los semáforos y gira a la derecha.
&lt;br/&gt;Gira a la izquierda en Odijk en la Singel. Sigue el camino hasta Zeisterweg, aquí gira a la izquierda. Justo antes del túnel debajo de la A12 gira a la derecha hacia el carril bici.&lt;br/&gt;&lt;br/&gt;Autor: &lt;a href="https://www.routeyou.com/user/view/37774.es"&gt;37774&lt;/a&gt;&lt;br/&gt;&lt;a href="https://www.routeyou.com/location/view/50019251.es?toptext=4304274"&gt;Más información&lt;/a&gt;</desc>
    <type>Punto de interés</type>
  </wpt>
  <wpt lat="52.07866" lon="5.2343">
    <name>Castillo de Zeist</name>
    <desc>El Castillo de Zeist es un castillo en el municipio neerlandés de Zeist. El castillo está rodeado por un parque paisajístico inglés.&lt;br/&gt;&lt;br/&gt;Una primera mención de la ciudad caballeresca de Zeist data del año 1152 y en 1536 fue reconocido oficialmente como tal. El castillo fue fundado por Willem Adriaan I de Nassau, señor de Odijk, Kortgene, Zeist y Driebergen, el nieto del príncipe Maurits de Nassau. El arquitecto de la casa fue Jacob Roman, quien también diseñó el palacio de Het Loo. El interior fue diseñado principalmente por el hugonote Daniël Marot, cuyas pinturas murales y de techo evocan el barroco francés y se han conservado en gran medida. La construcción duró de 1677 a 1686.&lt;br/&gt;&lt;br/&gt;El Castillo de Zeist fue construido en el siglo XVII como un lugar de ocio para Willem Adriaan, conde de Nassau-Odijk. El poder, el prestigio y la riqueza debían ser visibles. La grandeza de esta casa aristocrática se siente de inmediato al entrar por la majestuosa avenida de acceso. La entrada prominente ofrece una cálida bienvenida. El interior clásico de las salas de estilo emana la exuberante calidez del barroco.&lt;br/&gt;&lt;br/&gt;Con el diseño y el interior, el diseñador de interiores, Daniel Marot, introdujo el barroco en los Países Bajos. Las salas de estilo se han mantenido intactas y son comparables con los interiores de los palacios reales.&lt;br/&gt;&lt;br/&gt;A lo largo de los años, el Castillo ha cambiado de propietario y de función en varias ocasiones, hasta que finalmente pasó a manos del Municipio de Zeist. Desde entonces, se han llevado a cabo muchas fiestas y eventos especiales, y el equipo de cocina de Figi ha preparado muchas cenas especiales en el Castillo de Zeist.&lt;br/&gt;&lt;br/&gt;La restauración en los años 60 y la reciente renovación muestran la rica historia del Castillo en todo su esplendor.&lt;br/&gt;&lt;br/&gt;Autor: &lt;a href="https://www.routeyou.com/user/view/91803.es"&gt;MX-5 Roadster Club NL&lt;/a&gt;&lt;br/&gt;&lt;a href="https://www.routeyou.com/location/view/50021178.es?toptext=4306198"&gt;Más información&lt;/a&gt;</desc>
    <type>Castillo</type>
  </wpt>
  <wpt lat="52.05882" lon="5.16804">
    <name>Fuerte de Vechten</name>
    <desc>Desde el camping, gira a la derecha en Arnhemse Bovenweg. Justo antes de la A12, gira a la izquierda en Loolaan. Gira a la derecha en Hoofdstraat y a la izquierda en Hoge Woerd. (Justo al lado de la salida de la A12)
&lt;br/&gt;En Zeisterweg, gira a la izquierda hacia Odijk y en Singel gira a la derecha.
&lt;br/&gt;Al salir de Odijk, gira a la derecha por N229. En la entrada y salida de la A12, gira a la izquierda en Parallelweg y sigue este camino. También en la parte que está prohibida para coches. En la intersección en T, gira a la izquierda y en la siguiente intersección en T, gira a la derecha en Marsdijk.
&lt;br/&gt;En la vía del tren, gira a la derecha, pasa por debajo de la A12 y justo antes de las barreras del tren, gira a la izquierda sobre la A27 y luego la primera carretera a la izquierda.&lt;br/&gt;&lt;br/&gt;Autor: &lt;a href="https://www.routeyou.com/user/view/37774.es"&gt;37774&lt;/a&gt;&lt;br/&gt;&lt;a href="https://www.routeyou.com/location/view/47553786.es?toptext=4546985"&gt;Más información&lt;/a&gt;</desc>
    <type>Espacio natural</type>
  </wpt>
  <wpt lat="52.08883" lon="5.11753">
    <name>Suelo de mosaico medieval</name>
    <desc>Suelo de baldosas&lt;br/&gt;&lt;br/&gt;De Bemuurde Weerd (al otro lado de la ciudad) es ahora un barrio próspero, pero en la Edad Media era un barrio pobre. Los arqueólogos descubrieron en 1979 que durante esa época algo muy especial sucedía en este barrio: la producción de hermosas baldosas de colores, con mosaicos y arcilla coloreada, decoradas y vidriadas. Las excavaciones de los años ochenta revelaron que Utrecht tenía una importante industria de baldosas durante los siglos XIII y XIV. &lt;br/&gt;El florecimiento de esta industria tuvo varias razones. Los alfareros y fabricantes de baldosas no se establecieron junto al agua sin motivo. El Vecht proporcionaba, en primer lugar, una arcilla rojo fuego perfecta. Además, la cercanía de suficiente combustible y el transporte fácil por el Vecht contribuyeron al éxito. La explosiva expansión de la construcción también fue favorable: las baldosas de mosaico eran un revestimiento popular para familias ricas y edificios eclesiásticos. &lt;br/&gt;Las baldosas de Utrecht tenían aproximadamente 26 cm2. La mayoría estaban vidriadas con plomo (el más barato), algunas con estaño. Estas se pintaban sobre una base opaca blanca. Las decoraciones variaban en su color verde-marrón, desde simples motivos geométricos hasta retratos. El color negro se lograba al añadir plomo, el amarillo era blanco mezclado con estaño y el verde se hacía con cobre. En los patrones complejos también se pueden encontrar figuras que eran especialmente comunes en Inglaterra. Esto arroja una nueva luz sobre las relaciones anglo-neerlandesas durante el siglo XIV. &lt;br/&gt;Así, se encontraron baldosas similares a las de Utrecht en Essex, Inglaterra. También se han encontrado baldosas de Frisia y Flandes en el antiguo monasterio de María. Esto es notable porque la importación apenas ocurría en esa época. Es probable que británicos, frisones y flamencos desempleados vinieran a Utrecht en busca de su suerte.&lt;br/&gt;&lt;br/&gt;Autor: &lt;a href="https://www.routeyou.com/user/view/159222.es"&gt;SA&lt;/a&gt;&lt;br/&gt;&lt;a href="https://www.routeyou.com/location/view/50471509.es?toptext=4798881"&gt;Más información&lt;/a&gt;</desc>
    <type>Patrimonio</type>
  </wpt>
  <wpt lat="52.08941" lon="5.12323">
    <name>Abadía de Pablo</name>
    <desc>En 1050, el obispo Bernold fundó una nueva gran iglesia en Utrecht. Fue el comienzo de una serie de grandes obras religiosas. Esta estaba dedicada a San Pablo y destinada a los monjes benedictinos del monasterio de Anfried, que debían mudarse de Amersfoort a Utrecht. Esta abadía de Pablo era parte de las tres iglesias que se construyeron alrededor de la catedral de San Martín. Cada una tenía su propia ‘inmunidad’: un patio alrededor de la iglesia donde residían importantes figuras eclesiásticas, donde regían sus propias leyes.&lt;br/&gt;De la iglesia, que ya no existe, se sabe poco. Durante una renovación, en 1994, se descubrió la cimentación y una parte del antiguo altar. También se descubrió que la pared este todavía existía, escondida detrás de un enlucido del siglo XVII. Se decidió preservar esta parte para la posteridad.&lt;br/&gt;Hoy en día, esta pared se puede ver en el Archivo de Utrecht y a través de la Hofpoort (situada entre Nieuwegracht 9-11).&lt;br/&gt;&lt;br/&gt;Autor: &lt;a href="https://www.routeyou.com/user/view/159222.es"&gt;SA&lt;/a&gt;&lt;br/&gt;&lt;a href="https://www.routeyou.com/location/view/50471512.es?toptext=4798884"&gt;Más información&lt;/a&gt;</desc>
    <type>Abadía</type>
  </wpt>
  <wpt lat="52.08722" lon="5.12417">
    <name>Museo Catharijneconvent</name>
    <desc>El Museo Catharijneconvent es un museo nacional de arte religioso en Utrecht. El museo está ubicado en el antiguo convento de Catharijneconvent, que probablemente fue consagrado a Santa Catalina de Alejandría ya en el siglo XII. El edificio del convento está adosado a la catedral de Santa Catalina. El museo proviene de diferentes colecciones.&lt;br/&gt;&lt;br/&gt;Autor: &lt;a href="https://www.routeyou.com/user/view/165089.es"&gt;Wikipedia&lt;/a&gt;&lt;br/&gt;&lt;a href="https://www.routeyou.com/location/view/50580681.es?toptext=5640874"&gt;Más información&lt;/a&gt;</desc>
    <type>Museo</type>
  </wpt>
  <wpt lat="52.08722" lon="5.13139">
    <name>El Museo del Ferrocarril</name>
    <desc>El Museo del Ferrocarril, hasta 2005 conocido como Museo del Ferrocarril Holandés, está ubicado desde 1954 en la estación Maliebaan, construida en 1874, en la línea ferroviaria oriental de la ciudad de Utrecht. El 7 de enero de 1927 se fundó la Fundación Museo del Ferrocarril Holandés. La colección se alojó en un edificio de los Ferrocarriles Holandeses en Utrecht, que ya ha desaparecido, donde el Museo del Ferrocarril Holandés fue inaugurado oficialmente el 1 de diciembre de 1928. La colección contenía principalmente imágenes, documentación y atributos ferroviarios. En 1935, el museo se mudó al Edificio Principal de NS I en el parque Moreelse. En los años treinta se tomaron las primeras iniciativas para preservar material ferroviario antiguo de importancia histórica. Como resultado de las circunstancias de guerra, parte de este material se perdió.&lt;br/&gt;&lt;br/&gt;Autor: &lt;a href="https://www.routeyou.com/user/view/165089.es"&gt;Wikipedia&lt;/a&gt;&lt;br/&gt;&lt;a href="https://www.routeyou.com/location/view/50580683.es?toptext=5640876"&gt;Más información&lt;/a&gt;</desc>
    <type>Museo</type>
  </wpt>
  <wpt lat="52.08333" lon="5.12583">
    <name>Centraal Museum</name>
    <desc>El Centraal Museum es el museo de la ciudad de Utrecht, Países Bajos, que alberga una importante colección de arte de antes de 1850, arte moderno, artes aplicadas, moda e historia de la ciudad. El museo fue fundado en 1838. Inicialmente, la colección —expuesta en el último piso del ayuntamiento de Utrecht— se limitaba al arte relacionado con la ciudad de Utrecht. En 1921 esa colección se fusionó con diversas colecciones privadas en un nuevo museo central ubicado en el antiguo monasterio medieval de Nicolaaskerkhof .&lt;br/&gt;&lt;br/&gt;Autor: &lt;a href="https://www.routeyou.com/user/view/165089.es"&gt;Wikipedia&lt;/a&gt;&lt;br/&gt;&lt;a href="https://www.routeyou.com/location/view/47535298.es?toptext=5640890"&gt;Más información&lt;/a&gt;</desc>
    <type>Museo</type>
  </wpt>
  <wpt lat="52.09915" lon="5.13743">
    <name>Alexander Numankade</name>
    <desc>La Alexander Numankade es una calle en la ciudad neerlandesa de Utrecht, en el barrio de Zeeheldenbuurt, que va desde la Blauwkapelseweg hasta la Bleyenburgstraat y la F.C. Dondersstraat, donde se transforma. Paralela a la Alexander Numankade corre la Biltsche Grift.&lt;br/&gt;&lt;br/&gt;Las calles laterales de la Alexander Numankade son la Hengeveldstraat, Hekmeijerstraat, puente sobre la Biltsche Grift hacia la Griftkade, Jan van Galenstraat, M.A. de Ruyterstraat, Van Brakelstraat, Griftbrug, detrás de la cual se encuentra la Poortstraat, Van Speijkstraat y la Cornelis Evertsenstraat.&lt;br/&gt;&lt;br/&gt;&lt;br/&gt;Autor: &lt;a href="https://www.routeyou.com/user/view/165089.es"&gt;Wikipedia&lt;/a&gt;&lt;br/&gt;&lt;a href="https://www.routeyou.com/location/view/50589181.es?toptext=5654151"&gt;Más información&lt;/a&gt;</desc>
    <type>Aeropuerto</type>
  </wpt>
  <wpt lat="52.07306" lon="5.23528">
    <name>Blikkenburg</name>
    <desc>Blikkenburg fue una ciudad nobiliaria en la provincia de Utrecht en el Overkwartier, bajo Zeist.&lt;br/&gt;Presumiblemente, la casa fue fundada a mediados del siglo XIV por un señor de la antigua estirpe de los Wulven. Los escudos también son compatibles, solo que el de esta estirpe es de oro y rojo. Una de las hijas del fundador se habría casado con un Frederik van Zuilen, tras lo cual sus hijos se llamaron Van Zuilen de Blikkenburg.&lt;br/&gt;&lt;br/&gt;&lt;br/&gt;Autor: &lt;a href="https://www.routeyou.com/user/view/165089.es"&gt;Wikipedia&lt;/a&gt;&lt;br/&gt;&lt;a href="https://www.routeyou.com/location/view/50770856.es?toptext=5971035"&gt;Más información&lt;/a&gt;</desc>
    <type>Lugar histórico</type>
  </wpt>
  <wpt lat="52.08373" lon="5.2357">
    <name>Kersbergen</name>
    <desc>Probablemente fundado como una casa de caza de los obispos de Utrecht, fue propiedad del hogar Renesse desde muy temprano. La primera mención de la casa es en un documento del 18 de mayo de 1417, en el que Voern van Kersberch "reconoce" la parcela de tierra y la granja. Un año más tarde, el 17 de julio de 1418, la casa y la hacienda de Kersberch fueron transferidas a título de propiedad libre al señor Johan van Renesse van Rhijnauwen por Loef van den Gheyne. En 1498, fue transferido por Vincent van Renesse van Everdingen a Dirk van Zuylen van Harmelen, quien estaba casado con la hermana de Vincent, Maria van Renesse. En 1538, Kersbergen fue oficialmente reconocido por los Estados de Utrecht como ciudad caballeresca, y la casa pasó a ser propiedad de la hija de Dirk, Johanna van Zuylen van Harmelen, y su esposo Harmen van Heemskerk, quienes lo legaron a la sobrina de Johanna, Gijsberta van Zuylen van Harmelen. Hasta finales del siglo XVI, estuvo en manos de la familia Van Zuylen van Harmelen. En una grabado en cobre de Jan van Vianen se le denomina Carsbergen. Una mención archivística posterior se refiere a la ciudad caballeresca Karsbergen.&lt;br/&gt;&lt;br/&gt;Autor: &lt;a href="https://www.routeyou.com/user/view/165089.es"&gt;Wikipedia&lt;/a&gt;&lt;br/&gt;&lt;a href="https://www.routeyou.com/location/view/50770861.es?toptext=5971053"&gt;Más información&lt;/a&gt;</desc>
    <type>Edificio histórico</type>
  </wpt>
  <wpt lat="52.09049" lon="5.24226">
    <name>Iglesia Rehoboth</name>
    <desc>La iglesia Rehoboth es un edificio de la Iglesia Reformada ubicado en Joubertlaan en Zeist, construido en 1972 según un diseño de la oficina de arquitectos Van Hoogevest de Amersfoort. La iglesia de ladrillo tiene 1,160 asientos. El hecho de que el edificio de la iglesia tenga una forma inusual en comparación con el entorno se debe al hecho de que la construcción de la iglesia fue un primer paso hacia el nuevo plan central. En los alrededores del edificio de la iglesia se planearon edificios de apartamentos. De esta manera, la construcción en el área central debía considerarse como un todo. Después de la construcción de la iglesia, el plan central cambió. El área en la que se encontraba la iglesia fue entonces modificada y se convirtió en un área de rehabilitación, lo que significaba que las viviendas no se demolieron para nuevas construcciones, sino que fueron rehabilitadas. Debido a esta modificación, la iglesia y la torre de agua cercana siguen siendo las únicas edificaciones altas en la zona. La altura de las torres es de 19 m, la del techo en la parte central es de 17 m, mientras que el diámetro exterior de la iglesia es de 33 m. En la iglesia se han utilizado 220,000 ladrillos.&lt;br/&gt;&lt;br/&gt;Autor: &lt;a href="https://www.routeyou.com/user/view/165089.es"&gt;Wikipedia&lt;/a&gt;&lt;br/&gt;&lt;a href="https://www.routeyou.com/location/view/50770896.es?toptext=5971199"&gt;Más información&lt;/a&gt;</desc>
    <type>Iglesia</type>
  </wpt>
  <wpt lat="52.09924" lon="5.21265">
    <name>Montessori Lyceum Herman Jordan</name>
    <desc>El Jordan Montessori Lyceum Utrecht, conocido coloquialmente como el Jordan, es una escuela secundaria en Zeist, con aproximadamente 850 alumnos. Se ofrece havo y vwo.&lt;br/&gt;&lt;br/&gt;En la escuela se enseña según el sistema Montessori. Al comienzo de cada año escolar, los alumnos reciben un llamado "librito de tareas". En este librito se describe por materia qué tareas deben estar completas al final del año escolar y cuántos puntos se asignan a cada tarea realizada. Normalmente, estas son exámenes, capítulos y otros trabajos. Un pensum es un período en el que deben completarse las tareas. Cuando una tarea está finalizada, el docente de la materia correspondiente coloca una firma en el librito de tareas como confirmación, lo que indica que la tarea ha sido completada. Un pensum dura aproximadamente ocho semanas y hay cuatro pensums al año. Después de cada pensum, también hay una semana de recuperación en la que puedes finalizar el trabajo que aún no has completado. Durante esta semana, puedes programar tus horas a tu gusto. Después de cada pensum, se registran los logros de un alumno en un 'informe'. En este informe se menciona la cantidad de trabajo que el alumno ha realizado, cómo ha sido evaluado y, si es necesario, una breve explicación de cada docente.&lt;br/&gt;&lt;br/&gt;&lt;br/&gt;Autor: &lt;a href="https://www.routeyou.com/user/view/165089.es"&gt;Wikipedia&lt;/a&gt;&lt;br/&gt;&lt;a href="https://www.routeyou.com/location/view/50770915.es?toptext=5971257"&gt;Más información&lt;/a&gt;</desc>
    <type>Escuela</type>
  </wpt>
  <wpt lat="52.0675" lon="5.16945">
    <name>Amelisweerd</name>
    <desc>Amelisweerd es una finca en el municipio de Bunnik, al este de la ciudad de Utrecht. La finca se encuentra a orillas del Kromme Rijn entre Utrecht y Bunnik y limita con la finca Rhijnauwen. Hay varias rutas de senderismo que recorren Amelisweerd.&lt;br/&gt;&lt;br/&gt;Amelisweerd se menciona indirectamente por primera vez en 1224 con la mención del caballero Amelis miles de Insula, que es la variante latina de Amelis de Weerd. Se presume que este Amelis tenía un alojamiento a lo largo del Kromme Rijn en feudo de la proosdij de Oudmunster en Utrecht y de ahí proviene el nombre.&lt;br/&gt;&lt;br/&gt;Autor: &lt;a href="https://www.routeyou.com/user/view/165089.es"&gt;Wikipedia&lt;/a&gt;&lt;br/&gt;&lt;a href="https://www.routeyou.com/location/view/50770954.es?toptext=5971396"&gt;Más información&lt;/a&gt;</desc>
    <type>Bosque</type>
  </wpt>
  <wpt lat="52.10946" lon="5.24091">
    <name>Villa Henny</name>
    <desc>Villa Henny es una villa en Huis ter Heide ahora Bosch en Duin en la Amersfoortseweg 11A en el municipio de Zeist en los Países Bajos. El edificio es un monumento nacional y está en la 'Top 100 de la Agencia Nacional de Patrimonio Cultural' de 1990. El valor del edificio es de 2,5 millones de euros. Fue construido entre 1915 y 1916 según un diseño de 1914 de Robert van 't Hoff, por encargo del empresario Anton Bernhard Henny, miembro de la familia Henny.&lt;br/&gt;&lt;br/&gt;Autor: &lt;a href="https://www.routeyou.com/user/view/165089.es"&gt;Wikipedia&lt;/a&gt;&lt;br/&gt;&lt;a href="https://www.routeyou.com/location/view/50770961.es?toptext=5971422"&gt;Más información&lt;/a&gt;</desc>
    <type>Punto de interés</type>
  </wpt>
  <wpt lat="52.07081" lon="5.15755">
    <name>Nuevo-Amelisweerd</name>
    <desc>Nieuw-Amelisweerd, antes Groenewoude, es un castillo y una ciudad caballeresca cerca de Bunnik en la provincia de Utrecht, Países Bajos. Se encuentra en la actual finca Amelisweerd.&lt;br/&gt;&lt;br/&gt;En 1224, el caballero Amelius uten Werde recibió un feudo del capítulo de Oudmunster y construyó una ciudad caballeresca. El nombre Amelisweerd es una deformación de la palabra "feudo de Amelius" o "Amelis-waard". Tras la muerte de Amelius, la finca fue dividida por sus hijos en tres partes. Dos partes constituyen el actual Oud-Amelisweerd, y la tercera parte es la actual Nieuw-Amelisweerd.&lt;br/&gt;&lt;br/&gt;&lt;br/&gt;Autor: &lt;a href="https://www.routeyou.com/user/view/165089.es"&gt;Wikipedia&lt;/a&gt;&lt;br/&gt;&lt;a href="https://www.routeyou.com/location/view/47457230.es?toptext=5971576"&gt;Más información&lt;/a&gt;</desc>
    <type>Lugar arquitectónico</type>
  </wpt>
  <wpt lat="52.09929" lon="5.11542">
    <name>Molino de viento Rijn en Zon</name>
    <desc>&lt;p&gt;En la Avenida Adelaar en el barrio Vogelenbuurt se encuentra el molino de grano Rijn en Zon, de 18 metros de altura. Es uno de los dos últimos molinos en la ciudad de Utrecht, junto con el molino de sierra de madera De Ster en Lombok.&lt;/p&gt;

&lt;p&gt;En siglos pasados, había decenas de molinos en Utrecht, hermosamente altos en la muralla de la ciudad o en el campo abierto. El molino original Rijn en Son estuvo en Paardenveld desde 1745 hasta 1912, al lado del molino De Meiboom. Los encargados fueron Govert van Rhijn y Bernardus Sonnenbergh. Sus nombres están inmortalizados en el nombre del molino. Después de que en 1912 se retiraran los dos molinos de Paardenveld, Rijn en Zon fue reconstruido por el molinero Korenvaar en la Avenida Adelaar. Una tormenta en 1949 dañó el molino de manera que ya no pudo utilizarse. Desde 1974, el molino es propiedad del Municipio de Utrecht. En 1977 y 2016, el molino Rijn en Zon fue restaurado.&lt;/p&gt;

&lt;p&gt;El molino está situado en el canal Stadsbuitengracht 'el agua negra' de Utrecht.&lt;/p&gt;

&lt;p&gt;El Agua Negra es un antiguo canal que desemboca en el río Vecht. El canal se encuentra en el barrio Lauwerecht. A la altura del Vecht, el puente monumental Lauwerecht abarca el Agua Negra como canal. La calle en el lado norte se llama Zwartewater y continúa en el barrio Vogelenbuurt.&lt;br/&gt;
&lt;br/&gt;
El canal formaba en tiempos antiguos el límite noreste del suburbio de Bemuurde Weerd.&lt;/p&gt;&lt;br/&gt;&lt;br/&gt;Autor: &lt;a href="https://www.routeyou.com/user/view/344668.es"&gt;routeburo&lt;/a&gt;&lt;br/&gt;&lt;a href="https://www.routeyou.com/location/view/50874274.es?toptext=8169849"&gt;Más información&lt;/a&gt;</desc>
    <type>Molino</type>
  </wpt>
  <wpt lat="52.0634" lon="5.17207">
    <name>Luchar</name>
    <desc>&lt;p&gt;La aldea de Vechten cerca de Bunnik tiene una larga historia. En la época romana, aquí se encontraba el castillo Fectio, cerca del lugar donde el río Vecht se bifurcaba del Rin. El Rin era la frontera norte y la zona de defensa (el Limes) del Imperio Romano y también una importante ruta comercial. En fuentes de la alta edad media, Vechten también era conocido bajo el nombre de Wiltenburg. Cerca de Vechten se encuentra también el Fuerte de Vechten, construido alrededor de 1869 como parte de la Nueva Línea de Agua de Holanda.&lt;/p&gt;&lt;br/&gt;&lt;br/&gt;Autor: &lt;a href="https://www.routeyou.com/user/view/586699.es"&gt;Rieno ✅ Routes&lt;/a&gt;&lt;br/&gt;&lt;a href="https://www.routeyou.com/location/view/51874805.es?toptext=8268174"&gt;Más información&lt;/a&gt;</desc>
    <type>Barrio</type>
  </wpt>
  <wpt lat="52.0675" lon="5.16976">
    <name>Oud-Amelisweerd</name>
    <desc>&lt;p&gt;Oud-Amelisweerd es una finca y ciudad de caballeros cerca de Bunnik en la provincia de Utrecht, Países Bajos. Junto con la casa de carruajes y el jardín, forma el complejo Histórico Buitenplaats Oud-Amelisweerd. Junto con Nieuw-Amelisweerd, conforma las fincas Amelisweerd. En el siglo XIII, el caballero Amelis fue feudalizado por la prohijedad de Oudmunster con un valor en Bunnik. En latín, se le llamaba Amelis de Insula, que significa Amelis de la Weerd. En 1227, se le menciona entre los ministros del obispo Otto de Lippe de Utrecht.&lt;/p&gt;&lt;br/&gt;&lt;br/&gt;Autor: &lt;a href="https://www.routeyou.com/user/view/344668.es"&gt;routeburo&lt;/a&gt;&lt;br/&gt;&lt;a href="https://www.routeyou.com/location/view/50770953.es?toptext=8400102"&gt;Más información&lt;/a&gt;</desc>
    <type>Lugar histórico</type>
  </wpt>
  <wpt lat="52.09283" lon="5.11833">
    <name>Pensador sobre la roca - De Haas</name>
    <desc>&lt;p&gt;La escultura Thinker on a Rock, mejor conocida como "El Conejo", se encuentra en Neude desde 2002 y fue creada por el artista británico Barry Flanagan. La escultura presenta un conejo en la misma pose que el famoso El Pensador de Rodin. Un dato curioso es que este conejo es regularmente vestido por los habitantes de Utrecht: en invierno, recibe una bufanda y a veces un manojo de zanahorias en su regazo.&lt;/p&gt;&lt;br/&gt;&lt;br/&gt;Autor: &lt;a href="https://www.routeyou.com/user/view/10641.es"&gt;Pascal Brackman&lt;/a&gt;&lt;br/&gt;&lt;a href="https://www.routeyou.com/location/view/52543479.es?toptext=9027359"&gt;Más información&lt;/a&gt;</desc>
    <type>Estatua</type>
  </wpt>
  <wpt lat="52.09193" lon="5.11869">
    <name>Tienda de Sinkel</name>
    <desc>&lt;p&gt;Inspiración griega en la Tienda de Sinkel.&lt;/p&gt;

&lt;p&gt;Este edificio neoclásico fue construido entre 1836 y 1839 para Anton Sinkel como el primer almacén en los Países Bajos.&lt;/p&gt;

&lt;p&gt;Se hizo famoso por la rima:&lt;/p&gt;

&lt;p&gt;'En la Tienda de Sinkel todo está a la venta: se pueden conseguir: cestas con higos. Cajas de pomada. Botellitas de orgeat, sombreros y gorras y corsés de dama: regalices para comer y pastillas para hacer de cuerpo'.&lt;/p&gt;

&lt;p&gt;El edificio reemplazó a la casa Barbara y Laurensgast. Las ocho estatuas de hierro fundido son las más llamativas. Cuatro mujeres en vestiduras griegas llamadas Cariátides sostienen la fachada. En la parte superior, el Comercio, la Prudencia, la Navegación y la Esperanza como símbolos de una política sensata de clase media.&lt;/p&gt;&lt;br/&gt;&lt;br/&gt;Autor: &lt;a href="https://www.routeyou.com/user/view/10641.es"&gt;Pascal Brackman&lt;/a&gt;&lt;br/&gt;&lt;a href="https://www.routeyou.com/location/view/52543480.es?toptext=9027360"&gt;Más información&lt;/a&gt;</desc>
    <type>Edificio histórico</type>
  </wpt>
  <wpt lat="52.09364" lon="5.12146">
    <name>Janskerkhof</name>
    <desc>&lt;p&gt;El Janskerkhof en Utrecht es uno de los lugares habitados más antiguos de la ciudad, con una rica historia que se remonta a la época romana, cuando se utilizaba como pastizal. La Janskerk, que se encuentra en la plaza, fue fundada poco después de 1040 por el obispo Bernold y fue una importante iglesia capitular en la Edad Media.&lt;/p&gt;

&lt;p&gt;Un dato interesante es que el Janskerkhof también es conocido por su mercado de flores, que existe desde hace más de 200 años. Este mercado es un lugar popular tanto para los residentes locales como para los turistas para comprar flores y plantas.&lt;/p&gt;&lt;br/&gt;&lt;br/&gt;Autor: &lt;a href="https://www.routeyou.com/user/view/10641.es"&gt;Pascal Brackman&lt;/a&gt;&lt;br/&gt;&lt;a href="https://www.routeyou.com/location/view/50589274.es?toptext=9027364"&gt;Más información&lt;/a&gt;</desc>
    <type>Plaza</type>
  </wpt>
  <trk>
    <name>Utrecht 30 km</name>
    <desc>&lt;p&gt;Amelisweerd y nuevos lobos, Países Bajos&lt;/p&gt;

&lt;p&gt;Ruteo de bicicletas - puntos de conexión&lt;/p&gt;</desc>
    <trkseg>
      <trkpt lat="52.09343" lon="5.11657">
        <ele>4</ele>
      </trkpt>
      <trkpt lat="52.09331" lon="5.11662">
        <ele>4</ele>
      </trkpt>
      <trkpt lat="52.09332" lon="5.11674">
        <ele>4</ele>
      </trkpt>
      <trkpt lat="52.09337" lon="5.11702">
        <ele>3</ele>
      </trkpt>
      <trkpt lat="52.09346" lon="5.1183">
        <ele>4</ele>
      </trkpt>
      <trkpt lat="52.09352" lon="5.11878">
        <ele>4</ele>
      </trkpt>
      <trkpt lat="52.09355" lon="5.11899">
        <ele>4</ele>
      </trkpt>
      <trkpt lat="52.09351" lon="5.11944">
        <ele>4</ele>
      </trkpt>
      <trkpt lat="52.09334" lon="5.1206">
        <ele>5</ele>
      </trkpt>
      <trkpt lat="52.09326" lon="5.12091">
        <ele>5</ele>
      </trkpt>
      <trkpt lat="52.09293" lon="5.12162">
        <ele>5</ele>
      </trkpt>
      <trkpt lat="52.09293" lon="5.12168">
        <ele>5</ele>
      </trkpt>
      <trkpt lat="52.09284" lon="5.1219">
        <ele>5</ele>
      </trkpt>
      <trkpt lat="52.092" lon="5.12225">
        <ele>5</ele>
      </trkpt>
      <trkpt lat="52.09171" lon="5.12234">
        <ele>6</ele>
      </trkpt>
      <trkpt lat="52.09117" lon="5.12237">
        <ele>4</ele>
      </trkpt>
      <trkpt lat="52.09124" lon="5.12269">
        <ele>5</ele>
      </trkpt>
      <trkpt lat="52.0911" lon="5.12282">
        <ele>5</ele>
      </trkpt>
      <trkpt lat="52.09099" lon="5.12289">
        <ele>5</ele>
      </trkpt>
      <trkpt lat="52.0907" lon="5.12299">
        <ele>3</ele>
      </trkpt>
      <trkpt lat="52.0905" lon="5.12318">
        <ele>4</ele>
      </trkpt>
      <trkpt lat="52.09022" lon="5.12364">
        <ele>3</ele>
      </trkpt>
      <trkpt lat="52.09009" lon="5.12392">
        <ele>4</ele>
      </trkpt>
      <trkpt lat="52.09003" lon="5.12386">
        <ele>4</ele>
      </trkpt>
      <trkpt lat="52.09" lon="5.12374">
        <ele>4</ele>
      </trkpt>
      <trkpt lat="52.08932" lon="5.12391">
        <ele>4</ele>
      </trkpt>
      <trkpt lat="52.08889" lon="5.12411">
        <ele>4</ele>
      </trkpt>
      <trkpt lat="52.08861" lon="5.12444">
        <ele>4</ele>
      </trkpt>
      <trkpt lat="52.08828" lon="5.12472">
        <ele>4</ele>
      </trkpt>
      <trkpt lat="52.08742" lon="5.1256">
        <ele>3</ele>
      </trkpt>
      <trkpt lat="52.08725" lon="5.12575">
        <ele>3</ele>
      </trkpt>
      <trkpt lat="52.08673" lon="5.12616">
        <ele>3</ele>
      </trkpt>
      <trkpt lat="52.08534" lon="5.12717">
        <ele>2</ele>
      </trkpt>
      <trkpt lat="52.08507" lon="5.12735">
        <ele>4</ele>
      </trkpt>
      <trkpt lat="52.0846" lon="5.12755">
        <ele>1</ele>
      </trkpt>
      <trkpt lat="52.08469" lon="5.12784">
        <ele>1</ele>
      </trkpt>
      <trkpt lat="52.08459" lon="5.12794">
        <ele>1</ele>
      </trkpt>
      <trkpt lat="52.08448" lon="5.1281">
        <ele>2</ele>
      </trkpt>
      <trkpt lat="52.08427" lon="5.12846">
        <ele>2</ele>
      </trkpt>
      <trkpt lat="52.08416" lon="5.12828">
        <ele>2</ele>
      </trkpt>
      <trkpt lat="52.08399" lon="5.12804">
        <ele>1</ele>
      </trkpt>
      <trkpt lat="52.08354" lon="5.12758">
        <ele>0</ele>
      </trkpt>
      <trkpt lat="52.08286" lon="5.12693">
        <ele>2</ele>
      </trkpt>
      <trkpt lat="52.08244" lon="5.12666">
        <ele>2</ele>
      </trkpt>
      <trkpt lat="52.08164" lon="5.12621">
        <ele>1</ele>
      </trkpt>
      <trkpt lat="52.08136" lon="5.12597">
        <ele>2</ele>
      </trkpt>
      <trkpt lat="52.08133" lon="5.12587">
        <ele>2</ele>
      </trkpt>
      <trkpt lat="52.08126" lon="5.12573">
        <ele>2</ele>
      </trkpt>
      <trkpt lat="52.08119" lon="5.12544">
        <ele>3</ele>
      </trkpt>
      <trkpt lat="52.08115" lon="5.12519">
        <ele>3</ele>
      </trkpt>
      <trkpt lat="52.08115" lon="5.12509">
        <ele>3</ele>
      </trkpt>
      <trkpt lat="52.08132" lon="5.12448">
        <ele>2</ele>
      </trkpt>
      <trkpt lat="52.08135" lon="5.12434">
        <ele>3</ele>
      </trkpt>
      <trkpt lat="52.08143" lon="5.12416">
        <ele>2</ele>
      </trkpt>
      <trkpt lat="52.08125" lon="5.12408">
        <ele>2</ele>
      </trkpt>
      <trkpt lat="52.08115" lon="5.1244">
        <ele>2</ele>
      </trkpt>
      <trkpt lat="52.08114" lon="5.12436">
        <ele>2</ele>
      </trkpt>
      <trkpt lat="52.08094" lon="5.12418">
        <ele>2</ele>
      </trkpt>
      <trkpt lat="52.08091" lon="5.12413">
        <ele>2</ele>
      </trkpt>
      <trkpt lat="52.08088" lon="5.12417">
        <ele>2</ele>
      </trkpt>
      <trkpt lat="52.08044" lon="5.12527">
        <ele>2</ele>
      </trkpt>
      <trkpt lat="52.08021" lon="5.12576">
        <ele>2</ele>
      </trkpt>
      <trkpt lat="52.08015" lon="5.12589">
        <ele>2</ele>
      </trkpt>
      <trkpt lat="52.07998" lon="5.12616">
        <ele>2</ele>
      </trkpt>
      <trkpt lat="52.07991" lon="5.1263">
        <ele>2</ele>
      </trkpt>
      <trkpt lat="52.07962" lon="5.12673">
        <ele>2</ele>
      </trkpt>
      <trkpt lat="52.07917" lon="5.12744">
        <ele>2</ele>
      </trkpt>
      <trkpt lat="52.07892" lon="5.12797">
        <ele>2</ele>
      </trkpt>
      <trkpt lat="52.0787" lon="5.12859">
        <ele>2</ele>
      </trkpt>
      <trkpt lat="52.07831" lon="5.12996">
        <ele>3</ele>
      </trkpt>
      <trkpt lat="52.07769" lon="5.13192">
        <ele>2</ele>
      </trkpt>
      <trkpt lat="52.07738" lon="5.13276">
        <ele>2</ele>
      </trkpt>
      <trkpt lat="52.07723" lon="5.13314">
        <ele>2</ele>
      </trkpt>
      <trkpt lat="52.07698" lon="5.13379">
        <ele>1</ele>
      </trkpt>
      <trkpt lat="52.07685" lon="5.13417">
        <ele>1</ele>
      </trkpt>
      <trkpt lat="52.07555" lon="5.13898">
        <ele>3</ele>
      </trkpt>
      <trkpt lat="52.07546" lon="5.13909">
        <ele>3</ele>
      </trkpt>
      <trkpt lat="52.07543" lon="5.13921">
        <ele>3</ele>
      </trkpt>
      <trkpt lat="52.07536" lon="5.1395">
        <ele>7</ele>
      </trkpt>
      <trkpt lat="52.07511" lon="5.14042">
        <ele>3</ele>
      </trkpt>
      <trkpt lat="52.07504" lon="5.14071">
        <ele>1</ele>
      </trkpt>
      <trkpt lat="52.075" lon="5.14097">
        <ele>1</ele>
      </trkpt>
      <trkpt lat="52.07494" lon="5.14159">
        <ele>2</ele>
      </trkpt>
      <trkpt lat="52.07487" lon="5.14276">
        <ele>1</ele>
      </trkpt>
      <trkpt lat="52.07481" lon="5.14333">
        <ele>1</ele>
      </trkpt>
      <trkpt lat="52.07467" lon="5.14403">
        <ele>1</ele>
      </trkpt>
      <trkpt lat="52.07451" lon="5.14464">
        <ele>1</ele>
      </trkpt>
      <trkpt lat="52.07433" lon="5.14515">
        <ele>1</ele>
      </trkpt>
      <trkpt lat="52.07405" lon="5.14578">
        <ele>1</ele>
      </trkpt>
      <trkpt lat="52.07366" lon="5.14645">
        <ele>1</ele>
      </trkpt>
      <trkpt lat="52.07305" lon="5.14724">
        <ele>1</ele>
      </trkpt>
      <trkpt lat="52.07276" lon="5.14756">
        <ele>1</ele>
      </trkpt>
      <trkpt lat="52.07243" lon="5.14789">
        <ele>2</ele>
      </trkpt>
      <trkpt lat="52.07137" lon="5.14898">
        <ele>1</ele>
      </trkpt>
      <trkpt lat="52.07094" lon="5.14939">
        <ele>1</ele>
      </trkpt>
      <trkpt lat="52.07023" lon="5.15018">
        <ele>2</ele>
      </trkpt>
      <trkpt lat="52.06959" lon="5.15097">
        <ele>2</ele>
      </trkpt>
      <trkpt lat="52.06948" lon="5.15105">
        <ele>1</ele>
      </trkpt>
      <trkpt lat="52.06924" lon="5.15107">
        <ele>1</ele>
      </trkpt>
      <trkpt lat="52.06914" lon="5.15114">
        <ele>1</ele>
      </trkpt>
      <trkpt lat="52.06906" lon="5.15128">
        <ele>2</ele>
      </trkpt>
      <trkpt lat="52.06851" lon="5.1503">
        <ele>2</ele>
      </trkpt>
      <trkpt lat="52.06765" lon="5.14947">
        <ele>3</ele>
      </trkpt>
      <trkpt lat="52.06626" lon="5.14825">
        <ele>2</ele>
      </trkpt>
      <trkpt lat="52.06572" lon="5.14798">
        <ele>1</ele>
      </trkpt>
      <trkpt lat="52.06539" lon="5.14789">
        <ele>1</ele>
      </trkpt>
      <trkpt lat="52.06513" lon="5.14786">
        <ele>1</ele>
      </trkpt>
      <trkpt lat="52.06477" lon="5.14787">
        <ele>1</ele>
      </trkpt>
      <trkpt lat="52.06448" lon="5.14793">
        <ele>1</ele>
      </trkpt>
      <trkpt lat="52.06335" lon="5.14828">
        <ele>1</ele>
      </trkpt>
      <trkpt lat="52.06318" lon="5.14835">
        <ele>1</ele>
      </trkpt>
      <trkpt lat="52.06266" lon="5.14893">
        <ele>1</ele>
      </trkpt>
      <trkpt lat="52.06225" lon="5.14933">
        <ele>1</ele>
      </trkpt>
      <trkpt lat="52.06172" lon="5.14973">
        <ele>1</ele>
      </trkpt>
      <trkpt lat="52.0613" lon="5.15012">
        <ele>1</ele>
      </trkpt>
      <trkpt lat="52.06084" lon="5.15065">
        <ele>1</ele>
      </trkpt>
      <trkpt lat="52.06071" lon="5.15075">
        <ele>1</ele>
      </trkpt>
      <trkpt lat="52.06036" lon="5.15092">
        <ele>1</ele>
      </trkpt>
      <trkpt lat="52.05989" lon="5.15099">
        <ele>3</ele>
      </trkpt>
      <trkpt lat="52.0594" lon="5.15102">
        <ele>1</ele>
      </trkpt>
      <trkpt lat="52.05902" lon="5.15108">
        <ele>2</ele>
      </trkpt>
      <trkpt lat="52.05886" lon="5.15113">
        <ele>2</ele>
      </trkpt>
      <trkpt lat="52.05785" lon="5.15216">
        <ele>10</ele>
      </trkpt>
      <trkpt lat="52.05768" lon="5.15221">
        <ele>10</ele>
      </trkpt>
      <trkpt lat="52.05756" lon="5.15229">
        <ele>8</ele>
      </trkpt>
      <trkpt lat="52.05696" lon="5.15284">
        <ele>1</ele>
      </trkpt>
      <trkpt lat="52.0568" lon="5.15308">
        <ele>1</ele>
      </trkpt>
      <trkpt lat="52.05675" lon="5.15313">
        <ele>1</ele>
      </trkpt>
      <trkpt lat="52.05608" lon="5.15366">
        <ele>1</ele>
      </trkpt>
      <trkpt lat="52.05512" lon="5.15433">
        <ele>1</ele>
      </trkpt>
      <trkpt lat="52.05461" lon="5.15471">
        <ele>1</ele>
      </trkpt>
      <trkpt lat="52.0547" lon="5.15569">
        <ele>1</ele>
      </trkpt>
      <trkpt lat="52.05488" lon="5.15693">
        <ele>1</ele>
      </trkpt>
      <trkpt lat="52.05497" lon="5.15722">
        <ele>1</ele>
      </trkpt>
      <trkpt lat="52.05527" lon="5.15799">
        <ele>2</ele>
      </trkpt>
      <trkpt lat="52.05529" lon="5.15824">
        <ele>2</ele>
      </trkpt>
      <trkpt lat="52.05527" lon="5.15926">
        <ele>2</ele>
      </trkpt>
      <trkpt lat="52.05524" lon="5.15984">
        <ele>2</ele>
      </trkpt>
      <trkpt lat="52.05509" lon="5.16149">
        <ele>2</ele>
      </trkpt>
      <trkpt lat="52.05508" lon="5.16197">
        <ele>2</ele>
      </trkpt>
      <trkpt lat="52.05516" lon="5.16245">
        <ele>2</ele>
      </trkpt>
      <trkpt lat="52.05549" lon="5.16388">
        <ele>2</ele>
      </trkpt>
      <trkpt lat="52.0559" lon="5.16551">
        <ele>2</ele>
      </trkpt>
      <trkpt lat="52.05595" lon="5.16582">
        <ele>2</ele>
      </trkpt>
      <trkpt lat="52.05598" lon="5.1661">
        <ele>2</ele>
      </trkpt>
      <trkpt lat="52.05598" lon="5.16636">
        <ele>2</ele>
      </trkpt>
      <trkpt lat="52.05594" lon="5.16664">
        <ele>2</ele>
      </trkpt>
      <trkpt lat="52.05591" lon="5.16712">
        <ele>2</ele>
      </trkpt>
      <trkpt lat="52.05594" lon="5.16746">
        <ele>2</ele>
      </trkpt>
      <trkpt lat="52.05601" lon="5.16777">
        <ele>2</ele>
      </trkpt>
      <trkpt lat="52.05605" lon="5.16791">
        <ele>2</ele>
      </trkpt>
      <trkpt lat="52.05619" lon="5.1682">
        <ele>2</ele>
      </trkpt>
      <trkpt lat="52.05635" lon="5.16842">
        <ele>2</ele>
      </trkpt>
      <trkpt lat="52.05683" lon="5.16898">
        <ele>2</ele>
      </trkpt>
      <trkpt lat="52.05689" lon="5.16908">
        <ele>2</ele>
      </trkpt>
      <trkpt lat="52.05691" lon="5.16917">
        <ele>2</ele>
      </trkpt>
      <trkpt lat="52.05693" lon="5.16932">
        <ele>2</ele>
      </trkpt>
      <trkpt lat="52.057" lon="5.17006">
        <ele>2</ele>
      </trkpt>
      <trkpt lat="52.05705" lon="5.17033">
        <ele>2</ele>
      </trkpt>
      <trkpt lat="52.05712" lon="5.17054">
        <ele>2</ele>
      </trkpt>
      <trkpt lat="52.05723" lon="5.17077">
        <ele>2</ele>
      </trkpt>
      <trkpt lat="52.05743" lon="5.17103">
        <ele>2</ele>
      </trkpt>
      <trkpt lat="52.05764" lon="5.17121">
        <ele>2</ele>
      </trkpt>
      <trkpt lat="52.05785" lon="5.17129">
        <ele>2</ele>
      </trkpt>
      <trkpt lat="52.05802" lon="5.1713">
        <ele>2</ele>
      </trkpt>
      <trkpt lat="52.05811" lon="5.17128">
        <ele>2</ele>
      </trkpt>
      <trkpt lat="52.05861" lon="5.17108">
        <ele>2</ele>
      </trkpt>
      <trkpt lat="52.05871" lon="5.17109">
        <ele>2</ele>
      </trkpt>
      <trkpt lat="52.05877" lon="5.17113">
        <ele>2</ele>
      </trkpt>
      <trkpt lat="52.05934" lon="5.1718">
        <ele>2</ele>
      </trkpt>
      <trkpt lat="52.05959" lon="5.17202">
        <ele>2</ele>
      </trkpt>
      <trkpt lat="52.06066" lon="5.17277">
        <ele>2</ele>
      </trkpt>
      <trkpt lat="52.06079" lon="5.17287">
        <ele>2</ele>
      </trkpt>
      <trkpt lat="52.06117" lon="5.17333">
        <ele>2</ele>
      </trkpt>
      <trkpt lat="52.06132" lon="5.17314">
        <ele>2</ele>
      </trkpt>
      <trkpt lat="52.06155" lon="5.17289">
        <ele>2</ele>
      </trkpt>
      <trkpt lat="52.06171" lon="5.17279">
        <ele>2</ele>
      </trkpt>
      <trkpt lat="52.06196" lon="5.17268">
        <ele>2</ele>
      </trkpt>
      <trkpt lat="52.06244" lon="5.17256">
        <ele>2</ele>
      </trkpt>
      <trkpt lat="52.06335" lon="5.17244">
        <ele>3</ele>
      </trkpt>
      <trkpt lat="52.0634" lon="5.17233">
        <ele>2</ele>
      </trkpt>
      <trkpt lat="52.06344" lon="5.17121">
        <ele>2</ele>
      </trkpt>
      <trkpt lat="52.06346" lon="5.17103">
        <ele>2</ele>
      </trkpt>
      <trkpt lat="52.0635" lon="5.17092">
        <ele>2</ele>
      </trkpt>
      <trkpt lat="52.06356" lon="5.17083">
        <ele>3</ele>
      </trkpt>
      <trkpt lat="52.06366" lon="5.17095">
        <ele>2</ele>
      </trkpt>
      <trkpt lat="52.06393" lon="5.17098">
        <ele>2</ele>
      </trkpt>
      <trkpt lat="52.06397" lon="5.17099">
        <ele>2</ele>
      </trkpt>
      <trkpt lat="52.064" lon="5.17105">
        <ele>2</ele>
      </trkpt>
      <trkpt lat="52.064" lon="5.17124">
        <ele>2</ele>
      </trkpt>
      <trkpt lat="52.06398" lon="5.17156">
        <ele>2</ele>
      </trkpt>
      <trkpt lat="52.06393" lon="5.17197">
        <ele>2</ele>
      </trkpt>
      <trkpt lat="52.06392" lon="5.17213">
        <ele>2</ele>
      </trkpt>
      <trkpt lat="52.06394" lon="5.17228">
        <ele>2</ele>
      </trkpt>
      <trkpt lat="52.06407" lon="5.173">
        <ele>3</ele>
      </trkpt>
      <trkpt lat="52.0641" lon="5.17354">
        <ele>3</ele>
      </trkpt>
      <trkpt lat="52.0641" lon="5.17382">
        <ele>3</ele>
      </trkpt>
      <trkpt lat="52.06402" lon="5.17505">
        <ele>1</ele>
      </trkpt>
      <trkpt lat="52.06399" lon="5.17724">
        <ele>2</ele>
      </trkpt>
      <trkpt lat="52.06403" lon="5.17778">
        <ele>2</ele>
      </trkpt>
      <trkpt lat="52.06405" lon="5.17835">
        <ele>2</ele>
      </trkpt>
      <trkpt lat="52.06403" lon="5.17873">
        <ele>2</ele>
      </trkpt>
      <trkpt lat="52.06401" lon="5.17939">
        <ele>2</ele>
      </trkpt>
      <trkpt lat="52.06402" lon="5.17971">
        <ele>2</ele>
      </trkpt>
      <trkpt lat="52.06405" lon="5.17999">
        <ele>2</ele>
      </trkpt>
      <trkpt lat="52.06415" lon="5.18058">
        <ele>2</ele>
      </trkpt>
      <trkpt lat="52.06418" lon="5.18117">
        <ele>2</ele>
      </trkpt>
      <trkpt lat="52.06412" lon="5.18228">
        <ele>2</ele>
      </trkpt>
      <trkpt lat="52.06394" lon="5.18396">
        <ele>1</ele>
      </trkpt>
      <trkpt lat="52.06392" lon="5.18435">
        <ele>1</ele>
      </trkpt>
      <trkpt lat="52.06398" lon="5.18592">
        <ele>2</ele>
      </trkpt>
      <trkpt lat="52.06405" lon="5.18685">
        <ele>1</ele>
      </trkpt>
      <trkpt lat="52.0642" lon="5.1877">
        <ele>2</ele>
      </trkpt>
      <trkpt lat="52.06429" lon="5.18807">
        <ele>2</ele>
      </trkpt>
      <trkpt lat="52.06443" lon="5.18857">
        <ele>2</ele>
      </trkpt>
      <trkpt lat="52.06456" lon="5.1889">
        <ele>2</ele>
      </trkpt>
      <trkpt lat="52.06485" lon="5.18959">
        <ele>2</ele>
      </trkpt>
      <trkpt lat="52.06513" lon="5.19016">
        <ele>3</ele>
      </trkpt>
      <trkpt lat="52.06578" lon="5.1913">
        <ele>3</ele>
      </trkpt>
      <trkpt lat="52.06606" lon="5.19188">
        <ele>3</ele>
      </trkpt>
      <trkpt lat="52.06614" lon="5.1921">
        <ele>3</ele>
      </trkpt>
      <trkpt lat="52.0662" lon="5.19231">
        <ele>3</ele>
      </trkpt>
      <trkpt lat="52.06632" lon="5.19291">
        <ele>3</ele>
      </trkpt>
      <trkpt lat="52.06637" lon="5.19342">
        <ele>3</ele>
      </trkpt>
      <trkpt lat="52.06641" lon="5.19391">
        <ele>3</ele>
      </trkpt>
      <trkpt lat="52.06646" lon="5.19434">
        <ele>3</ele>
      </trkpt>
      <trkpt lat="52.06676" lon="5.19617">
        <ele>3</ele>
      </trkpt>
      <trkpt lat="52.06689" lon="5.1971">
        <ele>3</ele>
      </trkpt>
      <trkpt lat="52.06697" lon="5.19809">
        <ele>2</ele>
      </trkpt>
      <trkpt lat="52.06714" lon="5.19934">
        <ele>2</ele>
      </trkpt>
      <trkpt lat="52.06729" lon="5.20026">
        <ele>3</ele>
      </trkpt>
      <trkpt lat="52.06731" lon="5.20052">
        <ele>3</ele>
      </trkpt>
      <trkpt lat="52.0673" lon="5.20079">
        <ele>3</ele>
      </trkpt>
      <trkpt lat="52.06722" lon="5.20117">
        <ele>3</ele>
      </trkpt>
      <trkpt lat="52.06716" lon="5.20135">
        <ele>3</ele>
      </trkpt>
      <trkpt lat="52.06695" lon="5.20175">
        <ele>3</ele>
      </trkpt>
      <trkpt lat="52.06656" lon="5.20238">
        <ele>3</ele>
      </trkpt>
      <trkpt lat="52.06648" lon="5.20258">
        <ele>3</ele>
      </trkpt>
      <trkpt lat="52.0664" lon="5.2027">
        <ele>3</ele>
      </trkpt>
      <trkpt lat="52.06607" lon="5.20305">
        <ele>3</ele>
      </trkpt>
      <trkpt lat="52.06561" lon="5.20381">
        <ele>3</ele>
      </trkpt>
      <trkpt lat="52.06531" lon="5.20441">
        <ele>3</ele>
      </trkpt>
      <trkpt lat="52.06522" lon="5.2046">
        <ele>2</ele>
      </trkpt>
      <trkpt lat="52.06516" lon="5.20475">
        <ele>2</ele>
      </trkpt>
      <trkpt lat="52.06531" lon="5.20474">
        <ele>3</ele>
      </trkpt>
      <trkpt lat="52.06565" lon="5.20524">
        <ele>3</ele>
      </trkpt>
      <trkpt lat="52.06722" lon="5.20741">
        <ele>3</ele>
      </trkpt>
      <trkpt lat="52.06727" lon="5.20756">
        <ele>2</ele>
      </trkpt>
      <trkpt lat="52.06746" lon="5.20784">
        <ele>2</ele>
      </trkpt>
      <trkpt lat="52.06766" lon="5.20818">
        <ele>3</ele>
      </trkpt>
      <trkpt lat="52.0677" lon="5.20827">
        <ele>3</ele>
      </trkpt>
      <trkpt lat="52.06789" lon="5.2087">
        <ele>2</ele>
      </trkpt>
      <trkpt lat="52.06792" lon="5.20872">
        <ele>2</ele>
      </trkpt>
      <trkpt lat="52.06794" lon="5.20871">
        <ele>2</ele>
      </trkpt>
      <trkpt lat="52.068" lon="5.20863">
        <ele>2</ele>
      </trkpt>
      <trkpt lat="52.06808" lon="5.2086">
        <ele>2</ele>
      </trkpt>
      <trkpt lat="52.06811" lon="5.20873">
        <ele>2</ele>
      </trkpt>
      <trkpt lat="52.07009" lon="5.21377">
        <ele>3</ele>
      </trkpt>
      <trkpt lat="52.07009" lon="5.21399">
        <ele>3</ele>
      </trkpt>
      <trkpt lat="52.07007" lon="5.21411">
        <ele>2</ele>
      </trkpt>
      <trkpt lat="52.06911" lon="5.21627">
        <ele>2</ele>
      </trkpt>
      <trkpt lat="52.06877" lon="5.21708">
        <ele>2</ele>
      </trkpt>
      <trkpt lat="52.06869" lon="5.21736">
        <ele>2</ele>
      </trkpt>
      <trkpt lat="52.06862" lon="5.21765">
        <ele>3</ele>
      </trkpt>
      <trkpt lat="52.06859" lon="5.21787">
        <ele>3</ele>
      </trkpt>
      <trkpt lat="52.06856" lon="5.21838">
        <ele>2</ele>
      </trkpt>
      <trkpt lat="52.06857" lon="5.21863">
        <ele>2</ele>
      </trkpt>
      <trkpt lat="52.06863" lon="5.21911">
        <ele>2</ele>
      </trkpt>
      <trkpt lat="52.06874" lon="5.2195">
        <ele>2</ele>
      </trkpt>
      <trkpt lat="52.06889" lon="5.21987">
        <ele>2</ele>
      </trkpt>
      <trkpt lat="52.07343" lon="5.22642">
        <ele>2</ele>
      </trkpt>
      <trkpt lat="52.07548" lon="5.2293">
        <ele>2</ele>
      </trkpt>
      <trkpt lat="52.07561" lon="5.22932">
        <ele>2</ele>
      </trkpt>
      <trkpt lat="52.07572" lon="5.22949">
        <ele>2</ele>
      </trkpt>
      <trkpt lat="52.07573" lon="5.22966">
        <ele>2</ele>
      </trkpt>
      <trkpt lat="52.07586" lon="5.22982">
        <ele>2</ele>
      </trkpt>
      <trkpt lat="52.07593" lon="5.23007">
        <ele>2</ele>
      </trkpt>
      <trkpt lat="52.0776" lon="5.23243">
        <ele>3</ele>
      </trkpt>
      <trkpt lat="52.07752" lon="5.23261">
        <ele>3</ele>
      </trkpt>
      <trkpt lat="52.07751" lon="5.23285">
        <ele>3</ele>
      </trkpt>
      <trkpt lat="52.07745" lon="5.23315">
        <ele>3</ele>
      </trkpt>
      <trkpt lat="52.07747" lon="5.23402">
        <ele>3</ele>
      </trkpt>
      <trkpt lat="52.07745" lon="5.2344">
        <ele>3</ele>
      </trkpt>
      <trkpt lat="52.07746" lon="5.23443">
        <ele>3</ele>
      </trkpt>
      <trkpt lat="52.07753" lon="5.23446">
        <ele>3</ele>
      </trkpt>
      <trkpt lat="52.0774" lon="5.23508">
        <ele>2</ele>
      </trkpt>
      <trkpt lat="52.07742" lon="5.23522">
        <ele>2</ele>
      </trkpt>
      <trkpt lat="52.07853" lon="5.23686">
        <ele>3</ele>
      </trkpt>
      <trkpt lat="52.07943" lon="5.23521">
        <ele>2</ele>
      </trkpt>
      <trkpt lat="52.08128" lon="5.23787">
        <ele>3</ele>
      </trkpt>
      <trkpt lat="52.08131" lon="5.23791">
        <ele>3</ele>
      </trkpt>
      <trkpt lat="52.08133" lon="5.2381">
        <ele>3</ele>
      </trkpt>
      <trkpt lat="52.0814" lon="5.23823">
        <ele>3</ele>
      </trkpt>
      <trkpt lat="52.08192" lon="5.23898">
        <ele>3</ele>
      </trkpt>
      <trkpt lat="52.08249" lon="5.23976">
        <ele>3</ele>
      </trkpt>
      <trkpt lat="52.08454" lon="5.24271">
        <ele>4</ele>
      </trkpt>
      <trkpt lat="52.08465" lon="5.24277">
        <ele>4</ele>
      </trkpt>
      <trkpt lat="52.08526" lon="5.24365">
        <ele>4</ele>
      </trkpt>
      <trkpt lat="52.08535" lon="5.24373">
        <ele>4</ele>
      </trkpt>
      <trkpt lat="52.08629" lon="5.24509">
        <ele>4</ele>
      </trkpt>
      <trkpt lat="52.0867" lon="5.24571">
        <ele>4</ele>
      </trkpt>
      <trkpt lat="52.08729" lon="5.24657">
        <ele>5</ele>
      </trkpt>
      <trkpt lat="52.08763" lon="5.24705">
        <ele>5</ele>
      </trkpt>
      <trkpt lat="52.08773" lon="5.24715">
        <ele>5</ele>
      </trkpt>
      <trkpt lat="52.0879" lon="5.2474">
        <ele>5</ele>
      </trkpt>
      <trkpt lat="52.08795" lon="5.24752">
        <ele>5</ele>
      </trkpt>
      <trkpt lat="52.08843" lon="5.24821">
        <ele>5</ele>
      </trkpt>
      <trkpt lat="52.08843" lon="5.24825">
        <ele>5</ele>
      </trkpt>
      <trkpt lat="52.08858" lon="5.24847">
        <ele>5</ele>
      </trkpt>
      <trkpt lat="52.08863" lon="5.24847">
        <ele>5</ele>
      </trkpt>
      <trkpt lat="52.08897" lon="5.24896">
        <ele>5</ele>
      </trkpt>
      <trkpt lat="52.089" lon="5.24913">
        <ele>5</ele>
      </trkpt>
      <trkpt lat="52.08905" lon="5.24927">
        <ele>5</ele>
      </trkpt>
      <trkpt lat="52.08998" lon="5.2506">
        <ele>5</ele>
      </trkpt>
      <trkpt lat="52.08998" lon="5.25074">
        <ele>5</ele>
      </trkpt>
      <trkpt lat="52.09004" lon="5.25094">
        <ele>5</ele>
      </trkpt>
      <trkpt lat="52.09008" lon="5.25101">
        <ele>5</ele>
      </trkpt>
      <trkpt lat="52.09019" lon="5.25112">
        <ele>5</ele>
      </trkpt>
      <trkpt lat="52.09025" lon="5.25112">
        <ele>5</ele>
      </trkpt>
      <trkpt lat="52.09034" lon="5.25107">
        <ele>6</ele>
      </trkpt>
      <trkpt lat="52.09041" lon="5.25093">
        <ele>6</ele>
      </trkpt>
      <trkpt lat="52.09045" lon="5.25074">
        <ele>6</ele>
      </trkpt>
      <trkpt lat="52.09052" lon="5.25071">
        <ele>5</ele>
      </trkpt>
      <trkpt lat="52.09068" lon="5.25078">
        <ele>6</ele>
      </trkpt>
      <trkpt lat="52.09346" lon="5.25211">
        <ele>6</ele>
      </trkpt>
      <trkpt lat="52.09375" lon="5.24939">
        <ele>5</ele>
      </trkpt>
      <trkpt lat="52.09435" lon="5.24321">
        <ele>5</ele>
      </trkpt>
      <trkpt lat="52.0955" lon="5.2435">
        <ele>5</ele>
      </trkpt>
      <trkpt lat="52.09563" lon="5.24369">
        <ele>5</ele>
      </trkpt>
      <trkpt lat="52.09566" lon="5.24366">
        <ele>5</ele>
      </trkpt>
      <trkpt lat="52.09575" lon="5.24383">
        <ele>6</ele>
      </trkpt>
      <trkpt lat="52.0958" lon="5.2438">
        <ele>5</ele>
      </trkpt>
      <trkpt lat="52.096" lon="5.24384">
        <ele>6</ele>
      </trkpt>
      <trkpt lat="52.09604" lon="5.24381">
        <ele>6</ele>
      </trkpt>
      <trkpt lat="52.09629" lon="5.24387">
        <ele>6</ele>
      </trkpt>
      <trkpt lat="52.09636" lon="5.24383">
        <ele>6</ele>
      </trkpt>
      <trkpt lat="52.09694" lon="5.244">
        <ele>5</ele>
      </trkpt>
      <trkpt lat="52.097" lon="5.24405">
        <ele>5</ele>
      </trkpt>
      <trkpt lat="52.09711" lon="5.24407">
        <ele>5</ele>
      </trkpt>
      <trkpt lat="52.09729" lon="5.244">
        <ele>6</ele>
      </trkpt>
      <trkpt lat="52.09751" lon="5.24384">
        <ele>6</ele>
      </trkpt>
      <trkpt lat="52.0976" lon="5.2437">
        <ele>6</ele>
      </trkpt>
      <trkpt lat="52.09962" lon="5.2423">
        <ele>5</ele>
      </trkpt>
      <trkpt lat="52.09979" lon="5.24223">
        <ele>5</ele>
      </trkpt>
      <trkpt lat="52.10054" lon="5.24164">
        <ele>5</ele>
      </trkpt>
      <trkpt lat="52.10136" lon="5.2411">
        <ele>6</ele>
      </trkpt>
      <trkpt lat="52.10153" lon="5.24107">
        <ele>6</ele>
      </trkpt>
      <trkpt lat="52.10164" lon="5.24099">
        <ele>6</ele>
      </trkpt>
      <trkpt lat="52.10171" lon="5.24088">
        <ele>6</ele>
      </trkpt>
      <trkpt lat="52.10206" lon="5.24063">
        <ele>6</ele>
      </trkpt>
      <trkpt lat="52.10246" lon="5.24046">
        <ele>6</ele>
      </trkpt>
      <trkpt lat="52.10268" lon="5.24029">
        <ele>6</ele>
      </trkpt>
      <trkpt lat="52.10271" lon="5.24026">
        <ele>6</ele>
      </trkpt>
      <trkpt lat="52.10266" lon="5.24012">
        <ele>6</ele>
      </trkpt>
      <trkpt lat="52.1026" lon="5.23988">
        <ele>6</ele>
      </trkpt>
      <trkpt lat="52.10262" lon="5.23978">
        <ele>6</ele>
      </trkpt>
      <trkpt lat="52.10269" lon="5.23965">
        <ele>6</ele>
      </trkpt>
      <trkpt lat="52.10288" lon="5.23954">
        <ele>6</ele>
      </trkpt>
      <trkpt lat="52.10294" lon="5.23956">
        <ele>6</ele>
      </trkpt>
      <trkpt lat="52.10299" lon="5.23938">
        <ele>6</ele>
      </trkpt>
      <trkpt lat="52.10302" lon="5.23939">
        <ele>6</ele>
      </trkpt>
      <trkpt lat="52.10306" lon="5.23937">
        <ele>6</ele>
      </trkpt>
      <trkpt lat="52.10324" lon="5.2394">
        <ele>6</ele>
      </trkpt>
      <trkpt lat="52.10344" lon="5.23931">
        <ele>6</ele>
      </trkpt>
      <trkpt lat="52.10492" lon="5.23827">
        <ele>4</ele>
      </trkpt>
      <trkpt lat="52.10514" lon="5.23809">
        <ele>4</ele>
      </trkpt>
      <trkpt lat="52.10563" lon="5.23778">
        <ele>6</ele>
      </trkpt>
      <trkpt lat="52.10741" lon="5.23653">
        <ele>6</ele>
      </trkpt>
      <trkpt lat="52.10753" lon="5.23644">
        <ele>6</ele>
      </trkpt>
      <trkpt lat="52.10759" lon="5.2363">
        <ele>6</ele>
      </trkpt>
      <trkpt lat="52.10765" lon="5.23698">
        <ele>6</ele>
      </trkpt>
      <trkpt lat="52.10768" lon="5.23704">
        <ele>6</ele>
      </trkpt>
      <trkpt lat="52.10772" lon="5.23706">
        <ele>6</ele>
      </trkpt>
      <trkpt lat="52.10787" lon="5.23698">
        <ele>6</ele>
      </trkpt>
      <trkpt lat="52.10799" lon="5.23699">
        <ele>6</ele>
      </trkpt>
      <trkpt lat="52.10806" lon="5.23702">
        <ele>6</ele>
      </trkpt>
      <trkpt lat="52.10804" lon="5.23684">
        <ele>6</ele>
      </trkpt>
      <trkpt lat="52.10804" lon="5.23657">
        <ele>6</ele>
      </trkpt>
      <trkpt lat="52.108" lon="5.23614">
        <ele>6</ele>
      </trkpt>
      <trkpt lat="52.10771" lon="5.23338">
        <ele>4</ele>
      </trkpt>
      <trkpt lat="52.1077" lon="5.23268">
        <ele>5</ele>
      </trkpt>
      <trkpt lat="52.10764" lon="5.23196">
        <ele>5</ele>
      </trkpt>
      <trkpt lat="52.10755" lon="5.2312">
        <ele>5</ele>
      </trkpt>
      <trkpt lat="52.10751" lon="5.23075">
        <ele>5</ele>
      </trkpt>
      <trkpt lat="52.10749" lon="5.23018">
        <ele>5</ele>
      </trkpt>
      <trkpt lat="52.10749" lon="5.22887">
        <ele>5</ele>
      </trkpt>
      <trkpt lat="52.10748" lon="5.2285">
        <ele>5</ele>
      </trkpt>
      <trkpt lat="52.10739" lon="5.22742">
        <ele>4</ele>
      </trkpt>
      <trkpt lat="52.10693" lon="5.22329">
        <ele>4</ele>
      </trkpt>
      <trkpt lat="52.10687" lon="5.22296">
        <ele>4</ele>
      </trkpt>
      <trkpt lat="52.1067" lon="5.22236">
        <ele>4</ele>
      </trkpt>
      <trkpt lat="52.10667" lon="5.22214">
        <ele>4</ele>
      </trkpt>
      <trkpt lat="52.10669" lon="5.22181">
        <ele>6</ele>
      </trkpt>
      <trkpt lat="52.1069" lon="5.2202">
        <ele>5</ele>
      </trkpt>
      <trkpt lat="52.10694" lon="5.21974">
        <ele>5</ele>
      </trkpt>
      <trkpt lat="52.10694" lon="5.2193">
        <ele>5</ele>
      </trkpt>
      <trkpt lat="52.10688" lon="5.21875">
        <ele>5</ele>
      </trkpt>
      <trkpt lat="52.10672" lon="5.21813">
        <ele>5</ele>
      </trkpt>
      <trkpt lat="52.10643" lon="5.21748">
        <ele>5</ele>
      </trkpt>
      <trkpt lat="52.1059" lon="5.21615">
        <ele>5</ele>
      </trkpt>
      <trkpt lat="52.10566" lon="5.21518">
        <ele>4</ele>
      </trkpt>
      <trkpt lat="52.10523" lon="5.21369">
        <ele>3</ele>
      </trkpt>
      <trkpt lat="52.10475" lon="5.21237">
        <ele>4</ele>
      </trkpt>
      <trkpt lat="52.10375" lon="5.21008">
        <ele>3</ele>
      </trkpt>
      <trkpt lat="52.10227" lon="5.20658">
        <ele>3</ele>
      </trkpt>
      <trkpt lat="52.10217" lon="5.20619">
        <ele>3</ele>
      </trkpt>
      <trkpt lat="52.10211" lon="5.20586">
        <ele>3</ele>
      </trkpt>
      <trkpt lat="52.10204" lon="5.20514">
        <ele>3</ele>
      </trkpt>
      <trkpt lat="52.10204" lon="5.20475">
        <ele>3</ele>
      </trkpt>
      <trkpt lat="52.10199" lon="5.20466">
        <ele>3</ele>
      </trkpt>
      <trkpt lat="52.10209" lon="5.20439">
        <ele>3</ele>
      </trkpt>
      <trkpt lat="52.10225" lon="5.20372">
        <ele>4</ele>
      </trkpt>
      <trkpt lat="52.10243" lon="5.20319">
        <ele>4</ele>
      </trkpt>
      <trkpt lat="52.10259" lon="5.20264">
        <ele>4</ele>
      </trkpt>
      <trkpt lat="52.10275" lon="5.20197">
        <ele>3</ele>
      </trkpt>
      <trkpt lat="52.10288" lon="5.2012">
        <ele>2</ele>
      </trkpt>
      <trkpt lat="52.10294" lon="5.2007">
        <ele>3</ele>
      </trkpt>
      <trkpt lat="52.10305" lon="5.19905">
        <ele>2</ele>
      </trkpt>
      <trkpt lat="52.10311" lon="5.19855">
        <ele>2</ele>
      </trkpt>
      <trkpt lat="52.10327" lon="5.1976">
        <ele>2</ele>
      </trkpt>
      <trkpt lat="52.10338" lon="5.19722">
        <ele>2</ele>
      </trkpt>
      <trkpt lat="52.10288" lon="5.19367">
        <ele>2</ele>
      </trkpt>
      <trkpt lat="52.10292" lon="5.19306">
        <ele>2</ele>
      </trkpt>
      <trkpt lat="52.10303" lon="5.19242">
        <ele>3</ele>
      </trkpt>
      <trkpt lat="52.10362" lon="5.1899">
        <ele>2</ele>
      </trkpt>
      <trkpt lat="52.10391" lon="5.18858">
        <ele>2</ele>
      </trkpt>
      <trkpt lat="52.10421" lon="5.18677">
        <ele>2</ele>
      </trkpt>
      <trkpt lat="52.1043" lon="5.1864">
        <ele>2</ele>
      </trkpt>
      <trkpt lat="52.10434" lon="5.18637">
        <ele>2</ele>
      </trkpt>
      <trkpt lat="52.10439" lon="5.18587">
        <ele>2</ele>
      </trkpt>
      <trkpt lat="52.10435" lon="5.18579">
        <ele>2</ele>
      </trkpt>
      <trkpt lat="52.10431" lon="5.18547">
        <ele>2</ele>
      </trkpt>
      <trkpt lat="52.10442" lon="5.18457">
        <ele>2</ele>
      </trkpt>
      <trkpt lat="52.10443" lon="5.18433">
        <ele>2</ele>
      </trkpt>
      <trkpt lat="52.10444" lon="5.18412">
        <ele>2</ele>
      </trkpt>
      <trkpt lat="52.1045" lon="5.1841">
        <ele>2</ele>
      </trkpt>
      <trkpt lat="52.10457" lon="5.18405">
        <ele>2</ele>
      </trkpt>
      <trkpt lat="52.1046" lon="5.18392">
        <ele>2</ele>
      </trkpt>
      <trkpt lat="52.10489" lon="5.18211">
        <ele>2</ele>
      </trkpt>
      <trkpt lat="52.10504" lon="5.1813">
        <ele>2</ele>
      </trkpt>
      <trkpt lat="52.10545" lon="5.17926">
        <ele>2</ele>
      </trkpt>
      <trkpt lat="52.1056" lon="5.17842">
        <ele>2</ele>
      </trkpt>
      <trkpt lat="52.10566" lon="5.17843">
        <ele>2</ele>
      </trkpt>
      <trkpt lat="52.10573" lon="5.17835">
        <ele>2</ele>
      </trkpt>
      <trkpt lat="52.10574" lon="5.1782">
        <ele>2</ele>
      </trkpt>
      <trkpt lat="52.10572" lon="5.17812">
        <ele>2</ele>
      </trkpt>
      <trkpt lat="52.10567" lon="5.17807">
        <ele>2</ele>
      </trkpt>
      <trkpt lat="52.10616" lon="5.17553">
        <ele>3</ele>
      </trkpt>
      <trkpt lat="52.10696" lon="5.17157">
        <ele>1</ele>
      </trkpt>
      <trkpt lat="52.10702" lon="5.17142">
        <ele>1</ele>
      </trkpt>
      <trkpt lat="52.10707" lon="5.17125">
        <ele>1</ele>
      </trkpt>
      <trkpt lat="52.10723" lon="5.17044">
        <ele>1</ele>
      </trkpt>
      <trkpt lat="52.10748" lon="5.1697">
        <ele>1</ele>
      </trkpt>
      <trkpt lat="52.10758" lon="5.16949">
        <ele>1</ele>
      </trkpt>
      <trkpt lat="52.10768" lon="5.16934">
        <ele>1</ele>
      </trkpt>
      <trkpt lat="52.10793" lon="5.16911">
        <ele>1</ele>
      </trkpt>
      <trkpt lat="52.1081" lon="5.16886">
        <ele>1</ele>
      </trkpt>
      <trkpt lat="52.10823" lon="5.16858">
        <ele>1</ele>
      </trkpt>
      <trkpt lat="52.10833" lon="5.16815">
        <ele>2</ele>
      </trkpt>
      <trkpt lat="52.10837" lon="5.16793">
        <ele>2</ele>
      </trkpt>
      <trkpt lat="52.10833" lon="5.16779">
        <ele>2</ele>
      </trkpt>
      <trkpt lat="52.10821" lon="5.16756">
        <ele>2</ele>
      </trkpt>
      <trkpt lat="52.10804" lon="5.16736">
        <ele>2</ele>
      </trkpt>
      <trkpt lat="52.10796" lon="5.16708">
        <ele>2</ele>
      </trkpt>
      <trkpt lat="52.10794" lon="5.16691">
        <ele>2</ele>
      </trkpt>
      <trkpt lat="52.10793" lon="5.16655">
        <ele>1</ele>
      </trkpt>
      <trkpt lat="52.10796" lon="5.16637">
        <ele>1</ele>
      </trkpt>
      <trkpt lat="52.10858" lon="5.16313">
        <ele>1</ele>
      </trkpt>
      <trkpt lat="52.10882" lon="5.16194">
        <ele>1</ele>
      </trkpt>
      <trkpt lat="52.10893" lon="5.16083">
        <ele>1</ele>
      </trkpt>
      <trkpt lat="52.10901" lon="5.16045">
        <ele>1</ele>
      </trkpt>
      <trkpt lat="52.10905" lon="5.16038">
        <ele>1</ele>
      </trkpt>
      <trkpt lat="52.10912" lon="5.16033">
        <ele>1</ele>
      </trkpt>
      <trkpt lat="52.10959" lon="5.16069">
        <ele>1</ele>
      </trkpt>
      <trkpt lat="52.10986" lon="5.16087">
        <ele>1</ele>
      </trkpt>
      <trkpt lat="52.11002" lon="5.16086">
        <ele>1</ele>
      </trkpt>
      <trkpt lat="52.11016" lon="5.16079">
        <ele>1</ele>
      </trkpt>
      <trkpt lat="52.11027" lon="5.1607">
        <ele>1</ele>
      </trkpt>
      <trkpt lat="52.11034" lon="5.16053">
        <ele>1</ele>
      </trkpt>
      <trkpt lat="52.11064" lon="5.15869">
        <ele>6</ele>
      </trkpt>
      <trkpt lat="52.11071" lon="5.15826">
        <ele>6</ele>
      </trkpt>
      <trkpt lat="52.11072" lon="5.15808">
        <ele>3</ele>
      </trkpt>
      <trkpt lat="52.11069" lon="5.1577">
        <ele>1</ele>
      </trkpt>
      <trkpt lat="52.11064" lon="5.15749">
        <ele>2</ele>
      </trkpt>
      <trkpt lat="52.11056" lon="5.15737">
        <ele>2</ele>
      </trkpt>
      <trkpt lat="52.11038" lon="5.15724">
        <ele>4</ele>
      </trkpt>
      <trkpt lat="52.11006" lon="5.15707">
        <ele>3</ele>
      </trkpt>
      <trkpt lat="52.10998" lon="5.15698">
        <ele>1</ele>
      </trkpt>
      <trkpt lat="52.10996" lon="5.15686">
        <ele>1</ele>
      </trkpt>
      <trkpt lat="52.10961" lon="5.15586">
        <ele>0</ele>
      </trkpt>
      <trkpt lat="52.10953" lon="5.15574">
        <ele>0</ele>
      </trkpt>
      <trkpt lat="52.10941" lon="5.15566">
        <ele>0</ele>
      </trkpt>
      <trkpt lat="52.10926" lon="5.15561">
        <ele>0</ele>
      </trkpt>
      <trkpt lat="52.10917" lon="5.15561">
        <ele>0</ele>
      </trkpt>
      <trkpt lat="52.10909" lon="5.15564">
        <ele>0</ele>
      </trkpt>
      <trkpt lat="52.10903" lon="5.1557">
        <ele>0</ele>
      </trkpt>
      <trkpt lat="52.10896" lon="5.15582">
        <ele>0</ele>
      </trkpt>
      <trkpt lat="52.10882" lon="5.15626">
        <ele>1</ele>
      </trkpt>
      <trkpt lat="52.1049" lon="5.1539">
        <ele>1</ele>
      </trkpt>
      <trkpt lat="52.10485" lon="5.15389">
        <ele>1</ele>
      </trkpt>
      <trkpt lat="52.10476" lon="5.15392">
        <ele>1</ele>
      </trkpt>
      <trkpt lat="52.10424" lon="5.15429">
        <ele>3</ele>
      </trkpt>
      <trkpt lat="52.10407" lon="5.15444">
        <ele>2</ele>
      </trkpt>
      <trkpt lat="52.10393" lon="5.1547">
        <ele>0</ele>
      </trkpt>
      <trkpt lat="52.10377" lon="5.15482">
        <ele>1</ele>
      </trkpt>
      <trkpt lat="52.10344" lon="5.15349">
        <ele>1</ele>
      </trkpt>
      <trkpt lat="52.10292" lon="5.15109">
        <ele>1</ele>
      </trkpt>
      <trkpt lat="52.10281" lon="5.15074">
        <ele>0</ele>
      </trkpt>
      <trkpt lat="52.10271" lon="5.1506">
        <ele>1</ele>
      </trkpt>
      <trkpt lat="52.1026" lon="5.15051">
        <ele>1</ele>
      </trkpt>
      <trkpt lat="52.1018" lon="5.15013">
        <ele>0</ele>
      </trkpt>
      <trkpt lat="52.10176" lon="5.15004">
        <ele>0</ele>
      </trkpt>
      <trkpt lat="52.1017" lon="5.14982">
        <ele>0</ele>
      </trkpt>
      <trkpt lat="52.1011" lon="5.14951">
        <ele>1</ele>
      </trkpt>
      <trkpt lat="52.10154" lon="5.14712">
        <ele>0</ele>
      </trkpt>
      <trkpt lat="52.10152" lon="5.14679">
        <ele>0</ele>
      </trkpt>
      <trkpt lat="52.10145" lon="5.14648">
        <ele>0</ele>
      </trkpt>
      <trkpt lat="52.10134" lon="5.14627">
        <ele>1</ele>
      </trkpt>
      <trkpt lat="52.10117" lon="5.1461">
        <ele>1</ele>
      </trkpt>
      <trkpt lat="52.09916" lon="5.14513">
        <ele>0</ele>
      </trkpt>
      <trkpt lat="52.0991" lon="5.14505">
        <ele>1</ele>
      </trkpt>
      <trkpt lat="52.09905" lon="5.14492">
        <ele>1</ele>
      </trkpt>
      <trkpt lat="52.09904" lon="5.14472">
        <ele>1</ele>
      </trkpt>
      <trkpt lat="52.09907" lon="5.14373">
        <ele>3</ele>
      </trkpt>
      <trkpt lat="52.09909" lon="5.14226">
        <ele>2</ele>
      </trkpt>
      <trkpt lat="52.09712" lon="5.14218">
        <ele>2</ele>
      </trkpt>
      <trkpt lat="52.09656" lon="5.14225">
        <ele>2</ele>
      </trkpt>
      <trkpt lat="52.09607" lon="5.14249">
        <ele>2</ele>
      </trkpt>
      <trkpt lat="52.09575" lon="5.14136">
        <ele>2</ele>
      </trkpt>
      <trkpt lat="52.09569" lon="5.14131">
        <ele>2</ele>
      </trkpt>
      <trkpt lat="52.09565" lon="5.14123">
        <ele>2</ele>
      </trkpt>
      <trkpt lat="52.09564" lon="5.14117">
        <ele>2</ele>
      </trkpt>
      <trkpt lat="52.09569" lon="5.13954">
        <ele>1</ele>
      </trkpt>
      <trkpt lat="52.09571" lon="5.13853">
        <ele>2</ele>
      </trkpt>
      <trkpt lat="52.096" lon="5.13853">
        <ele>1</ele>
      </trkpt>
      <trkpt lat="52.09802" lon="5.13871">
        <ele>1</ele>
      </trkpt>
      <trkpt lat="52.099" lon="5.13755">
        <ele>1</ele>
      </trkpt>
      <trkpt lat="52.09977" lon="5.13626">
        <ele>2</ele>
      </trkpt>
      <trkpt lat="52.10036" lon="5.13465">
        <ele>2</ele>
      </trkpt>
      <trkpt lat="52.10051" lon="5.13402">
        <ele>2</ele>
      </trkpt>
      <trkpt lat="52.10061" lon="5.13338">
        <ele>2</ele>
      </trkpt>
      <trkpt lat="52.10065" lon="5.13301">
        <ele>2</ele>
      </trkpt>
      <trkpt lat="52.10067" lon="5.13262">
        <ele>2</ele>
      </trkpt>
      <trkpt lat="52.10066" lon="5.13194">
        <ele>2</ele>
      </trkpt>
      <trkpt lat="52.1006" lon="5.13113">
        <ele>1</ele>
      </trkpt>
      <trkpt lat="52.10038" lon="5.12949">
        <ele>1</ele>
      </trkpt>
      <trkpt lat="52.10048" lon="5.12921">
        <ele>2</ele>
      </trkpt>
      <trkpt lat="52.1005" lon="5.12901">
        <ele>2</ele>
      </trkpt>
      <trkpt lat="52.10032" lon="5.12892">
        <ele>3</ele>
      </trkpt>
      <trkpt lat="52.1001" lon="5.12882">
        <ele>3</ele>
      </trkpt>
      <trkpt lat="52.10002" lon="5.12882">
        <ele>3</ele>
      </trkpt>
      <trkpt lat="52.09967" lon="5.12767">
        <ele>2</ele>
      </trkpt>
      <trkpt lat="52.0995" lon="5.12699">
        <ele>1</ele>
      </trkpt>
      <trkpt lat="52.09931" lon="5.12607">
        <ele>1</ele>
      </trkpt>
      <trkpt lat="52.09929" lon="5.12592">
        <ele>1</ele>
      </trkpt>
      <trkpt lat="52.09929" lon="5.12577">
        <ele>1</ele>
      </trkpt>
      <trkpt lat="52.09929" lon="5.12551">
        <ele>1</ele>
      </trkpt>
      <trkpt lat="52.09936" lon="5.12465">
        <ele>3</ele>
      </trkpt>
      <trkpt lat="52.09882" lon="5.12453">
        <ele>2</ele>
      </trkpt>
      <trkpt lat="52.09857" lon="5.12439">
        <ele>2</ele>
      </trkpt>
      <trkpt lat="52.09795" lon="5.12414">
        <ele>3</ele>
      </trkpt>
      <trkpt lat="52.09784" lon="5.12412">
        <ele>3</ele>
      </trkpt>
      <trkpt lat="52.09767" lon="5.12418">
        <ele>3</ele>
      </trkpt>
      <trkpt lat="52.09764" lon="5.12407">
        <ele>3</ele>
      </trkpt>
      <trkpt lat="52.09715" lon="5.12285">
        <ele>2</ele>
      </trkpt>
      <trkpt lat="52.09709" lon="5.12269">
        <ele>2</ele>
      </trkpt>
      <trkpt lat="52.09708" lon="5.12259">
        <ele>2</ele>
      </trkpt>
      <trkpt lat="52.09711" lon="5.12246">
        <ele>2</ele>
      </trkpt>
      <trkpt lat="52.09752" lon="5.12122">
        <ele>2</ele>
      </trkpt>
      <trkpt lat="52.09755" lon="5.12103">
        <ele>2</ele>
      </trkpt>
      <trkpt lat="52.09754" lon="5.12081">
        <ele>2</ele>
      </trkpt>
      <trkpt lat="52.09758" lon="5.12075">
        <ele>2</ele>
      </trkpt>
      <trkpt lat="52.09759" lon="5.12068">
        <ele>2</ele>
      </trkpt>
      <trkpt lat="52.09758" lon="5.1206">
        <ele>2</ele>
      </trkpt>
      <trkpt lat="52.09749" lon="5.12047">
        <ele>1</ele>
      </trkpt>
      <trkpt lat="52.09734" lon="5.1204">
        <ele>1</ele>
      </trkpt>
      <trkpt lat="52.09696" lon="5.12012">
        <ele>3</ele>
      </trkpt>
      <trkpt lat="52.09676" lon="5.11992">
        <ele>3</ele>
      </trkpt>
      <trkpt lat="52.09667" lon="5.11973">
        <ele>3</ele>
      </trkpt>
      <trkpt lat="52.09665" lon="5.11964">
        <ele>3</ele>
      </trkpt>
      <trkpt lat="52.09665" lon="5.11946">
        <ele>3</ele>
      </trkpt>
      <trkpt lat="52.0967" lon="5.11699">
        <ele>3</ele>
      </trkpt>
      <trkpt lat="52.09662" lon="5.11606">
        <ele>4</ele>
      </trkpt>
      <trkpt lat="52.09655" lon="5.1161">
        <ele>4</ele>
      </trkpt>
      <trkpt lat="52.09622" lon="5.11628">
        <ele>4</ele>
      </trkpt>
      <trkpt lat="52.09617" lon="5.11606">
        <ele>4</ele>
      </trkpt>
      <trkpt lat="52.09614" lon="5.11594">
        <ele>4</ele>
      </trkpt>
      <trkpt lat="52.09608" lon="5.11601">
        <ele>4</ele>
      </trkpt>
      <trkpt lat="52.09553" lon="5.11628">
        <ele>4</ele>
      </trkpt>
      <trkpt lat="52.0952" lon="5.11637">
        <ele>4</ele>
      </trkpt>
      <trkpt lat="52.0948" lon="5.1164">
        <ele>4</ele>
      </trkpt>
      <trkpt lat="52.09431" lon="5.11635">
        <ele>5</ele>
      </trkpt>
      <trkpt lat="52.09414" lon="5.11636">
        <ele>5</ele>
      </trkpt>
    </trkseg>
  </trk>
</gpx>
