<?xml version="1.0" encoding="UTF-8"?>
<gpx xmlns="http://www.topografix.com/GPX/1/1" creator="RouteYou" version="1.1" xmlns:xsi="http://www.w3.org/2001/XMLSchema-instance" xsi:schemaLocation="http://www.topografix.com/GPX/1/1 http://www.topografix.com/GPX/1/1/gpx.xsd">
  <wpt lat="52.07442" lon="5.17808">
    <name>Fuerte Rhijnauwen</name>
    <desc>Rhijnauwen es el fuerte más grande de la Línea de Agua Holandesa con sus 31 ha y fue construido en la segunda mitad del siglo XIX. La línea se construyó para defender Utrecht y Holanda de ataques provenientes del este. El fuerte tiene un reduit (un fuerte interior) donde los defensores podían retirarse si el resto del fuerte caía. 
Debido a que el fuerte estuvo cerrado al público durante años, ahora hay animales y plantas raras que viven allí. 
En invierno, cientos de murciélagos hibernan en el fuerte. 
La visita al fuerte solo es posible durante las visitas guiadas de Staatsbosbeheer.&lt;br/&gt;&lt;br/&gt;Autor: &lt;a href="https://www.routeyou.com/user/view/171527.es"&gt;De Wandelmaker&lt;/a&gt;&lt;br/&gt;&lt;a href="https://www.routeyou.com/location/view/48684713.es?toptext=2342201"&gt;Más información&lt;/a&gt;</desc>
    <type>Fortaleza</type>
  </wpt>
  <wpt lat="51.99076" lon="5.19303">
    <name>Brinkkerk</name>
    <desc>Torre del siglo XIV. La iglesia parroquial católica de la época estaba dedicada a San Miguel. El nombre posterior fue Brinkkerk.

Iglesia reformada; torre de construcción de ladrillo, la parte inferior es de estilo románico tardío con lesenas y frisos de arcos, la parte superior es de estilo gótico tardío. Ábside bajo del siglo XIV. En el interior, monumento funerario rococó para el señor de la aldea Balthasar de Leeuw 1754. Bancos para los nobles y púlpito. (La torre de la iglesia es propiedad del municipio de Houten). Reloj mecánico de torre, probablemente de 1886, más tarde equipado con un motor síncrono no protegido.&lt;br/&gt;&lt;br/&gt;Autor: &lt;a href="https://www.routeyou.com/user/view/287808.es"&gt;hannien&lt;/a&gt;&lt;br/&gt;&lt;a href="https://www.routeyou.com/location/view/49219725.es?toptext=2938892"&gt;Más información&lt;/a&gt;</desc>
    <type>Iglesia</type>
  </wpt>
  <wpt lat="52.05903" lon="5.16771">
    <name>Fort Vechten</name>
    <desc>Fort de Vechten es el segundo fortín más grande de la Nueva Línea de Agua Holandesa. Una línea de agua es un sistema de defensa único y típicamente neerlandés, donde el defensor utiliza polders inundados contiguos. Una barrera de agua fangosa hasta la altura de las rodillas era un obstáculo formidable para el enemigo. La artillería pesada se hundía en zanjas y canales y el agua era demasiado poco profunda para ser navegada.

La construcción de los fortines alrededor de Utrecht tuvo lugar entre 1815 y 1826. El alcance de la artillería aumentó rápidamente a mediados del siglo XIX y se demostró que los fortines (de Klop, de Gagel, Blauwkapel, Biltstraat, de Lunetten) estaban demasiado cerca de Utrecht. Por lo tanto, desde 1867 se construyó una segunda línea de fortines en Utrecht. El Fort de Vechten es parte de esta línea. Los fortines en el lado este de Utrecht también son conocidos como 'La Línea de Utrecht'.

El Fort de Vechten fue construido entre 1867 y 1870. El gran cuartel a prueba de bombas se añadió en 1880. El fortín tiene 17 hectáreas y, después de Rijnauwen, es el fortín más grande de la Nueva Línea de Agua Holandesa. La movilización del fortín ocurrió en 1870, 1914-1918 y 1939-1940, pero este fortín nunca se ha visto involucrado en acciones bélicas.&lt;br/&gt;&lt;br/&gt;Autor: &lt;a href="https://www.routeyou.com/user/view/111966.es"&gt;Europafietsers&lt;/a&gt;&lt;br/&gt;&lt;a href="https://www.routeyou.com/location/view/47553786.es?toptext=3040996"&gt;Más información&lt;/a&gt;</desc>
    <type>Fortaleza</type>
  </wpt>
  <wpt lat="52.00558" lon="5.18934">
    <name>Schalkwijksebrug</name>
    <desc>Puentes sobre el canal Ámsterdam-Rijn cerca de Houten: el puente Schalkwijk y el puente ferroviario situado justo detrás. El canal tiene una anchura de 100-120 metros.&lt;br/&gt;&lt;br/&gt;Autor: &lt;a href="https://www.routeyou.com/user/view/287808.es"&gt;hannien&lt;/a&gt;&lt;br/&gt;&lt;a href="https://www.routeyou.com/location/view/49330996.es?toptext=3056324"&gt;Más información&lt;/a&gt;</desc>
    <type>Puente</type>
  </wpt>
  <wpt lat="52.08801" lon="5.12307">
    <name>Dales Gast-e-Inn</name>
    <desc>Dales Gast-en-Verblijf&lt;br/&gt;&lt;br/&gt;Este alojamiento ofrece:&lt;br/&gt;* Apartamento en la Werf / 4 personas&lt;br/&gt;* Apartamento / 2 personas&lt;br/&gt;* Estudio / 2 personas&lt;br/&gt;&lt;br/&gt;Dales Gast-en-Verblijf es un lugar único para disfrutar de la ciudad de Utrecht durante unos días. Si busca un hospedaje acogedor y espacioso, está en el lugar correcto. Puede elegir entre 3 alojamientos, cada uno con su propio encanto y posibilidades.&lt;br/&gt;Se hospedará en el corazón de la ciudad, en medio del barrio de los museos. Cerca encontrará todo lo que una ciudad tiene para ofrecer. La estación está a 10 minutos a pie.&lt;br/&gt;&lt;br/&gt;Datos de contacto:&lt;br/&gt;Sytse Koopman&lt;br/&gt;Lange Nieuwstraat 22&lt;br/&gt;3512 PH Utrecht&lt;br/&gt;Tel: +31 (0)30 23 156 05&lt;br/&gt;Móvil: +31 (0)6 201 353 16&lt;br/&gt;E-mail: info@gast-en-verblijf.nl&lt;br/&gt;&lt;br/&gt;Autor: &lt;a href="https://www.routeyou.com/user/view/2482.es"&gt;Dromos&lt;/a&gt;&lt;br/&gt;&lt;a href="https://www.routeyou.com/location/view/49948037.es?toptext=4226452"&gt;Más información&lt;/a&gt;</desc>
    <type>Bed and Breakfast</type>
  </wpt>
  <wpt lat="52.03671" lon="5.11051">
    <name>Compuerta de presión</name>
    <desc>Autor: &lt;a href="https://www.routeyou.com/user/view/30609.es"&gt;Martin B&lt;/a&gt;&lt;br/&gt;&lt;a href="https://www.routeyou.com/location/view/47457232.es?toptext=4691627"&gt;Más información&lt;/a&gt;</desc>
    <type>Punto de interés</type>
  </wpt>
  <wpt lat="52.087" lon="5.12076">
    <name>Antiguo Monasterio Regulieren</name>
    <desc>Este impresionante edificio en la Oudergracht 245 fue construido en el siglo XIII. En 1274, los Canónigos Regulares ocuparon el monasterio. Eran una importante orden religiosa, entre otras cosas, custodiaban la llave de la Clave de Suster Bertken. Durante la Reforma, fueron expulsados a la fuerza, quedando sin hogar y vagando fuera de las murallas de la ciudad. El edificio fue tomado en 1580 por otra institución: el orfanato de Santa Isabel. Este estaba anteriormente junto al castillo Vredenburg, pero debido a los bombardeos ya no era adecuado para albergar huérfanos. A principios de los años treinta se convirtió en un cine. Actualmente alberga, entre otros, una guardería, el departamento de patrimonio del municipio y, en el lado del canal, es la entrada de Tivoli.&lt;br/&gt;&lt;br/&gt;Autor: &lt;a href="https://www.routeyou.com/user/view/159222.es"&gt;SA&lt;/a&gt;&lt;br/&gt;&lt;a href="https://www.routeyou.com/location/view/50471510.es?toptext=4798882"&gt;Más información&lt;/a&gt;</desc>
    <type>Punto de interés</type>
  </wpt>
  <wpt lat="52.08941" lon="5.12323">
    <name>Abadía de Pablo</name>
    <desc>En 1050, el obispo Bernold fundó una nueva gran iglesia en Utrecht. Fue el comienzo de una serie de grandes obras religiosas. Esta estaba dedicada a San Pablo y destinada a los monjes benedictinos del monasterio de Anfried, que debían mudarse de Amersfoort a Utrecht. Esta abadía de Pablo era parte de las tres iglesias que se construyeron alrededor de la catedral de San Martín. Cada una tenía su propia ‘inmunidad’: un patio alrededor de la iglesia donde residían importantes figuras eclesiásticas, donde regían sus propias leyes.&lt;br/&gt;De la iglesia, que ya no existe, se sabe poco. Durante una renovación, en 1994, se descubrió la cimentación y una parte del antiguo altar. También se descubrió que la pared este todavía existía, escondida detrás de un enlucido del siglo XVII. Se decidió preservar esta parte para la posteridad.&lt;br/&gt;Hoy en día, esta pared se puede ver en el Archivo de Utrecht y a través de la Hofpoort (situada entre Nieuwegracht 9-11).&lt;br/&gt;&lt;br/&gt;Autor: &lt;a href="https://www.routeyou.com/user/view/159222.es"&gt;SA&lt;/a&gt;&lt;br/&gt;&lt;a href="https://www.routeyou.com/location/view/50471512.es?toptext=4798884"&gt;Más información&lt;/a&gt;</desc>
    <type>Abadía</type>
  </wpt>
  <wpt lat="52.08514" lon="5.12227">
    <name>Consola de farola Sint Gertrudis</name>
    <desc>&lt;p&gt;En este lugar se puede ver un soporte de farola de Santa Gertrudis. Gertrudis a menudo se representa con uno o más de los siguientes atributos: una iglesia abacial, un hábito de penitente, un báculo, una copa, ratones y un gato. Es más famosa por este último, ya que es la santa patrona de los gatos. El 17 de marzo es el día de fiesta de Santa Gertrudis.&lt;a href="https://nl.wikipedia.org/wiki/Kasteel_van_Gaasbeek" rel="nofollow" target="_blank"&gt; &lt;/a&gt;En &lt;a href="https://nl.wikipedia.org/wiki/640" rel="nofollow" target="_blank"&gt;640&lt;/a&gt; su madre fundó la &lt;a href="https://nl.wikipedia.org/wiki/Abdij_van_Nijvel" rel="nofollow" target="_blank"&gt;abadía de Nijvel&lt;/a&gt;, donde Gertrudis ingresó y a los 20 años se convirtió en &lt;a href="https://nl.wikipedia.org/wiki/Abt_%28abdij%29" rel="nofollow" target="_blank"&gt;abadessa&lt;/a&gt;. Su fiesta se celebra actualmente en el día de su muerte &lt;a href="https://nl.wikipedia.org/wiki/17_maart" rel="nofollow" target="_blank"&gt;17 de marzo&lt;/a&gt; de 659. Ya falleció cuando solo tenía 33 años.&lt;/p&gt;&lt;br/&gt;&lt;br/&gt;Autor: &lt;a href="https://www.routeyou.com/user/view/9156.es"&gt;RouteYou&lt;/a&gt;&lt;br/&gt;&lt;a href="https://www.routeyou.com/location/view/50572001.es?toptext=5606093"&gt;Más información&lt;/a&gt;</desc>
    <type>Monumento</type>
  </wpt>
  <wpt lat="52.08333" lon="5.12583">
    <name>Centraal Museum</name>
    <desc>El Centraal Museum es el museo de la ciudad de Utrecht, Países Bajos, que alberga una importante colección de arte de antes de 1850, arte moderno, artes aplicadas, moda e historia de la ciudad. El museo fue fundado en 1838. Inicialmente, la colección —expuesta en el último piso del ayuntamiento de Utrecht— se limitaba al arte relacionado con la ciudad de Utrecht. En 1921 esa colección se fusionó con diversas colecciones privadas en un nuevo museo central ubicado en el antiguo monasterio medieval de Nicolaaskerkhof .&lt;br/&gt;&lt;br/&gt;Autor: &lt;a href="https://www.routeyou.com/user/view/165089.es"&gt;Wikipedia&lt;/a&gt;&lt;br/&gt;&lt;a href="https://www.routeyou.com/location/view/47535298.es?toptext=5640890"&gt;Más información&lt;/a&gt;</desc>
    <type>Museo</type>
  </wpt>
  <wpt lat="52.03417" lon="5.16778">
    <name>Estación Houten</name>
    <desc>La estación de Houten es una estación de tren en la línea ferroviaria Utrecht - 's-Hertogenbosch, situada en el centro de Houten.&lt;br/&gt;&lt;br/&gt;La primera estación en Houten se inauguró el 1 de noviembre de 1868. Esta era una estación de la primera generación del Servicio de Aguas que se construyó en varios lugares a lo largo de la línea ferroviaria Utrecht - Boxtel. La estación se construyó en 1867 según un diseño de G. van Diesen y es el único ejemplar que ha quedado de este tipo.&lt;br/&gt;&lt;br/&gt;&lt;br/&gt;Autor: &lt;a href="https://www.routeyou.com/user/view/165089.es"&gt;Wikipedia&lt;/a&gt;&lt;br/&gt;&lt;a href="https://www.routeyou.com/location/view/50580773.es?toptext=5640970"&gt;Más información&lt;/a&gt;</desc>
    <type>Estación de tren</type>
  </wpt>
  <wpt lat="51.98528" lon="5.15917">
    <name>Trabajo en la Korte Uitweg</name>
    <desc>La Obra en el Caminito Corto es parte de la Nueva Línea de Aguas Holandesa y fue construida entre 1873 y 1879. La Obra en el Caminito Corto se encuentra a 1000 metros al norte del Fuerte Honswijk y forma parte de la Línea de Honswijk.&lt;br/&gt;&lt;br/&gt;El fuerte consistía inicialmente en un foso rodeado de un terraplén. En 1877 apareció un cuartel a prueba de bombas, un almacén, un depósito de municiones y fuera del foso, una vivienda para el guardia del fuerte. El conjunto estuvo listo en 1879. En el fuerte había espacio para 160 soldados.&lt;br/&gt;&lt;br/&gt;&lt;br/&gt;Autor: &lt;a href="https://www.routeyou.com/user/view/165089.es"&gt;Wikipedia&lt;/a&gt;&lt;br/&gt;&lt;a href="https://www.routeyou.com/location/view/49899823.es?toptext=5654359"&gt;Más información&lt;/a&gt;</desc>
    <type>Lugar arquitectónico</type>
  </wpt>
  <wpt lat="51.9975" lon="5.15139">
    <name>Trabajo en el Waler Wetering</name>
    <desc>La Obra en el Wetering Walón es una parte de la Nueva Línea de Agua Holandesa y se construyó entre 1875 y 1878.&lt;br/&gt;&lt;br/&gt;La Obra en el Wetering Walón se encuentra en la Isla de Schalkwijk, al este de Tull y 't Waal, en una parte más alta del paisaje. En caso de inundación, una estrecha franja de tierra apenas quedaría sumergida entre el núcleo del pueblo de Schalkwijk y Tull y 't Waal. El enemigo potencial podría atravesar la Nueva Línea de Agua Holandesa a través de esta cresta de flujo.&lt;br/&gt;&lt;br/&gt;&lt;br/&gt;Autor: &lt;a href="https://www.routeyou.com/user/view/165089.es"&gt;Wikipedia&lt;/a&gt;&lt;br/&gt;&lt;a href="https://www.routeyou.com/location/view/49411854.es?toptext=5654386"&gt;Más información&lt;/a&gt;</desc>
    <type>Lugar histórico</type>
  </wpt>
  <wpt lat="52.07833" lon="5.14583">
    <name>Football Club Utrecht</name>
    <desc>El Football Club Utrecht es un equipo de fútbol de la ciudad de Utrecht en los Países Bajos. Fue fundado el 1 de julio de 1970, y participa en la Eredivisie, la primera división del fútbol neerlandés.Este club se creó en 1970, producto de la fusión de tres clubes de la ciudad de Utrecht: el DOS Utrecht, el USV Elinwijk y el SC Velox.&lt;br/&gt;&lt;br/&gt;Autor: &lt;a href="https://www.routeyou.com/user/view/165089.es"&gt;Wikipedia&lt;/a&gt;&lt;br/&gt;&lt;a href="https://www.routeyou.com/location/view/50592584.es?toptext=5657859"&gt;Más información&lt;/a&gt;</desc>
    <type>Estadio de fútbol</type>
  </wpt>
  <wpt lat="52.05861" lon="5.16833">
    <name>Fort bij Vechten</name>
    <desc>El Fuerte de Vechten en Bunnik es un fuerte neerlandés, construido de 1867 a 1870. Tiene 17 hectáreas dentro del foso y 23 ha dentro de las marcaciones. Se han utilizado 16 millones de ladrillos en los 22 edificios del fuerte. Forma parte de la Nueva Línea de Agua Holandesa y desde 1996 es propiedad de la Administración de Bosques del Estado. Desde 1950 hasta 1996, el fuerte fue utilizado por la Defensa para el almacenamiento de metales no ferrosos y ferrosos, así como de neumáticos de goma para interiores y exteriores. Desde el 10 de octubre de 2015, aquí se encuentra el Museo de la Línea de Agua Fuerte de Vechten.&lt;br/&gt;&lt;br/&gt;Autor: &lt;a href="https://www.routeyou.com/user/view/165089.es"&gt;Wikipedia&lt;/a&gt;&lt;br/&gt;&lt;a href="https://www.routeyou.com/location/view/47553786.es?toptext=5971512"&gt;Más información&lt;/a&gt;</desc>
    <type>Lugar arquitectónico</type>
  </wpt>
  <wpt lat="51.98836" lon="5.19119">
    <name>Castillo Schalkwijk</name>
    <desc>&lt;p&gt;dirección: Tetwijkseweg 2-4; en el cruce 64 gira a la izquierda&lt;/p&gt;

&lt;p&gt;El nombre del castillo proviene del apellido Schalkwijk.&lt;/p&gt;

&lt;p&gt;Historial de construcción: (Construcción) fase 1 - 1250 hasta 1811&lt;/p&gt;

&lt;p&gt;&lt;br/&gt;
Se sabe poco del castillo medieval. Sin embargo, se sabe que a partir de 1200 se comenzó a construir con ladrillos. En el&lt;strong&gt; dibujo &lt;/strong&gt;vemos un castillo rectangular con una alta muralla de 70 cm de grosor. En 3 esquinas hay 3 torres diferentes. Una pesada torre redonda, con un diámetro de 10 m y muros de 1,5 m de grosor. Una torre cuadrada de 4,5 x 4,5 m. La 3ª torre es una torre rectangular con muros delgados. Probablemente una torre de artillería.&lt;/p&gt;

&lt;p&gt;El castillo se deterioró y desapareció entre 1774 y 1811. En la venta de 1811 solo se habló de un terreno.&lt;/p&gt;

&lt;p&gt;Fuente: sitio &lt;a href="https://www.kasteleninnederland.nl" rel="nofollow" target="_blank"&gt;https://www.kasteleninnederland.nl&lt;/a&gt;&lt;/p&gt;

&lt;p&gt;foto: kastelen.nl dibujo de Jan de Beijer &lt;/p&gt;

&lt;p&gt; &lt;/p&gt;

&lt;p&gt;&lt;strong&gt;Los jardines del castillo:&lt;/strong&gt;&lt;br/&gt;
Además de que el jardín está históricamente justificado en su vegetación, es simplemente un lugar bonito para pasear y disfrutar de la tranquilidad que allí se siente.&lt;br/&gt;
El jardín muestra muchas plantas herbáceas, parterres de flores y árboles frutales. En el centro se encuentra el pozo. El pozo para extraer agua se considera un símbolo de la obtención de fuerza espiritual para el alma a partir de la fe.&lt;/p&gt;

&lt;p&gt;Fuente: &lt;a href="https://www.vvvkrommerijnstreek.nl" rel="nofollow" target="_blank"&gt;https://www.vvvkrommerijnstreek.nl&lt;/a&gt;&lt;/p&gt;&lt;br/&gt;&lt;br/&gt;Autor: &lt;a href="https://www.routeyou.com/user/view/456442.es"&gt;Routes Culemborg&lt;/a&gt;&lt;br/&gt;&lt;a href="https://www.routeyou.com/location/view/51779780.es?toptext=8158885"&gt;Más información&lt;/a&gt;</desc>
    <type>Castillo</type>
  </wpt>
  <wpt lat="51.97697" lon="5.16158">
    <name>Luneta a la Snel</name>
    <desc>&lt;p&gt;La obra de defensa Lunet aan de Snel forma parte de nuestro patrimonio cultural nacional y es parte de la Línea de Defensa de Honswijk. Esta sección de la Nueva Línea de Agua Holandesa permitía la inundación de la polder Blokhoven en Schalkwijk para evitar un rápido avance del enemigo en tiempos de guerra.&lt;/p&gt;

&lt;p&gt;El Lunet se encuentra en la Lekdijk en la Isla de Schalkwijk, a un tiro de piedra del Fuerte Honswijk. La superficie total de Lunet aan de Snel abarca casi 2,5 hectáreas. Al lado oeste del Lunet se encuentra el canal de inundación. La obra de defensa debe su nombre al pequeño río de Snel, que fluye desde el lado este hacia la polder Blokhoven.&lt;/p&gt;&lt;br/&gt;&lt;br/&gt;Autor: &lt;a href="https://www.routeyou.com/user/view/456442.es"&gt;Routes Culemborg&lt;/a&gt;&lt;br/&gt;&lt;a href="https://www.routeyou.com/location/view/47552548.es?toptext=8160630"&gt;Más información&lt;/a&gt;</desc>
    <type>Fortaleza</type>
  </wpt>
  <wpt lat="51.98054" lon="5.15923">
    <name>Camino comunitario cubierto cerca del Fuerte Honswijk</name>
    <desc>&lt;p&gt;El &lt;strong&gt;Camino Comunitario Cubierto&lt;/strong&gt; es parte de la Nueva Línea de Agua Holandesa y fue construido entre 1872 y 1879.&lt;/p&gt;

&lt;p&gt;El camino se encuentra entre el Lunet aan de Snel y el Werk aan de Korte Uitweg en Tull en 't Waal y forma parte de la Línea de Honswijk. Es el único camino cubierto que se ha conservado de la Nueva Línea de Agua Holandesa. Los caminos comunitarios cubiertos son caminos militares y servían para mover cañones y tropas de manera invisible y segura entre las fortificaciones. En su totalidad, consiste en un camino protegido con un terraplén de tierra paralelo a lo largo de 850 metros. Al otro lado del terraplén de tierra se encuentra el canal de inundación. El camino comunitario cubierto estaba equipado con baterías que flanqueaban el Lunet aan de Snel y cubrían la ladera interior del dique Lekdijk del norte. Entre 1902 y 1918 se colocaron refugios en el parapeto.&lt;br/&gt;
&lt;br/&gt;
fuente: Sitio web de la Oficina del Proyecto Nueva Línea de Agua Holandesa.&lt;/p&gt;&lt;br/&gt;&lt;br/&gt;Autor: &lt;a href="https://www.routeyou.com/user/view/456442.es"&gt;Routes Culemborg&lt;/a&gt;&lt;br/&gt;&lt;a href="https://www.routeyou.com/location/view/51781225.es?toptext=8160671"&gt;Más información&lt;/a&gt;</desc>
    <type>Lugar histórico</type>
  </wpt>
  <wpt lat="52.06732" lon="5.16959">
    <name>Oud-Amelisweerd</name>
    <desc>&lt;p&gt;Oud-Amelisweerd es una casa de campo y ciudad caballeresca cerca de Bunnik. Junto con la casa de coches y el jardín, forma el complejo Histórico Casa de Campo Oud-Amelisweerd. Junto con Nieuw-Amelisweerd, forma las propiedades de Amelisweerd. La mansión albergó durante algún tiempo la colección Armando. Ahora, el círculo de cinco castillos de Utrecht muestra exposiciones temporales de su propio depósito.&lt;/p&gt;

&lt;p&gt;En el siglo XIII, el caballero Amelis fue otorgado por la prioería de Oudmunster un usufructo en Bunnik. En latín, era llamado &lt;em&gt;Amelis de Insula&lt;/em&gt;, que significa &lt;em&gt;Amelis de la Weerd&lt;/em&gt;. En 1227 se le menciona entre los ministeriales del obispo Otto de Lippe de Utrecht.&lt;br/&gt;
Más tarde, este usufructo se dividió en dos partes, Oud-Amelisweerd y Nieuw-Amelisweerd o Groenewoude.&lt;br/&gt;
En 1394, Herman van Wulven de la familia Lockhorst fue otorgado con Oud-Amelisweerd, y en 1423 su hijo Hendrik. Como falleció sin estar casado, Lutgard van Buren, hija de su hermana Clementia y Balthazar van Buren, heredó la propiedad. Lutgard se casó con Jan van Renesse, quien fue otorgado con la propiedad en 1453.&lt;br/&gt;
Su heredero, también llamado Jan van Renesse, era el propietario cuando la casa fue reconocida como ciudad caballeresca por los Estados de Utrecht en 1537.&lt;br/&gt;
Después de 130 años en posesión de la familia Van Renesse, Oud-Amelisweerd pasó en 1583 a manos de Amelis Utenengh. Su hijo Cornelis cedió la propiedad a Paschina d’Edel, viuda de Jacob van Hove von Zijll. Cuando su hijo Jacob falleció sin hijos, la propiedad fue adjudicada en 1649 a Huibert van Buren.&lt;br/&gt;
En el Año de la Catástrofe 1672, la casa fue destruida por las tropas de Luis XIV de Francia. Desde entonces, solo quedaron los cimientos de la antigua ciudad caballeresca, una cúpula y una casa insignificante.&lt;br/&gt;
En 1725, la propiedad fue otorgada a Jacob Johan van Delen. A su muerte, su esposa heredó Oud-Amelisweerd. En 1760 pasó a su cuñado Gerard Arnoud Hasselaar, alcalde de Ámsterdam. Dos meses después, este se lo donó a su yerno Gerard Godard &lt;a href="https://nl.wikipedia.org/wiki/Taets_van_Amerongen" rel="nofollow" target="_blank"&gt;Taets van Amerongen&lt;/a&gt;. Este construyó un puente sobre el &lt;a href="https://nl.wikipedia.org/wiki/Kromme_Rijn" rel="nofollow" target="_blank"&gt;Kromme Rijn&lt;/a&gt; y reestructuró la propiedad en un parque con amplios jardines. Esta estructura todavía se puede encontrar hoy en día. En 1770 construyó la mansión Oud-Amelisweerd como residencia de verano.&lt;br/&gt;
Su hijo Gerard Arnoud vendió Oud-Amelisweerd en 1808 a Lodewijk Napoleon, rey de &lt;a href="https://nl.wikipedia.org/wiki/Koninkrijk_Holland" rel="nofollow" target="_blank"&gt;Holanda&lt;/a&gt;. Después de más de un año, el rey vendió su propiedad a &lt;a href="https://nl.wikipedia.org/wiki/Jan_Pieter_van_Wickevoort_Crommelin" rel="nofollow" target="_blank"&gt;Jan Pieter van Wickevoort Crommelin&lt;/a&gt;, consejero de estado y canciller del reino. En 1811, este vendió la casa a Paulus Wilhelmus Bosch van Drakestein, alcalde de Utrecht.&lt;br/&gt;
Finalmente, la propiedad fue vendida en 1951 por la familia Bosch de Oud Amelisweerd al municipio de Utrecht. La mansión Oud-Amelisweerd fue habitada de forma privada hasta 1989, después de lo cual el Museo Central gestionó la propiedad hasta 2012. Desde el 31 de agosto de 2012, la mansión es gestionada por la Fundación Museo Oud Amelisweerd (MOA). En la primavera de 2014 se abrió al público la histórica casa de campo del mismo nombre. El conjunto de la mansión, casa de coches y jardín pertenece al top 100 de monumentos nacionales en los Países Bajos. La mansión está rodeada por un paisaje de parque diseñado en el espíritu de la Ilustración.&lt;br/&gt;
El museo mostró tres colecciones en conjunto: la colección más amplia y grande de obras de Armando, la histórica casa de campo Oud Amelisweerd y únicos papeles pintados chinos y otros históricos. Estas tres colecciones estaban conectadas por el tema central del MOA: la relación entre el ser humano y la naturaleza. El MOA recibió el 22 de mayo de 2016 el prestigioso premio de patrimonio cultural, el Premio Europa Nostra, en la categoría ‘Logros destacados en la conservación, mejora y adaptación a nuevos usos del patrimonio cultural’. En 2018, el museo MOA cerró porque no era lo suficientemente rentable y Armando había retirado su colección. El municipio de Utrecht, que posee el edificio, buscó un nuevo destino para el inmueble.&lt;br/&gt;
En junio de 2019, el edificio recibió un nuevo destino. Por iniciativa del museo Huis Doorn, apoyado por el Castillo de Haar, Slot Zuylen y el Castillo de Amerongen, se inauguró el museo efímero Oud-Amelisweerd. El museo exhibe objetos de los depósitos de los museos de los castillos de Utrecht, junto con arte moderno en exposiciones cambiantes.&lt;br/&gt;
Fuente: wikipedia&lt;/p&gt;&lt;br/&gt;&lt;br/&gt;Autor: &lt;a href="https://www.routeyou.com/user/view/344668.es"&gt;routeburo&lt;/a&gt;&lt;br/&gt;&lt;a href="https://www.routeyou.com/location/view/50770953.es?toptext=8169901"&gt;Más información&lt;/a&gt;</desc>
    <type>Castillo</type>
  </wpt>
  <wpt lat="52.06877" lon="5.17739">
    <name>Propiedad Rhijnauwen</name>
    <desc>&lt;p&gt;Caminando por el Jaagpad a lo largo del Kromme Rijn, se puede ver, detrás del río lleno de nenúfares, la mansión de la finca Rhijnauwen. La casa de ladrillos está firmemente abrazada por los árboles circundantes. El parque boscoso se extiende por un área de varios kilómetros cuadrados e incluye también las fincas de Oud- y Nieuw-Amelisweerd. En Rhijnauwen se ha establecido un sistema de senderos geométricos con algunos pequeños bosques paisajísticos.&lt;/p&gt;

&lt;p&gt;A pesar de las numerosas adaptaciones que ha sufrido la mansión clásico, se ha mantenido la forma principal del conjunto. La entrada de la casa simétrica llama la atención, gracias a su rica forma y su posición central en medio de la casa. Para llegar a la casa principal, el visitante debe pasar primero por el edificio de la entrada en Rhijnauwenselaan 7, luego verá la granja Rhijnauwen, que originalmente era una granja de alquiler. Al lado se encuentra una casa de verano, que junto con la granja data del siglo XVIII. El edificio más reciente, de 1924, es la blanca casa del guarda en Rhijnauwenselaan 10.&lt;/p&gt;

&lt;p&gt;Rhijnauwen se remonta a una casa fortificada medieval a lo largo del Kromme Rijn. Cuando la finca pasó a ser propiedad de David ten Hove en 1717, hizo remodelar la casa aún medieval en una moderna mansión clásica. A lo largo del siglo XVIII, se ampliaron los establos con un edificio de entrada, una vivienda para el servicio (Rhijnauwenselaan 9) y una palomar. También se plantó un bosque en estilo geométrico al norte del edificio principal. En el lado este del edificio principal se creó un jardín formal. A finales del siglo XVIII se plantaron algunos pequeños bosques al sur de Rhijnauwenselaan.&lt;/p&gt;

&lt;p&gt;En 1919, el municipio de Utrecht compró la finca, que fue desarrollada como área de parque público. Un año después se construyó la casa de té de madera en forma de L (Rhijnauwenselaan 16).&lt;/p&gt;

&lt;p&gt;La casa de té Rhijnauwen es una auténtica casa de té con una hermosa terraza. El restaurante de crepes se encuentra en un fantástico lugar a la orilla del Kromme Rijn y en medio de los bosques de la finca Rhijnauwen. Hay suficiente espacio y muchas oportunidades alrededor de la casa de té para disfrutar de un agradable día. Primero un paseo y luego relajarse con una bebida bien merecida junto al agua en la terraza. Junto con el restaurante, se pueden realizar diversas actividades: caminar, andar en bicicleta, hacer piragüismo, alquilar un bote, o visitar el Fuerte Rhijnauwen!&lt;/p&gt;

&lt;p&gt;Rhijnauwen es ideal para ir con niños. En el restaurante hay dibujos para colorear, sillas para niños, un divertido rincón para niños y, por supuesto, los más deliciosos crepes para niños. Fuera hay un fantástico parque infantil del que los niños nunca se cansan, lo suficientemente grande para mantenerlos entretenidos durante mucho tiempo. Además, tenemos 2 burros llamados Carlos e Isabella, y varios cabritillos que se pueden ver de cerca.&lt;/p&gt;&lt;br/&gt;&lt;br/&gt;Autor: &lt;a href="https://www.routeyou.com/user/view/344668.es"&gt;routeburo&lt;/a&gt;&lt;br/&gt;&lt;a href="https://www.routeyou.com/location/view/50770931.es?toptext=8169903"&gt;Más información&lt;/a&gt;</desc>
    <type>Finca</type>
  </wpt>
  <wpt lat="52.0669" lon="5.17816">
    <name>Bunkers en el pastizal</name>
    <desc>&lt;p&gt;El Bunkerpad a lo largo de estos bunkers conecta el Fuerte de Rijnauwen y el Fuerte de Vechten en Bunnik.&lt;/p&gt;&lt;br/&gt;&lt;br/&gt;&lt;a href="https://www.routeyou.com/location/view/51833267.es?toptext=8225032"&gt;Más información&lt;/a&gt;</desc>
    <type>Búnker</type>
  </wpt>
  <wpt lat="52.05025" lon="5.16491">
    <name>La zona húmeda con hermosas vistas</name>
    <desc>&lt;p&gt;Desde el (carril para bicicletas) tiene hermosas vistas del paisaje (rico en agua) con campos agrícolas y árboles.&lt;/p&gt;&lt;br/&gt;&lt;br/&gt;&lt;a href="https://www.routeyou.com/location/view/51833303.es?toptext=8225073"&gt;Más información&lt;/a&gt;</desc>
    <type>Espacio natural</type>
  </wpt>
  <wpt lat="52.00568" lon="5.18757">
    <name>Canal de Ámsterdam-Rinque</name>
    <desc>&lt;p&gt;Vista desde la Schalkwijkseweg hacia el sur sobre el canal de Ámsterdam-Rín&lt;/p&gt;&lt;br/&gt;&lt;br/&gt;&lt;a href="https://www.routeyou.com/location/view/51833304.es?toptext=8225075"&gt;Más información&lt;/a&gt;</desc>
    <type>Canal</type>
  </wpt>
  <wpt lat="52.00514" lon="5.15544">
    <name>Bosque ahogado</name>
    <desc>&lt;p&gt;Un &lt;strong&gt;bosque sumergido&lt;/strong&gt; es un bosque que se ha inundado debido a un aumento del nivel del agua o a una inundación. Si los árboles permanecen en el agua durante mucho tiempo, por lo general mueren. A veces, los tocones (el sistema de raíces y la base del tronco) se cubren de sedimentos y se preservan como fósiles. Si posteriormente el sedimento que cubre los restos del bosque se elimina por causas naturales o por actividad humana, los tocones quedan expuestos nuevamente. Si se encuentran muchos de estos tocones juntos, se habla de un 'bosque sumergido'.&lt;/p&gt;&lt;br/&gt;&lt;br/&gt;&lt;a href="https://www.routeyou.com/location/view/51833305.es?toptext=8225076"&gt;Más información&lt;/a&gt;</desc>
    <type>Bosque</type>
  </wpt>
  <wpt lat="52.0066" lon="5.10916">
    <name>Beatrixsluizen</name>
    <desc>&lt;p&gt;Las esclusas Beatrix vistas desde el lado del canal de desagüe&lt;/p&gt;&lt;br/&gt;&lt;br/&gt;&lt;a href="https://www.routeyou.com/location/view/51833306.es?toptext=8225077"&gt;Más información&lt;/a&gt;</desc>
    <type>Esclusa</type>
  </wpt>
  <wpt lat="52.02719" lon="5.11632">
    <name>Beatrixsluizen (lado del canal Ámsterdam-Rijn)</name>
    <desc>&lt;p&gt;La ruta de acceso y el lugar de atraque para las esclusas Beatrix en el lado del canal Ámsterdam-Rín&lt;/p&gt;&lt;br/&gt;&lt;br/&gt;&lt;a href="https://www.routeyou.com/location/view/51833307.es?toptext=8225078"&gt;Más información&lt;/a&gt;</desc>
    <type>Esclusa</type>
  </wpt>
  <trk>
    <name>Bunnik-Línea de agua del sur</name>
    <desc>&lt;p&gt;Comenzamos en los aparcamientos de Rheinauwen en Bunnik. La ruta en bicicleta pasa junto a los aparcamientos y aquí puede comenzar un hermoso recorrido a lo largo de una zona rica en agua de los Países Bajos. La línea de agua del sur es, por tanto, el tema de este recorrido en bicicleta a lo largo de fuertes, obras y baterías. Además, tendrá espléndidas vistas sobre el Lek, las llanuras de inundación, los huertos y pedaleará junto a las esclusas de la Princesa Beatriz.&lt;/p&gt;

&lt;p&gt;Enlace de rutas para bicicletas&lt;/p&gt;</desc>
    <trkseg>
      <trkpt lat="52.07069" lon="5.17682">
        <ele>6</ele>
      </trkpt>
      <trkpt lat="52.06997" lon="5.17775">
        <ele>5</ele>
      </trkpt>
      <trkpt lat="52.06938" lon="5.17657">
        <ele>7</ele>
      </trkpt>
      <trkpt lat="52.06817" lon="5.17818">
        <ele>2</ele>
      </trkpt>
      <trkpt lat="52.06759" lon="5.17818">
        <ele>2</ele>
      </trkpt>
      <trkpt lat="52.0645" lon="5.17802">
        <ele>3</ele>
      </trkpt>
      <trkpt lat="52.06404" lon="5.1784">
        <ele>3</ele>
      </trkpt>
      <trkpt lat="52.064" lon="5.17731">
        <ele>3</ele>
      </trkpt>
      <trkpt lat="52.064" lon="5.17493">
        <ele>2</ele>
      </trkpt>
      <trkpt lat="52.06406" lon="5.1741">
        <ele>2</ele>
      </trkpt>
      <trkpt lat="52.06409" lon="5.17332">
        <ele>2</ele>
      </trkpt>
      <trkpt lat="52.06405" lon="5.17296">
        <ele>2</ele>
      </trkpt>
      <trkpt lat="52.06394" lon="5.1723">
        <ele>2</ele>
      </trkpt>
      <trkpt lat="52.06392" lon="5.17204">
        <ele>2</ele>
      </trkpt>
      <trkpt lat="52.06397" lon="5.17164">
        <ele>2</ele>
      </trkpt>
      <trkpt lat="52.06401" lon="5.17144">
        <ele>2</ele>
      </trkpt>
      <trkpt lat="52.06399" lon="5.17103">
        <ele>2</ele>
      </trkpt>
      <trkpt lat="52.0639" lon="5.17096">
        <ele>2</ele>
      </trkpt>
      <trkpt lat="52.06376" lon="5.17096">
        <ele>2</ele>
      </trkpt>
      <trkpt lat="52.06362" lon="5.17092">
        <ele>2</ele>
      </trkpt>
      <trkpt lat="52.06355" lon="5.17083">
        <ele>2</ele>
      </trkpt>
      <trkpt lat="52.06348" lon="5.17095">
        <ele>2</ele>
      </trkpt>
      <trkpt lat="52.06343" lon="5.17126">
        <ele>2</ele>
      </trkpt>
      <trkpt lat="52.06341" lon="5.17218">
        <ele>2</ele>
      </trkpt>
      <trkpt lat="52.06339" lon="5.17238">
        <ele>3</ele>
      </trkpt>
      <trkpt lat="52.06335" lon="5.17246">
        <ele>3</ele>
      </trkpt>
      <trkpt lat="52.06252" lon="5.17254">
        <ele>4</ele>
      </trkpt>
      <trkpt lat="52.06196" lon="5.17269">
        <ele>4</ele>
      </trkpt>
      <trkpt lat="52.06167" lon="5.17284">
        <ele>3</ele>
      </trkpt>
      <trkpt lat="52.06146" lon="5.17303">
        <ele>3</ele>
      </trkpt>
      <trkpt lat="52.06116" lon="5.17336">
        <ele>3</ele>
      </trkpt>
      <trkpt lat="52.06082" lon="5.17294">
        <ele>4</ele>
      </trkpt>
      <trkpt lat="52.06067" lon="5.17281">
        <ele>3</ele>
      </trkpt>
      <trkpt lat="52.05938" lon="5.17188">
        <ele>2</ele>
      </trkpt>
      <trkpt lat="52.05872" lon="5.17112">
        <ele>4</ele>
      </trkpt>
      <trkpt lat="52.05865" lon="5.1711">
        <ele>4</ele>
      </trkpt>
      <trkpt lat="52.05808" lon="5.17134">
        <ele>4</ele>
      </trkpt>
      <trkpt lat="52.05794" lon="5.17135">
        <ele>4</ele>
      </trkpt>
      <trkpt lat="52.05781" lon="5.17132">
        <ele>4</ele>
      </trkpt>
      <trkpt lat="52.05763" lon="5.17124">
        <ele>4</ele>
      </trkpt>
      <trkpt lat="52.0574" lon="5.17104">
        <ele>4</ele>
      </trkpt>
      <trkpt lat="52.05728" lon="5.17091">
        <ele>4</ele>
      </trkpt>
      <trkpt lat="52.05719" lon="5.17076">
        <ele>5</ele>
      </trkpt>
      <trkpt lat="52.05708" lon="5.17048">
        <ele>5</ele>
      </trkpt>
      <trkpt lat="52.05701" lon="5.17006">
        <ele>5</ele>
      </trkpt>
      <trkpt lat="52.05689" lon="5.16912">
        <ele>6</ele>
      </trkpt>
      <trkpt lat="52.05684" lon="5.16903">
        <ele>6</ele>
      </trkpt>
      <trkpt lat="52.05641" lon="5.1685">
        <ele>5</ele>
      </trkpt>
      <trkpt lat="52.05619" lon="5.16819">
        <ele>6</ele>
      </trkpt>
      <trkpt lat="52.05606" lon="5.16792">
        <ele>4</ele>
      </trkpt>
      <trkpt lat="52.05601" lon="5.16775">
        <ele>4</ele>
      </trkpt>
      <trkpt lat="52.05593" lon="5.16734">
        <ele>4</ele>
      </trkpt>
      <trkpt lat="52.05593" lon="5.16684">
        <ele>5</ele>
      </trkpt>
      <trkpt lat="52.05599" lon="5.16637">
        <ele>4</ele>
      </trkpt>
      <trkpt lat="52.05594" lon="5.16568">
        <ele>3</ele>
      </trkpt>
      <trkpt lat="52.0555" lon="5.16384">
        <ele>2</ele>
      </trkpt>
      <trkpt lat="52.05548" lon="5.1639">
        <ele>2</ele>
      </trkpt>
      <trkpt lat="52.05389" lon="5.16422">
        <ele>1</ele>
      </trkpt>
      <trkpt lat="52.05173" lon="5.16471">
        <ele>1</ele>
      </trkpt>
      <trkpt lat="52.0511" lon="5.1648">
        <ele>0</ele>
      </trkpt>
      <trkpt lat="52.05035" lon="5.16486">
        <ele>0</ele>
      </trkpt>
      <trkpt lat="52.04948" lon="5.16486">
        <ele>0</ele>
      </trkpt>
      <trkpt lat="52.04897" lon="5.16482">
        <ele>0</ele>
      </trkpt>
      <trkpt lat="52.04799" lon="5.1646">
        <ele>0</ele>
      </trkpt>
      <trkpt lat="52.04786" lon="5.16605">
        <ele>0</ele>
      </trkpt>
      <trkpt lat="52.04788" lon="5.16691">
        <ele>0</ele>
      </trkpt>
      <trkpt lat="52.04787" lon="5.16769">
        <ele>0</ele>
      </trkpt>
      <trkpt lat="52.04782" lon="5.16834">
        <ele>0</ele>
      </trkpt>
      <trkpt lat="52.04768" lon="5.16932">
        <ele>1</ele>
      </trkpt>
      <trkpt lat="52.0474" lon="5.17026">
        <ele>0</ele>
      </trkpt>
      <trkpt lat="52.04728" lon="5.17082">
        <ele>1</ele>
      </trkpt>
      <trkpt lat="52.04712" lon="5.17227">
        <ele>0</ele>
      </trkpt>
      <trkpt lat="52.04708" lon="5.17243">
        <ele>0</ele>
      </trkpt>
      <trkpt lat="52.04683" lon="5.17318">
        <ele>1</ele>
      </trkpt>
      <trkpt lat="52.04678" lon="5.17326">
        <ele>1</ele>
      </trkpt>
      <trkpt lat="52.04664" lon="5.17337">
        <ele>1</ele>
      </trkpt>
      <trkpt lat="52.04653" lon="5.17339">
        <ele>1</ele>
      </trkpt>
      <trkpt lat="52.04458" lon="5.17283">
        <ele>3</ele>
      </trkpt>
      <trkpt lat="52.04413" lon="5.17273">
        <ele>2</ele>
      </trkpt>
      <trkpt lat="52.04409" lon="5.17275">
        <ele>2</ele>
      </trkpt>
      <trkpt lat="52.04405" lon="5.17285">
        <ele>2</ele>
      </trkpt>
      <trkpt lat="52.04406" lon="5.17309">
        <ele>2</ele>
      </trkpt>
      <trkpt lat="52.04426" lon="5.17377">
        <ele>2</ele>
      </trkpt>
      <trkpt lat="52.04432" lon="5.17412">
        <ele>2</ele>
      </trkpt>
      <trkpt lat="52.04438" lon="5.17455">
        <ele>1</ele>
      </trkpt>
      <trkpt lat="52.04439" lon="5.17482">
        <ele>1</ele>
      </trkpt>
      <trkpt lat="52.04438" lon="5.17558">
        <ele>1</ele>
      </trkpt>
      <trkpt lat="52.04426" lon="5.17652">
        <ele>1</ele>
      </trkpt>
      <trkpt lat="52.04426" lon="5.17674">
        <ele>1</ele>
      </trkpt>
      <trkpt lat="52.04438" lon="5.17708">
        <ele>1</ele>
      </trkpt>
      <trkpt lat="52.0444" lon="5.17718">
        <ele>1</ele>
      </trkpt>
      <trkpt lat="52.04437" lon="5.17873">
        <ele>1</ele>
      </trkpt>
      <trkpt lat="52.04433" lon="5.17881">
        <ele>1</ele>
      </trkpt>
      <trkpt lat="52.04394" lon="5.17908">
        <ele>1</ele>
      </trkpt>
      <trkpt lat="52.04389" lon="5.17916">
        <ele>1</ele>
      </trkpt>
      <trkpt lat="52.04387" lon="5.17925">
        <ele>1</ele>
      </trkpt>
      <trkpt lat="52.04387" lon="5.18077">
        <ele>2</ele>
      </trkpt>
      <trkpt lat="52.04385" lon="5.18139">
        <ele>3</ele>
      </trkpt>
      <trkpt lat="52.04377" lon="5.18194">
        <ele>2</ele>
      </trkpt>
      <trkpt lat="52.04364" lon="5.18253">
        <ele>2</ele>
      </trkpt>
      <trkpt lat="52.04354" lon="5.18285">
        <ele>2</ele>
      </trkpt>
      <trkpt lat="52.04346" lon="5.18306">
        <ele>2</ele>
      </trkpt>
      <trkpt lat="52.04329" lon="5.1834">
        <ele>2</ele>
      </trkpt>
      <trkpt lat="52.04322" lon="5.18358">
        <ele>2</ele>
      </trkpt>
      <trkpt lat="52.04317" lon="5.18419">
        <ele>2</ele>
      </trkpt>
      <trkpt lat="52.04315" lon="5.18552">
        <ele>2</ele>
      </trkpt>
      <trkpt lat="52.04296" lon="5.18612">
        <ele>1</ele>
      </trkpt>
      <trkpt lat="52.04265" lon="5.18585">
        <ele>2</ele>
      </trkpt>
      <trkpt lat="52.04239" lon="5.18565">
        <ele>2</ele>
      </trkpt>
      <trkpt lat="52.04205" lon="5.1855">
        <ele>2</ele>
      </trkpt>
      <trkpt lat="52.04197" lon="5.18529">
        <ele>2</ele>
      </trkpt>
      <trkpt lat="52.04158" lon="5.18478">
        <ele>3</ele>
      </trkpt>
      <trkpt lat="52.04102" lon="5.18413">
        <ele>3</ele>
      </trkpt>
      <trkpt lat="52.04086" lon="5.18388">
        <ele>4</ele>
      </trkpt>
      <trkpt lat="52.04072" lon="5.18352">
        <ele>3</ele>
      </trkpt>
      <trkpt lat="52.04027" lon="5.18203">
        <ele>3</ele>
      </trkpt>
      <trkpt lat="52.04008" lon="5.18165">
        <ele>3</ele>
      </trkpt>
      <trkpt lat="52.03996" lon="5.18147">
        <ele>3</ele>
      </trkpt>
      <trkpt lat="52.03977" lon="5.18131">
        <ele>3</ele>
      </trkpt>
      <trkpt lat="52.03963" lon="5.18124">
        <ele>3</ele>
      </trkpt>
      <trkpt lat="52.03904" lon="5.18113">
        <ele>3</ele>
      </trkpt>
      <trkpt lat="52.03889" lon="5.18105">
        <ele>3</ele>
      </trkpt>
      <trkpt lat="52.03875" lon="5.18094">
        <ele>3</ele>
      </trkpt>
      <trkpt lat="52.03865" lon="5.1808">
        <ele>3</ele>
      </trkpt>
      <trkpt lat="52.03802" lon="5.17965">
        <ele>3</ele>
      </trkpt>
      <trkpt lat="52.03768" lon="5.17892">
        <ele>3</ele>
      </trkpt>
      <trkpt lat="52.03765" lon="5.17879">
        <ele>3</ele>
      </trkpt>
      <trkpt lat="52.03758" lon="5.17817">
        <ele>3</ele>
      </trkpt>
      <trkpt lat="52.03727" lon="5.17732">
        <ele>3</ele>
      </trkpt>
      <trkpt lat="52.03694" lon="5.17697">
        <ele>3</ele>
      </trkpt>
      <trkpt lat="52.03657" lon="5.17605">
        <ele>3</ele>
      </trkpt>
      <trkpt lat="52.03601" lon="5.17442">
        <ele>3</ele>
      </trkpt>
      <trkpt lat="52.03575" lon="5.17349">
        <ele>4</ele>
      </trkpt>
      <trkpt lat="52.03564" lon="5.17317">
        <ele>4</ele>
      </trkpt>
      <trkpt lat="52.03562" lon="5.17307">
        <ele>4</ele>
      </trkpt>
      <trkpt lat="52.03564" lon="5.17281">
        <ele>4</ele>
      </trkpt>
      <trkpt lat="52.03544" lon="5.17191">
        <ele>3</ele>
      </trkpt>
      <trkpt lat="52.03526" lon="5.17105">
        <ele>3</ele>
      </trkpt>
      <trkpt lat="52.03511" lon="5.17043">
        <ele>3</ele>
      </trkpt>
      <trkpt lat="52.035" lon="5.17045">
        <ele>3</ele>
      </trkpt>
      <trkpt lat="52.03503" lon="5.17013">
        <ele>3</ele>
      </trkpt>
      <trkpt lat="52.03502" lon="5.17004">
        <ele>3</ele>
      </trkpt>
      <trkpt lat="52.0348" lon="5.16954">
        <ele>4</ele>
      </trkpt>
      <trkpt lat="52.03483" lon="5.16946">
        <ele>4</ele>
      </trkpt>
      <trkpt lat="52.03476" lon="5.16943">
        <ele>4</ele>
      </trkpt>
      <trkpt lat="52.03406" lon="5.1667">
        <ele>4</ele>
      </trkpt>
      <trkpt lat="52.03412" lon="5.16665">
        <ele>3</ele>
      </trkpt>
      <trkpt lat="52.0341" lon="5.16659">
        <ele>3</ele>
      </trkpt>
      <trkpt lat="52.03396" lon="5.16608">
        <ele>3</ele>
      </trkpt>
      <trkpt lat="52.03389" lon="5.16579">
        <ele>3</ele>
      </trkpt>
      <trkpt lat="52.03385" lon="5.16546">
        <ele>3</ele>
      </trkpt>
      <trkpt lat="52.03382" lon="5.16485">
        <ele>3</ele>
      </trkpt>
      <trkpt lat="52.03382" lon="5.16435">
        <ele>3</ele>
      </trkpt>
      <trkpt lat="52.03388" lon="5.16329">
        <ele>3</ele>
      </trkpt>
      <trkpt lat="52.03171" lon="5.16242">
        <ele>4</ele>
      </trkpt>
      <trkpt lat="52.03104" lon="5.16226">
        <ele>5</ele>
      </trkpt>
      <trkpt lat="52.02998" lon="5.16206">
        <ele>4</ele>
      </trkpt>
      <trkpt lat="52.02993" lon="5.16207">
        <ele>4</ele>
      </trkpt>
      <trkpt lat="52.02982" lon="5.16218">
        <ele>4</ele>
      </trkpt>
      <trkpt lat="52.02922" lon="5.16216">
        <ele>4</ele>
      </trkpt>
      <trkpt lat="52.0292" lon="5.16205">
        <ele>4</ele>
      </trkpt>
      <trkpt lat="52.02864" lon="5.16161">
        <ele>4</ele>
      </trkpt>
      <trkpt lat="52.02783" lon="5.16151">
        <ele>5</ele>
      </trkpt>
      <trkpt lat="52.0277" lon="5.16142">
        <ele>5</ele>
      </trkpt>
      <trkpt lat="52.02757" lon="5.16126">
        <ele>6</ele>
      </trkpt>
      <trkpt lat="52.02738" lon="5.16154">
        <ele>5</ele>
      </trkpt>
      <trkpt lat="52.0269" lon="5.16184">
        <ele>5</ele>
      </trkpt>
      <trkpt lat="52.02688" lon="5.16169">
        <ele>5</ele>
      </trkpt>
      <trkpt lat="52.02665" lon="5.16172">
        <ele>5</ele>
      </trkpt>
      <trkpt lat="52.02656" lon="5.16054">
        <ele>5</ele>
      </trkpt>
      <trkpt lat="52.02571" lon="5.15994">
        <ele>4</ele>
      </trkpt>
      <trkpt lat="52.0256" lon="5.15998">
        <ele>4</ele>
      </trkpt>
      <trkpt lat="52.02557" lon="5.16008">
        <ele>4</ele>
      </trkpt>
      <trkpt lat="52.02396" lon="5.15859">
        <ele>2</ele>
      </trkpt>
      <trkpt lat="52.02361" lon="5.15836">
        <ele>2</ele>
      </trkpt>
      <trkpt lat="52.02226" lon="5.15702">
        <ele>2</ele>
      </trkpt>
      <trkpt lat="52.02161" lon="5.15833">
        <ele>2</ele>
      </trkpt>
      <trkpt lat="52.02088" lon="5.15964">
        <ele>2</ele>
      </trkpt>
      <trkpt lat="52.02063" lon="5.16015">
        <ele>1</ele>
      </trkpt>
      <trkpt lat="52.01996" lon="5.16188">
        <ele>1</ele>
      </trkpt>
      <trkpt lat="52.0185" lon="5.1661">
        <ele>1</ele>
      </trkpt>
      <trkpt lat="52.01814" lon="5.1673">
        <ele>1</ele>
      </trkpt>
      <trkpt lat="52.01768" lon="5.16872">
        <ele>1</ele>
      </trkpt>
      <trkpt lat="52.01735" lon="5.16965">
        <ele>2</ele>
      </trkpt>
      <trkpt lat="52.01717" lon="5.17033">
        <ele>2</ele>
      </trkpt>
      <trkpt lat="52.01695" lon="5.17092">
        <ele>2</ele>
      </trkpt>
      <trkpt lat="52.0165" lon="5.17199">
        <ele>2</ele>
      </trkpt>
      <trkpt lat="52.01578" lon="5.17329">
        <ele>1</ele>
      </trkpt>
      <trkpt lat="52.01542" lon="5.17382">
        <ele>1</ele>
      </trkpt>
      <trkpt lat="52.01474" lon="5.17496">
        <ele>1</ele>
      </trkpt>
      <trkpt lat="52.01352" lon="5.17683">
        <ele>2</ele>
      </trkpt>
      <trkpt lat="52.0129" lon="5.17785">
        <ele>1</ele>
      </trkpt>
      <trkpt lat="52.01227" lon="5.17879">
        <ele>2</ele>
      </trkpt>
      <trkpt lat="52.01214" lon="5.17904">
        <ele>2</ele>
      </trkpt>
      <trkpt lat="52.01196" lon="5.17947">
        <ele>2</ele>
      </trkpt>
      <trkpt lat="52.01172" lon="5.18025">
        <ele>2</ele>
      </trkpt>
      <trkpt lat="52.01139" lon="5.18122">
        <ele>2</ele>
      </trkpt>
      <trkpt lat="52.01117" lon="5.18184">
        <ele>2</ele>
      </trkpt>
      <trkpt lat="52.01074" lon="5.18209">
        <ele>2</ele>
      </trkpt>
      <trkpt lat="52.01081" lon="5.18226">
        <ele>2</ele>
      </trkpt>
      <trkpt lat="52.01095" lon="5.183">
        <ele>3</ele>
      </trkpt>
      <trkpt lat="52.01099" lon="5.18333">
        <ele>3</ele>
      </trkpt>
      <trkpt lat="52.0113" lon="5.18493">
        <ele>2</ele>
      </trkpt>
      <trkpt lat="52.01137" lon="5.18534">
        <ele>2</ele>
      </trkpt>
      <trkpt lat="52.01086" lon="5.18558">
        <ele>3</ele>
      </trkpt>
      <trkpt lat="52.01019" lon="5.18593">
        <ele>2</ele>
      </trkpt>
      <trkpt lat="52.00982" lon="5.18613">
        <ele>2</ele>
      </trkpt>
      <trkpt lat="52.0096" lon="5.18629">
        <ele>2</ele>
      </trkpt>
      <trkpt lat="52.00944" lon="5.18658">
        <ele>2</ele>
      </trkpt>
      <trkpt lat="52.00924" lon="5.18688">
        <ele>2</ele>
      </trkpt>
      <trkpt lat="52.00895" lon="5.18719">
        <ele>2</ele>
      </trkpt>
      <trkpt lat="52.00864" lon="5.18746">
        <ele>2</ele>
      </trkpt>
      <trkpt lat="52.0084" lon="5.18758">
        <ele>2</ele>
      </trkpt>
      <trkpt lat="52.00807" lon="5.1877">
        <ele>2</ele>
      </trkpt>
      <trkpt lat="52.00775" lon="5.18777">
        <ele>2</ele>
      </trkpt>
      <trkpt lat="52.00753" lon="5.18777">
        <ele>2</ele>
      </trkpt>
      <trkpt lat="52.00742" lon="5.18777">
        <ele>2</ele>
      </trkpt>
      <trkpt lat="52.00685" lon="5.18768">
        <ele>2</ele>
      </trkpt>
      <trkpt lat="52.00391" lon="5.18703">
        <ele>4</ele>
      </trkpt>
      <trkpt lat="52.00375" lon="5.18704">
        <ele>3</ele>
      </trkpt>
      <trkpt lat="52.00333" lon="5.18713">
        <ele>3</ele>
      </trkpt>
      <trkpt lat="52.00252" lon="5.18756">
        <ele>2</ele>
      </trkpt>
      <trkpt lat="52.00207" lon="5.18775">
        <ele>2</ele>
      </trkpt>
      <trkpt lat="52.00041" lon="5.18858">
        <ele>2</ele>
      </trkpt>
      <trkpt lat="51.99978" lon="5.18886">
        <ele>2</ele>
      </trkpt>
      <trkpt lat="51.99777" lon="5.18984">
        <ele>1</ele>
      </trkpt>
      <trkpt lat="51.99662" lon="5.19043">
        <ele>0</ele>
      </trkpt>
      <trkpt lat="51.99278" lon="5.19181">
        <ele>1</ele>
      </trkpt>
      <trkpt lat="51.99263" lon="5.1919">
        <ele>1</ele>
      </trkpt>
      <trkpt lat="51.99253" lon="5.19199">
        <ele>1</ele>
      </trkpt>
      <trkpt lat="51.9924" lon="5.19222">
        <ele>1</ele>
      </trkpt>
      <trkpt lat="51.99234" lon="5.19227">
        <ele>1</ele>
      </trkpt>
      <trkpt lat="51.99229" lon="5.19228">
        <ele>1</ele>
      </trkpt>
      <trkpt lat="51.99215" lon="5.19197">
        <ele>1</ele>
      </trkpt>
      <trkpt lat="51.99214" lon="5.19183">
        <ele>1</ele>
      </trkpt>
      <trkpt lat="51.99216" lon="5.19174">
        <ele>1</ele>
      </trkpt>
      <trkpt lat="51.99238" lon="5.19107">
        <ele>1</ele>
      </trkpt>
      <trkpt lat="51.99377" lon="5.18658">
        <ele>1</ele>
      </trkpt>
      <trkpt lat="51.99614" lon="5.17848">
        <ele>1</ele>
      </trkpt>
      <trkpt lat="51.99625" lon="5.17827">
        <ele>1</ele>
      </trkpt>
      <trkpt lat="51.9964" lon="5.17808">
        <ele>1</ele>
      </trkpt>
      <trkpt lat="51.99636" lon="5.17799">
        <ele>1</ele>
      </trkpt>
      <trkpt lat="51.99636" lon="5.17784">
        <ele>1</ele>
      </trkpt>
      <trkpt lat="51.9964" lon="5.17777">
        <ele>1</ele>
      </trkpt>
      <trkpt lat="51.99648" lon="5.17772">
        <ele>1</ele>
      </trkpt>
      <trkpt lat="51.99647" lon="5.17759">
        <ele>1</ele>
      </trkpt>
      <trkpt lat="51.99643" lon="5.17748">
        <ele>1</ele>
      </trkpt>
      <trkpt lat="51.99673" lon="5.17646">
        <ele>2</ele>
      </trkpt>
      <trkpt lat="51.99703" lon="5.17552">
        <ele>1</ele>
      </trkpt>
      <trkpt lat="51.99716" lon="5.17516">
        <ele>1</ele>
      </trkpt>
      <trkpt lat="51.99764" lon="5.17402">
        <ele>1</ele>
      </trkpt>
      <trkpt lat="51.99871" lon="5.17132">
        <ele>1</ele>
      </trkpt>
      <trkpt lat="51.99957" lon="5.1692">
        <ele>0</ele>
      </trkpt>
      <trkpt lat="52" lon="5.16819">
        <ele>0</ele>
      </trkpt>
      <trkpt lat="52.00252" lon="5.16207">
        <ele>0</ele>
      </trkpt>
      <trkpt lat="52.00545" lon="5.15499">
        <ele>-1</ele>
      </trkpt>
      <trkpt lat="52.00336" lon="5.15173">
        <ele>0</ele>
      </trkpt>
      <trkpt lat="52.00074" lon="5.15125">
        <ele>0</ele>
      </trkpt>
      <trkpt lat="52.00011" lon="5.15031">
        <ele>1</ele>
      </trkpt>
      <trkpt lat="51.99951" lon="5.14937">
        <ele>1</ele>
      </trkpt>
      <trkpt lat="51.9987" lon="5.14818">
        <ele>2</ele>
      </trkpt>
      <trkpt lat="51.99865" lon="5.14816">
        <ele>2</ele>
      </trkpt>
      <trkpt lat="51.99832" lon="5.14815">
        <ele>2</ele>
      </trkpt>
      <trkpt lat="51.99825" lon="5.14814">
        <ele>2</ele>
      </trkpt>
      <trkpt lat="51.99775" lon="5.1474">
        <ele>3</ele>
      </trkpt>
      <trkpt lat="51.99729" lon="5.14927">
        <ele>2</ele>
      </trkpt>
      <trkpt lat="51.99711" lon="5.14988">
        <ele>2</ele>
      </trkpt>
      <trkpt lat="51.99641" lon="5.15173">
        <ele>1</ele>
      </trkpt>
      <trkpt lat="51.99578" lon="5.15349">
        <ele>0</ele>
      </trkpt>
      <trkpt lat="51.99494" lon="5.15559">
        <ele>1</ele>
      </trkpt>
      <trkpt lat="51.99421" lon="5.1573">
        <ele>0</ele>
      </trkpt>
      <trkpt lat="51.99349" lon="5.15891">
        <ele>0</ele>
      </trkpt>
      <trkpt lat="51.99331" lon="5.15923">
        <ele>0</ele>
      </trkpt>
      <trkpt lat="51.99242" lon="5.16033">
        <ele>0</ele>
      </trkpt>
      <trkpt lat="51.99223" lon="5.16058">
        <ele>0</ele>
      </trkpt>
      <trkpt lat="51.99161" lon="5.1615">
        <ele>0</ele>
      </trkpt>
      <trkpt lat="51.99146" lon="5.16178">
        <ele>0</ele>
      </trkpt>
      <trkpt lat="51.9914" lon="5.16183">
        <ele>0</ele>
      </trkpt>
      <trkpt lat="51.99133" lon="5.16179">
        <ele>0</ele>
      </trkpt>
      <trkpt lat="51.99128" lon="5.16174">
        <ele>0</ele>
      </trkpt>
      <trkpt lat="51.99129" lon="5.16179">
        <ele>0</ele>
      </trkpt>
      <trkpt lat="51.99116" lon="5.1619">
        <ele>0</ele>
      </trkpt>
      <trkpt lat="51.99099" lon="5.16212">
        <ele>0</ele>
      </trkpt>
      <trkpt lat="51.99082" lon="5.1624">
        <ele>0</ele>
      </trkpt>
      <trkpt lat="51.99028" lon="5.16351">
        <ele>1</ele>
      </trkpt>
      <trkpt lat="51.98969" lon="5.16476">
        <ele>1</ele>
      </trkpt>
      <trkpt lat="51.9894" lon="5.16523">
        <ele>1</ele>
      </trkpt>
      <trkpt lat="51.98908" lon="5.16465">
        <ele>2</ele>
      </trkpt>
      <trkpt lat="51.98899" lon="5.16447">
        <ele>1</ele>
      </trkpt>
      <trkpt lat="51.98844" lon="5.16365">
        <ele>1</ele>
      </trkpt>
      <trkpt lat="51.98808" lon="5.16305">
        <ele>2</ele>
      </trkpt>
      <trkpt lat="51.98788" lon="5.16268">
        <ele>2</ele>
      </trkpt>
      <trkpt lat="51.98776" lon="5.16242">
        <ele>2</ele>
      </trkpt>
      <trkpt lat="51.9868" lon="5.1601">
        <ele>2</ele>
      </trkpt>
      <trkpt lat="51.98624" lon="5.15869">
        <ele>2</ele>
      </trkpt>
      <trkpt lat="51.98544" lon="5.15852">
        <ele>2</ele>
      </trkpt>
      <trkpt lat="51.98504" lon="5.15859">
        <ele>2</ele>
      </trkpt>
      <trkpt lat="51.9849" lon="5.15872">
        <ele>2</ele>
      </trkpt>
      <trkpt lat="51.98483" lon="5.15888">
        <ele>2</ele>
      </trkpt>
      <trkpt lat="51.98475" lon="5.15959">
        <ele>2</ele>
      </trkpt>
      <trkpt lat="51.97997" lon="5.15901">
        <ele>2</ele>
      </trkpt>
      <trkpt lat="51.97961" lon="5.15877">
        <ele>2</ele>
      </trkpt>
      <trkpt lat="51.97941" lon="5.15872">
        <ele>2</ele>
      </trkpt>
      <trkpt lat="51.97924" lon="5.15871">
        <ele>3</ele>
      </trkpt>
      <trkpt lat="51.97843" lon="5.15879">
        <ele>2</ele>
      </trkpt>
      <trkpt lat="51.977" lon="5.15868">
        <ele>2</ele>
      </trkpt>
      <trkpt lat="51.97668" lon="5.15859">
        <ele>2</ele>
      </trkpt>
      <trkpt lat="51.97582" lon="5.15799">
        <ele>4</ele>
      </trkpt>
      <trkpt lat="51.97583" lon="5.15665">
        <ele>3</ele>
      </trkpt>
      <trkpt lat="51.97597" lon="5.15618">
        <ele>3</ele>
      </trkpt>
      <trkpt lat="51.97597" lon="5.15583">
        <ele>3</ele>
      </trkpt>
      <trkpt lat="51.97595" lon="5.15568">
        <ele>3</ele>
      </trkpt>
      <trkpt lat="51.97591" lon="5.15555">
        <ele>3</ele>
      </trkpt>
      <trkpt lat="51.97565" lon="5.15489">
        <ele>3</ele>
      </trkpt>
      <trkpt lat="51.97553" lon="5.15455">
        <ele>3</ele>
      </trkpt>
      <trkpt lat="51.97559" lon="5.1543">
        <ele>3</ele>
      </trkpt>
      <trkpt lat="51.97568" lon="5.15407">
        <ele>3</ele>
      </trkpt>
      <trkpt lat="51.97581" lon="5.15393">
        <ele>3</ele>
      </trkpt>
      <trkpt lat="51.97591" lon="5.15385">
        <ele>3</ele>
      </trkpt>
      <trkpt lat="51.97697" lon="5.1534">
        <ele>2</ele>
      </trkpt>
      <trkpt lat="51.97848" lon="5.15286">
        <ele>3</ele>
      </trkpt>
      <trkpt lat="51.97886" lon="5.15276">
        <ele>4</ele>
      </trkpt>
      <trkpt lat="51.9792" lon="5.15275">
        <ele>4</ele>
      </trkpt>
      <trkpt lat="51.97959" lon="5.15277">
        <ele>4</ele>
      </trkpt>
      <trkpt lat="51.97994" lon="5.15287">
        <ele>3</ele>
      </trkpt>
      <trkpt lat="51.98038" lon="5.15319">
        <ele>3</ele>
      </trkpt>
      <trkpt lat="51.98049" lon="5.15323">
        <ele>3</ele>
      </trkpt>
      <trkpt lat="51.98059" lon="5.15323">
        <ele>3</ele>
      </trkpt>
      <trkpt lat="51.98069" lon="5.15317">
        <ele>3</ele>
      </trkpt>
      <trkpt lat="51.98074" lon="5.15308">
        <ele>3</ele>
      </trkpt>
      <trkpt lat="51.98088" lon="5.15275">
        <ele>3</ele>
      </trkpt>
      <trkpt lat="51.98103" lon="5.15253">
        <ele>3</ele>
      </trkpt>
      <trkpt lat="51.9812" lon="5.1524">
        <ele>3</ele>
      </trkpt>
      <trkpt lat="51.98325" lon="5.15151">
        <ele>2</ele>
      </trkpt>
      <trkpt lat="51.98341" lon="5.15151">
        <ele>2</ele>
      </trkpt>
      <trkpt lat="51.98354" lon="5.15159">
        <ele>2</ele>
      </trkpt>
      <trkpt lat="51.98386" lon="5.152">
        <ele>2</ele>
      </trkpt>
      <trkpt lat="51.9841" lon="5.15221">
        <ele>2</ele>
      </trkpt>
      <trkpt lat="51.98427" lon="5.15226">
        <ele>2</ele>
      </trkpt>
      <trkpt lat="51.98446" lon="5.15229">
        <ele>3</ele>
      </trkpt>
      <trkpt lat="51.98468" lon="5.1523">
        <ele>3</ele>
      </trkpt>
      <trkpt lat="51.98485" lon="5.15227">
        <ele>3</ele>
      </trkpt>
      <trkpt lat="51.98512" lon="5.1522">
        <ele>3</ele>
      </trkpt>
      <trkpt lat="51.98559" lon="5.15203">
        <ele>2</ele>
      </trkpt>
      <trkpt lat="51.98601" lon="5.15184">
        <ele>3</ele>
      </trkpt>
      <trkpt lat="51.98752" lon="5.15108">
        <ele>3</ele>
      </trkpt>
      <trkpt lat="51.98927" lon="5.15028">
        <ele>2</ele>
      </trkpt>
      <trkpt lat="51.98943" lon="5.15027">
        <ele>2</ele>
      </trkpt>
      <trkpt lat="51.98969" lon="5.15047">
        <ele>2</ele>
      </trkpt>
      <trkpt lat="51.98985" lon="5.15049">
        <ele>1</ele>
      </trkpt>
      <trkpt lat="51.98995" lon="5.15046">
        <ele>1</ele>
      </trkpt>
      <trkpt lat="51.99062" lon="5.15005">
        <ele>1</ele>
      </trkpt>
      <trkpt lat="51.99083" lon="5.14983">
        <ele>1</ele>
      </trkpt>
      <trkpt lat="51.99097" lon="5.14954">
        <ele>1</ele>
      </trkpt>
      <trkpt lat="51.99116" lon="5.14876">
        <ele>1</ele>
      </trkpt>
      <trkpt lat="51.99127" lon="5.14855">
        <ele>1</ele>
      </trkpt>
      <trkpt lat="51.99137" lon="5.14847">
        <ele>1</ele>
      </trkpt>
      <trkpt lat="51.99148" lon="5.14843">
        <ele>1</ele>
      </trkpt>
      <trkpt lat="51.9916" lon="5.14843">
        <ele>1</ele>
      </trkpt>
      <trkpt lat="51.99182" lon="5.14849">
        <ele>1</ele>
      </trkpt>
      <trkpt lat="51.99197" lon="5.14847">
        <ele>1</ele>
      </trkpt>
      <trkpt lat="51.99242" lon="5.14784">
        <ele>2</ele>
      </trkpt>
      <trkpt lat="51.99258" lon="5.14776">
        <ele>2</ele>
      </trkpt>
      <trkpt lat="51.99274" lon="5.14777">
        <ele>2</ele>
      </trkpt>
      <trkpt lat="51.99281" lon="5.1474">
        <ele>2</ele>
      </trkpt>
      <trkpt lat="51.9934" lon="5.14628">
        <ele>3</ele>
      </trkpt>
      <trkpt lat="51.99383" lon="5.14531">
        <ele>4</ele>
      </trkpt>
      <trkpt lat="51.99418" lon="5.14456">
        <ele>4</ele>
      </trkpt>
      <trkpt lat="51.99445" lon="5.14416">
        <ele>4</ele>
      </trkpt>
      <trkpt lat="51.9946" lon="5.14397">
        <ele>4</ele>
      </trkpt>
      <trkpt lat="51.99511" lon="5.14349">
        <ele>4</ele>
      </trkpt>
      <trkpt lat="51.99555" lon="5.14291">
        <ele>4</ele>
      </trkpt>
      <trkpt lat="51.99578" lon="5.14246">
        <ele>3</ele>
      </trkpt>
      <trkpt lat="51.99632" lon="5.14132">
        <ele>2</ele>
      </trkpt>
      <trkpt lat="51.99674" lon="5.14018">
        <ele>2</ele>
      </trkpt>
      <trkpt lat="51.99717" lon="5.13937">
        <ele>2</ele>
      </trkpt>
      <trkpt lat="51.99728" lon="5.13896">
        <ele>3</ele>
      </trkpt>
      <trkpt lat="51.99736" lon="5.13826">
        <ele>4</ele>
      </trkpt>
      <trkpt lat="51.99744" lon="5.13795">
        <ele>5</ele>
      </trkpt>
      <trkpt lat="51.99754" lon="5.13765">
        <ele>4</ele>
      </trkpt>
      <trkpt lat="51.99782" lon="5.13703">
        <ele>4</ele>
      </trkpt>
      <trkpt lat="51.99801" lon="5.13644">
        <ele>3</ele>
      </trkpt>
      <trkpt lat="51.9981" lon="5.13603">
        <ele>3</ele>
      </trkpt>
      <trkpt lat="51.99815" lon="5.13562">
        <ele>3</ele>
      </trkpt>
      <trkpt lat="51.99815" lon="5.13451">
        <ele>3</ele>
      </trkpt>
      <trkpt lat="51.99819" lon="5.13426">
        <ele>3</ele>
      </trkpt>
      <trkpt lat="51.99824" lon="5.13406">
        <ele>3</ele>
      </trkpt>
      <trkpt lat="51.9984" lon="5.13348">
        <ele>2</ele>
      </trkpt>
      <trkpt lat="51.99849" lon="5.1332">
        <ele>2</ele>
      </trkpt>
      <trkpt lat="51.99879" lon="5.13248">
        <ele>2</ele>
      </trkpt>
      <trkpt lat="51.99897" lon="5.13194">
        <ele>2</ele>
      </trkpt>
      <trkpt lat="51.99915" lon="5.13112">
        <ele>2</ele>
      </trkpt>
      <trkpt lat="51.99919" lon="5.13019">
        <ele>2</ele>
      </trkpt>
      <trkpt lat="51.99924" lon="5.12975">
        <ele>2</ele>
      </trkpt>
      <trkpt lat="51.99943" lon="5.129">
        <ele>2</ele>
      </trkpt>
      <trkpt lat="51.99965" lon="5.12834">
        <ele>2</ele>
      </trkpt>
      <trkpt lat="51.99975" lon="5.12808">
        <ele>3</ele>
      </trkpt>
      <trkpt lat="52" lon="5.12749">
        <ele>3</ele>
      </trkpt>
      <trkpt lat="52.00046" lon="5.12663">
        <ele>3</ele>
      </trkpt>
      <trkpt lat="52.00099" lon="5.12576">
        <ele>2</ele>
      </trkpt>
      <trkpt lat="52.00131" lon="5.1253">
        <ele>2</ele>
      </trkpt>
      <trkpt lat="52.00238" lon="5.12362">
        <ele>3</ele>
      </trkpt>
      <trkpt lat="52.00273" lon="5.12298">
        <ele>2</ele>
      </trkpt>
      <trkpt lat="52.00296" lon="5.12242">
        <ele>1</ele>
      </trkpt>
      <trkpt lat="52.00311" lon="5.1219">
        <ele>1</ele>
      </trkpt>
      <trkpt lat="52.00319" lon="5.12161">
        <ele>1</ele>
      </trkpt>
      <trkpt lat="52.00333" lon="5.12068">
        <ele>2</ele>
      </trkpt>
      <trkpt lat="52.00353" lon="5.12024">
        <ele>2</ele>
      </trkpt>
      <trkpt lat="52.00365" lon="5.12007">
        <ele>2</ele>
      </trkpt>
      <trkpt lat="52.00379" lon="5.11973">
        <ele>3</ele>
      </trkpt>
      <trkpt lat="52.00402" lon="5.11896">
        <ele>3</ele>
      </trkpt>
      <trkpt lat="52.00445" lon="5.11727">
        <ele>5</ele>
      </trkpt>
      <trkpt lat="52.00445" lon="5.11704">
        <ele>5</ele>
      </trkpt>
      <trkpt lat="52.00438" lon="5.11685">
        <ele>5</ele>
      </trkpt>
      <trkpt lat="52.00356" lon="5.11603">
        <ele>5</ele>
      </trkpt>
      <trkpt lat="52.00349" lon="5.11575">
        <ele>4</ele>
      </trkpt>
      <trkpt lat="52.0035" lon="5.11541">
        <ele>4</ele>
      </trkpt>
      <trkpt lat="52.00356" lon="5.11501">
        <ele>3</ele>
      </trkpt>
      <trkpt lat="52.00361" lon="5.11479">
        <ele>4</ele>
      </trkpt>
      <trkpt lat="52.00365" lon="5.11469">
        <ele>4</ele>
      </trkpt>
      <trkpt lat="52.00375" lon="5.11457">
        <ele>5</ele>
      </trkpt>
      <trkpt lat="52.00385" lon="5.11454">
        <ele>6</ele>
      </trkpt>
      <trkpt lat="52.00471" lon="5.11452">
        <ele>6</ele>
      </trkpt>
      <trkpt lat="52.00479" lon="5.11444">
        <ele>6</ele>
      </trkpt>
      <trkpt lat="52.00484" lon="5.11434">
        <ele>6</ele>
      </trkpt>
      <trkpt lat="52.00522" lon="5.11044">
        <ele>2</ele>
      </trkpt>
      <trkpt lat="52.00529" lon="5.10953">
        <ele>3</ele>
      </trkpt>
      <trkpt lat="52.00536" lon="5.10927">
        <ele>2</ele>
      </trkpt>
      <trkpt lat="52.00571" lon="5.10895">
        <ele>2</ele>
      </trkpt>
      <trkpt lat="52.00582" lon="5.10889">
        <ele>2</ele>
      </trkpt>
      <trkpt lat="52.00587" lon="5.10887">
        <ele>2</ele>
      </trkpt>
      <trkpt lat="52.00607" lon="5.1089">
        <ele>2</ele>
      </trkpt>
      <trkpt lat="52.00906" lon="5.11029">
        <ele>0</ele>
      </trkpt>
      <trkpt lat="52.01024" lon="5.11082">
        <ele>0</ele>
      </trkpt>
      <trkpt lat="52.01064" lon="5.11094">
        <ele>0</ele>
      </trkpt>
      <trkpt lat="52.01116" lon="5.111">
        <ele>0</ele>
      </trkpt>
      <trkpt lat="52.01213" lon="5.11094">
        <ele>0</ele>
      </trkpt>
      <trkpt lat="52.0123" lon="5.11095">
        <ele>0</ele>
      </trkpt>
      <trkpt lat="52.01251" lon="5.111">
        <ele>0</ele>
      </trkpt>
      <trkpt lat="52.01381" lon="5.11163">
        <ele>1</ele>
      </trkpt>
      <trkpt lat="52.01386" lon="5.11172">
        <ele>1</ele>
      </trkpt>
      <trkpt lat="52.01402" lon="5.11171">
        <ele>1</ele>
      </trkpt>
      <trkpt lat="52.01491" lon="5.11217">
        <ele>2</ele>
      </trkpt>
      <trkpt lat="52.01876" lon="5.11393">
        <ele>1</ele>
      </trkpt>
      <trkpt lat="52.01927" lon="5.11414">
        <ele>1</ele>
      </trkpt>
      <trkpt lat="52.02059" lon="5.11452">
        <ele>0</ele>
      </trkpt>
      <trkpt lat="52.0249" lon="5.11569">
        <ele>1</ele>
      </trkpt>
      <trkpt lat="52.02573" lon="5.11583">
        <ele>2</ele>
      </trkpt>
      <trkpt lat="52.02639" lon="5.11592">
        <ele>2</ele>
      </trkpt>
      <trkpt lat="52.02763" lon="5.11598">
        <ele>2</ele>
      </trkpt>
      <trkpt lat="52.02835" lon="5.11588">
        <ele>1</ele>
      </trkpt>
      <trkpt lat="52.02943" lon="5.11566">
        <ele>2</ele>
      </trkpt>
      <trkpt lat="52.0305" lon="5.1154">
        <ele>2</ele>
      </trkpt>
      <trkpt lat="52.03095" lon="5.11524">
        <ele>2</ele>
      </trkpt>
      <trkpt lat="52.03109" lon="5.11507">
        <ele>2</ele>
      </trkpt>
      <trkpt lat="52.03128" lon="5.11477">
        <ele>5</ele>
      </trkpt>
      <trkpt lat="52.03165" lon="5.11463">
        <ele>5</ele>
      </trkpt>
      <trkpt lat="52.03365" lon="5.11376">
        <ele>7</ele>
      </trkpt>
      <trkpt lat="52.03424" lon="5.11368">
        <ele>5</ele>
      </trkpt>
      <trkpt lat="52.03429" lon="5.11371">
        <ele>5</ele>
      </trkpt>
      <trkpt lat="52.03438" lon="5.11395">
        <ele>5</ele>
      </trkpt>
      <trkpt lat="52.03418" lon="5.11426">
        <ele>4</ele>
      </trkpt>
      <trkpt lat="52.03413" lon="5.11426">
        <ele>5</ele>
      </trkpt>
      <trkpt lat="52.03396" lon="5.11438">
        <ele>5</ele>
      </trkpt>
      <trkpt lat="52.0338" lon="5.11458">
        <ele>5</ele>
      </trkpt>
      <trkpt lat="52.03342" lon="5.11515">
        <ele>5</ele>
      </trkpt>
      <trkpt lat="52.03337" lon="5.11519">
        <ele>5</ele>
      </trkpt>
      <trkpt lat="52.03351" lon="5.11483">
        <ele>6</ele>
      </trkpt>
      <trkpt lat="52.03361" lon="5.11463">
        <ele>6</ele>
      </trkpt>
      <trkpt lat="52.03383" lon="5.1143">
        <ele>5</ele>
      </trkpt>
      <trkpt lat="52.03442" lon="5.11376">
        <ele>5</ele>
      </trkpt>
      <trkpt lat="52.03642" lon="5.11775">
        <ele>1</ele>
      </trkpt>
      <trkpt lat="52.0366" lon="5.11786">
        <ele>1</ele>
      </trkpt>
      <trkpt lat="52.03722" lon="5.11816">
        <ele>2</ele>
      </trkpt>
      <trkpt lat="52.03727" lon="5.11822">
        <ele>2</ele>
      </trkpt>
      <trkpt lat="52.03729" lon="5.11832">
        <ele>2</ele>
      </trkpt>
      <trkpt lat="52.03726" lon="5.11841">
        <ele>1</ele>
      </trkpt>
      <trkpt lat="52.03721" lon="5.11844">
        <ele>1</ele>
      </trkpt>
      <trkpt lat="52.03716" lon="5.11844">
        <ele>1</ele>
      </trkpt>
      <trkpt lat="52.03637" lon="5.11806">
        <ele>1</ele>
      </trkpt>
      <trkpt lat="52.0362" lon="5.11778">
        <ele>1</ele>
      </trkpt>
      <trkpt lat="52.03617" lon="5.11775">
        <ele>0</ele>
      </trkpt>
      <trkpt lat="52.03614" lon="5.11775">
        <ele>0</ele>
      </trkpt>
      <trkpt lat="52.03606" lon="5.11783">
        <ele>0</ele>
      </trkpt>
      <trkpt lat="52.03622" lon="5.11816">
        <ele>1</ele>
      </trkpt>
      <trkpt lat="52.0363" lon="5.11825">
        <ele>1</ele>
      </trkpt>
      <trkpt lat="52.03692" lon="5.11863">
        <ele>1</ele>
      </trkpt>
      <trkpt lat="52.03733" lon="5.11891">
        <ele>1</ele>
      </trkpt>
      <trkpt lat="52.03809" lon="5.11923">
        <ele>0</ele>
      </trkpt>
      <trkpt lat="52.03802" lon="5.11763">
        <ele>2</ele>
      </trkpt>
      <trkpt lat="52.03799" lon="5.11575">
        <ele>3</ele>
      </trkpt>
      <trkpt lat="52.038" lon="5.11562">
        <ele>2</ele>
      </trkpt>
      <trkpt lat="52.03812" lon="5.11525">
        <ele>2</ele>
      </trkpt>
      <trkpt lat="52.03831" lon="5.11484">
        <ele>2</ele>
      </trkpt>
      <trkpt lat="52.03856" lon="5.11446">
        <ele>2</ele>
      </trkpt>
      <trkpt lat="52.03947" lon="5.11341">
        <ele>2</ele>
      </trkpt>
      <trkpt lat="52.04034" lon="5.11247">
        <ele>1</ele>
      </trkpt>
      <trkpt lat="52.04091" lon="5.11194">
        <ele>1</ele>
      </trkpt>
      <trkpt lat="52.04138" lon="5.11151">
        <ele>1</ele>
      </trkpt>
      <trkpt lat="52.04235" lon="5.11073">
        <ele>3</ele>
      </trkpt>
      <trkpt lat="52.04296" lon="5.11029">
        <ele>4</ele>
      </trkpt>
      <trkpt lat="52.04353" lon="5.11001">
        <ele>4</ele>
      </trkpt>
      <trkpt lat="52.04364" lon="5.11002">
        <ele>4</ele>
      </trkpt>
      <trkpt lat="52.04368" lon="5.11008">
        <ele>5</ele>
      </trkpt>
      <trkpt lat="52.0441" lon="5.11267">
        <ele>5</ele>
      </trkpt>
      <trkpt lat="52.0441" lon="5.11287">
        <ele>5</ele>
      </trkpt>
      <trkpt lat="52.04405" lon="5.11295">
        <ele>6</ele>
      </trkpt>
      <trkpt lat="52.04385" lon="5.11311">
        <ele>5</ele>
      </trkpt>
      <trkpt lat="52.0444" lon="5.11507">
        <ele>2</ele>
      </trkpt>
      <trkpt lat="52.04451" lon="5.11536">
        <ele>2</ele>
      </trkpt>
      <trkpt lat="52.04468" lon="5.11579">
        <ele>2</ele>
      </trkpt>
      <trkpt lat="52.0448" lon="5.11602">
        <ele>2</ele>
      </trkpt>
      <trkpt lat="52.045" lon="5.11633">
        <ele>2</ele>
      </trkpt>
      <trkpt lat="52.04523" lon="5.1166">
        <ele>2</ele>
      </trkpt>
      <trkpt lat="52.04541" lon="5.11679">
        <ele>3</ele>
      </trkpt>
      <trkpt lat="52.04577" lon="5.11706">
        <ele>4</ele>
      </trkpt>
      <trkpt lat="52.04672" lon="5.11752">
        <ele>3</ele>
      </trkpt>
      <trkpt lat="52.04682" lon="5.11746">
        <ele>3</ele>
      </trkpt>
      <trkpt lat="52.04735" lon="5.11735">
        <ele>2</ele>
      </trkpt>
      <trkpt lat="52.04747" lon="5.11742">
        <ele>2</ele>
      </trkpt>
      <trkpt lat="52.04751" lon="5.11747">
        <ele>2</ele>
      </trkpt>
      <trkpt lat="52.04755" lon="5.11756">
        <ele>2</ele>
      </trkpt>
      <trkpt lat="52.04757" lon="5.11767">
        <ele>2</ele>
      </trkpt>
      <trkpt lat="52.04756" lon="5.11783">
        <ele>2</ele>
      </trkpt>
      <trkpt lat="52.0474" lon="5.11877">
        <ele>2</ele>
      </trkpt>
      <trkpt lat="52.04736" lon="5.11892">
        <ele>2</ele>
      </trkpt>
      <trkpt lat="52.04723" lon="5.11926">
        <ele>3</ele>
      </trkpt>
      <trkpt lat="52.04706" lon="5.11956">
        <ele>3</ele>
      </trkpt>
      <trkpt lat="52.04689" lon="5.11976">
        <ele>3</ele>
      </trkpt>
      <trkpt lat="52.04639" lon="5.12059">
        <ele>3</ele>
      </trkpt>
      <trkpt lat="52.04618" lon="5.12126">
        <ele>3</ele>
      </trkpt>
      <trkpt lat="52.04641" lon="5.12134">
        <ele>3</ele>
      </trkpt>
      <trkpt lat="52.04837" lon="5.1215">
        <ele>4</ele>
      </trkpt>
      <trkpt lat="52.04877" lon="5.12156">
        <ele>5</ele>
      </trkpt>
      <trkpt lat="52.0489" lon="5.12162">
        <ele>5</ele>
      </trkpt>
      <trkpt lat="52.04922" lon="5.12169">
        <ele>5</ele>
      </trkpt>
      <trkpt lat="52.0497" lon="5.12172">
        <ele>5</ele>
      </trkpt>
      <trkpt lat="52.04971" lon="5.12186">
        <ele>5</ele>
      </trkpt>
      <trkpt lat="52.04968" lon="5.12462">
        <ele>4</ele>
      </trkpt>
      <trkpt lat="52.04975" lon="5.12464">
        <ele>4</ele>
      </trkpt>
      <trkpt lat="52.05083" lon="5.1248">
        <ele>2</ele>
      </trkpt>
      <trkpt lat="52.05434" lon="5.12693">
        <ele>2</ele>
      </trkpt>
      <trkpt lat="52.05448" lon="5.12704">
        <ele>2</ele>
      </trkpt>
      <trkpt lat="52.05452" lon="5.12715">
        <ele>3</ele>
      </trkpt>
      <trkpt lat="52.05456" lon="5.12733">
        <ele>3</ele>
      </trkpt>
      <trkpt lat="52.05457" lon="5.12767">
        <ele>4</ele>
      </trkpt>
      <trkpt lat="52.05443" lon="5.12934">
        <ele>4</ele>
      </trkpt>
      <trkpt lat="52.05423" lon="5.1312">
        <ele>3</ele>
      </trkpt>
      <trkpt lat="52.05419" lon="5.13174">
        <ele>3</ele>
      </trkpt>
      <trkpt lat="52.05433" lon="5.13174">
        <ele>3</ele>
      </trkpt>
      <trkpt lat="52.05504" lon="5.13189">
        <ele>4</ele>
      </trkpt>
      <trkpt lat="52.05576" lon="5.13205">
        <ele>6</ele>
      </trkpt>
      <trkpt lat="52.05591" lon="5.13223">
        <ele>5</ele>
      </trkpt>
      <trkpt lat="52.05605" lon="5.1325">
        <ele>5</ele>
      </trkpt>
      <trkpt lat="52.05611" lon="5.13258">
        <ele>5</ele>
      </trkpt>
      <trkpt lat="52.05619" lon="5.13264">
        <ele>5</ele>
      </trkpt>
      <trkpt lat="52.05627" lon="5.13267">
        <ele>5</ele>
      </trkpt>
      <trkpt lat="52.05647" lon="5.13267">
        <ele>5</ele>
      </trkpt>
      <trkpt lat="52.05655" lon="5.13265">
        <ele>5</ele>
      </trkpt>
      <trkpt lat="52.05668" lon="5.13254">
        <ele>5</ele>
      </trkpt>
      <trkpt lat="52.05674" lon="5.13245">
        <ele>5</ele>
      </trkpt>
      <trkpt lat="52.05684" lon="5.13219">
        <ele>5</ele>
      </trkpt>
      <trkpt lat="52.0569" lon="5.13191">
        <ele>5</ele>
      </trkpt>
      <trkpt lat="52.0569" lon="5.13178">
        <ele>5</ele>
      </trkpt>
      <trkpt lat="52.05718" lon="5.13143">
        <ele>4</ele>
      </trkpt>
      <trkpt lat="52.05721" lon="5.13126">
        <ele>4</ele>
      </trkpt>
      <trkpt lat="52.0574" lon="5.1294">
        <ele>4</ele>
      </trkpt>
      <trkpt lat="52.05746" lon="5.1293">
        <ele>4</ele>
      </trkpt>
      <trkpt lat="52.05827" lon="5.12884">
        <ele>4</ele>
      </trkpt>
      <trkpt lat="52.05831" lon="5.12877">
        <ele>4</ele>
      </trkpt>
      <trkpt lat="52.05834" lon="5.12859">
        <ele>4</ele>
      </trkpt>
      <trkpt lat="52.05837" lon="5.12854">
        <ele>4</ele>
      </trkpt>
      <trkpt lat="52.05843" lon="5.12854">
        <ele>4</ele>
      </trkpt>
      <trkpt lat="52.05934" lon="5.12894">
        <ele>4</ele>
      </trkpt>
      <trkpt lat="52.05945" lon="5.12897">
        <ele>4</ele>
      </trkpt>
      <trkpt lat="52.05973" lon="5.12898">
        <ele>4</ele>
      </trkpt>
      <trkpt lat="52.05999" lon="5.12905">
        <ele>4</ele>
      </trkpt>
      <trkpt lat="52.06453" lon="5.131">
        <ele>4</ele>
      </trkpt>
      <trkpt lat="52.06469" lon="5.13112">
        <ele>4</ele>
      </trkpt>
      <trkpt lat="52.06526" lon="5.13182">
        <ele>5</ele>
      </trkpt>
      <trkpt lat="52.06539" lon="5.13196">
        <ele>4</ele>
      </trkpt>
      <trkpt lat="52.06564" lon="5.13217">
        <ele>4</ele>
      </trkpt>
      <trkpt lat="52.06579" lon="5.13225">
        <ele>4</ele>
      </trkpt>
      <trkpt lat="52.06647" lon="5.13245">
        <ele>3</ele>
      </trkpt>
      <trkpt lat="52.06656" lon="5.13193">
        <ele>3</ele>
      </trkpt>
      <trkpt lat="52.06688" lon="5.13205">
        <ele>3</ele>
      </trkpt>
      <trkpt lat="52.067" lon="5.13212">
        <ele>3</ele>
      </trkpt>
      <trkpt lat="52.06717" lon="5.13215">
        <ele>2</ele>
      </trkpt>
      <trkpt lat="52.06731" lon="5.13212">
        <ele>2</ele>
      </trkpt>
      <trkpt lat="52.06739" lon="5.13207">
        <ele>2</ele>
      </trkpt>
      <trkpt lat="52.06776" lon="5.13174">
        <ele>2</ele>
      </trkpt>
      <trkpt lat="52.06787" lon="5.13167">
        <ele>3</ele>
      </trkpt>
      <trkpt lat="52.06794" lon="5.13166">
        <ele>3</ele>
      </trkpt>
      <trkpt lat="52.06802" lon="5.13168">
        <ele>3</ele>
      </trkpt>
      <trkpt lat="52.06808" lon="5.13173">
        <ele>3</ele>
      </trkpt>
      <trkpt lat="52.06819" lon="5.13187">
        <ele>3</ele>
      </trkpt>
      <trkpt lat="52.06885" lon="5.13276">
        <ele>4</ele>
      </trkpt>
      <trkpt lat="52.06894" lon="5.1329">
        <ele>4</ele>
      </trkpt>
      <trkpt lat="52.06936" lon="5.13324">
        <ele>5</ele>
      </trkpt>
      <trkpt lat="52.06963" lon="5.13339">
        <ele>5</ele>
      </trkpt>
      <trkpt lat="52.06974" lon="5.13342">
        <ele>5</ele>
      </trkpt>
      <trkpt lat="52.07004" lon="5.13339">
        <ele>5</ele>
      </trkpt>
      <trkpt lat="52.07016" lon="5.13342">
        <ele>5</ele>
      </trkpt>
      <trkpt lat="52.07063" lon="5.1337">
        <ele>5</ele>
      </trkpt>
      <trkpt lat="52.07067" lon="5.13362">
        <ele>5</ele>
      </trkpt>
      <trkpt lat="52.07074" lon="5.13354">
        <ele>5</ele>
      </trkpt>
      <trkpt lat="52.07082" lon="5.13349">
        <ele>5</ele>
      </trkpt>
      <trkpt lat="52.07089" lon="5.13348">
        <ele>5</ele>
      </trkpt>
      <trkpt lat="52.07107" lon="5.13349">
        <ele>5</ele>
      </trkpt>
      <trkpt lat="52.07124" lon="5.13361">
        <ele>6</ele>
      </trkpt>
      <trkpt lat="52.07131" lon="5.1337">
        <ele>6</ele>
      </trkpt>
      <trkpt lat="52.0714" lon="5.13387">
        <ele>6</ele>
      </trkpt>
      <trkpt lat="52.07173" lon="5.13455">
        <ele>6</ele>
      </trkpt>
      <trkpt lat="52.07208" lon="5.13556">
        <ele>6</ele>
      </trkpt>
      <trkpt lat="52.07214" lon="5.13567">
        <ele>6</ele>
      </trkpt>
      <trkpt lat="52.07225" lon="5.1358">
        <ele>6</ele>
      </trkpt>
      <trkpt lat="52.07235" lon="5.13583">
        <ele>6</ele>
      </trkpt>
      <trkpt lat="52.07242" lon="5.13582">
        <ele>6</ele>
      </trkpt>
      <trkpt lat="52.07262" lon="5.13572">
        <ele>5</ele>
      </trkpt>
      <trkpt lat="52.07333" lon="5.13728">
        <ele>5</ele>
      </trkpt>
      <trkpt lat="52.07366" lon="5.13791">
        <ele>6</ele>
      </trkpt>
      <trkpt lat="52.07395" lon="5.13837">
        <ele>6</ele>
      </trkpt>
      <trkpt lat="52.07433" lon="5.13883">
        <ele>5</ele>
      </trkpt>
      <trkpt lat="52.0747" lon="5.13916">
        <ele>5</ele>
      </trkpt>
      <trkpt lat="52.07485" lon="5.13927">
        <ele>4</ele>
      </trkpt>
      <trkpt lat="52.07533" lon="5.13948">
        <ele>5</ele>
      </trkpt>
      <trkpt lat="52.07543" lon="5.13916">
        <ele>5</ele>
      </trkpt>
      <trkpt lat="52.07554" lon="5.13909">
        <ele>5</ele>
      </trkpt>
      <trkpt lat="52.07696" lon="5.13397">
        <ele>5</ele>
      </trkpt>
      <trkpt lat="52.0772" lon="5.13334">
        <ele>5</ele>
      </trkpt>
      <trkpt lat="52.07811" lon="5.1306">
        <ele>6</ele>
      </trkpt>
      <trkpt lat="52.07862" lon="5.12899">
        <ele>6</ele>
      </trkpt>
      <trkpt lat="52.07896" lon="5.12801">
        <ele>4</ele>
      </trkpt>
      <trkpt lat="52.07899" lon="5.12781">
        <ele>4</ele>
      </trkpt>
      <trkpt lat="52.07917" lon="5.12738">
        <ele>4</ele>
      </trkpt>
      <trkpt lat="52.07991" lon="5.12623">
        <ele>4</ele>
      </trkpt>
      <trkpt lat="52.07998" lon="5.12634">
        <ele>4</ele>
      </trkpt>
      <trkpt lat="52.08003" lon="5.12632">
        <ele>4</ele>
      </trkpt>
      <trkpt lat="52.08017" lon="5.1264">
        <ele>4</ele>
      </trkpt>
      <trkpt lat="52.08029" lon="5.1265">
        <ele>3</ele>
      </trkpt>
      <trkpt lat="52.08036" lon="5.1266">
        <ele>4</ele>
      </trkpt>
      <trkpt lat="52.08058" lon="5.12705">
        <ele>3</ele>
      </trkpt>
      <trkpt lat="52.08065" lon="5.12715">
        <ele>3</ele>
      </trkpt>
      <trkpt lat="52.08074" lon="5.12684">
        <ele>3</ele>
      </trkpt>
      <trkpt lat="52.08077" lon="5.12662">
        <ele>4</ele>
      </trkpt>
      <trkpt lat="52.08075" lon="5.12654">
        <ele>4</ele>
      </trkpt>
      <trkpt lat="52.08107" lon="5.12576">
        <ele>4</ele>
      </trkpt>
      <trkpt lat="52.08116" lon="5.12587">
        <ele>4</ele>
      </trkpt>
      <trkpt lat="52.08125" lon="5.12581">
        <ele>5</ele>
      </trkpt>
      <trkpt lat="52.08132" lon="5.12598">
        <ele>5</ele>
      </trkpt>
      <trkpt lat="52.08242" lon="5.12666">
        <ele>7</ele>
      </trkpt>
      <trkpt lat="52.08297" lon="5.12703">
        <ele>7</ele>
      </trkpt>
      <trkpt lat="52.08368" lon="5.12772">
        <ele>6</ele>
      </trkpt>
      <trkpt lat="52.08418" lon="5.12829">
        <ele>6</ele>
      </trkpt>
      <trkpt lat="52.08454" lon="5.12884">
        <ele>7</ele>
      </trkpt>
      <trkpt lat="52.08513" lon="5.12996">
        <ele>6</ele>
      </trkpt>
      <trkpt lat="52.08523" lon="5.13009">
        <ele>5</ele>
      </trkpt>
      <trkpt lat="52.08534" lon="5.13015">
        <ele>5</ele>
      </trkpt>
      <trkpt lat="52.08554" lon="5.1301">
        <ele>5</ele>
      </trkpt>
      <trkpt lat="52.0855" lon="5.13055">
        <ele>5</ele>
      </trkpt>
      <trkpt lat="52.08548" lon="5.13066">
        <ele>5</ele>
      </trkpt>
      <trkpt lat="52.08542" lon="5.13184">
        <ele>3</ele>
      </trkpt>
      <trkpt lat="52.08514" lon="5.13412">
        <ele>3</ele>
      </trkpt>
      <trkpt lat="52.08496" lon="5.13588">
        <ele>4</ele>
      </trkpt>
      <trkpt lat="52.08496" lon="5.13628">
        <ele>4</ele>
      </trkpt>
      <trkpt lat="52.08501" lon="5.13679">
        <ele>3</ele>
      </trkpt>
      <trkpt lat="52.08515" lon="5.13695">
        <ele>3</ele>
      </trkpt>
      <trkpt lat="52.08444" lon="5.13854">
        <ele>4</ele>
      </trkpt>
      <trkpt lat="52.0845" lon="5.13866">
        <ele>4</ele>
      </trkpt>
      <trkpt lat="52.08514" lon="5.1391">
        <ele>3</ele>
      </trkpt>
      <trkpt lat="52.08522" lon="5.13937">
        <ele>4</ele>
      </trkpt>
      <trkpt lat="52.08535" lon="5.13956">
        <ele>4</ele>
      </trkpt>
      <trkpt lat="52.08547" lon="5.1396">
        <ele>4</ele>
      </trkpt>
      <trkpt lat="52.08555" lon="5.14004">
        <ele>5</ele>
      </trkpt>
      <trkpt lat="52.0857" lon="5.14057">
        <ele>5</ele>
      </trkpt>
      <trkpt lat="52.08579" lon="5.14083">
        <ele>5</ele>
      </trkpt>
      <trkpt lat="52.08601" lon="5.14131">
        <ele>6</ele>
      </trkpt>
      <trkpt lat="52.08621" lon="5.14168">
        <ele>6</ele>
      </trkpt>
      <trkpt lat="52.08644" lon="5.14196">
        <ele>6</ele>
      </trkpt>
      <trkpt lat="52.08684" lon="5.14229">
        <ele>6</ele>
      </trkpt>
      <trkpt lat="52.08625" lon="5.14431">
        <ele>5</ele>
      </trkpt>
      <trkpt lat="52.08618" lon="5.14466">
        <ele>5</ele>
      </trkpt>
      <trkpt lat="52.08543" lon="5.14674">
        <ele>4</ele>
      </trkpt>
      <trkpt lat="52.08513" lon="5.14752">
        <ele>4</ele>
      </trkpt>
      <trkpt lat="52.08506" lon="5.14801">
        <ele>4</ele>
      </trkpt>
      <trkpt lat="52.08483" lon="5.14858">
        <ele>4</ele>
      </trkpt>
      <trkpt lat="52.08421" lon="5.1504">
        <ele>5</ele>
      </trkpt>
      <trkpt lat="52.08408" lon="5.15084">
        <ele>4</ele>
      </trkpt>
      <trkpt lat="52.08406" lon="5.15098">
        <ele>4</ele>
      </trkpt>
      <trkpt lat="52.08403" lon="5.15177">
        <ele>3</ele>
      </trkpt>
      <trkpt lat="52.08403" lon="5.15203">
        <ele>3</ele>
      </trkpt>
      <trkpt lat="52.0841" lon="5.15229">
        <ele>3</ele>
      </trkpt>
      <trkpt lat="52.08461" lon="5.15318">
        <ele>2</ele>
      </trkpt>
      <trkpt lat="52.08284" lon="5.15594">
        <ele>2</ele>
      </trkpt>
      <trkpt lat="52.08256" lon="5.15641">
        <ele>1</ele>
      </trkpt>
      <trkpt lat="52.08175" lon="5.15756">
        <ele>1</ele>
      </trkpt>
      <trkpt lat="52.08169" lon="5.15768">
        <ele>1</ele>
      </trkpt>
      <trkpt lat="52.08166" lon="5.1578">
        <ele>2</ele>
      </trkpt>
      <trkpt lat="52.08163" lon="5.15878">
        <ele>2</ele>
      </trkpt>
      <trkpt lat="52.08157" lon="5.15906">
        <ele>2</ele>
      </trkpt>
      <trkpt lat="52.08149" lon="5.15923">
        <ele>2</ele>
      </trkpt>
      <trkpt lat="52.08079" lon="5.16011">
        <ele>3</ele>
      </trkpt>
      <trkpt lat="52.08065" lon="5.16039">
        <ele>2</ele>
      </trkpt>
      <trkpt lat="52.0802" lon="5.16112">
        <ele>3</ele>
      </trkpt>
      <trkpt lat="52.07983" lon="5.16146">
        <ele>2</ele>
      </trkpt>
      <trkpt lat="52.0795" lon="5.16168">
        <ele>3</ele>
      </trkpt>
      <trkpt lat="52.07919" lon="5.16181">
        <ele>2</ele>
      </trkpt>
      <trkpt lat="52.07885" lon="5.16204">
        <ele>2</ele>
      </trkpt>
      <trkpt lat="52.07852" lon="5.16244">
        <ele>2</ele>
      </trkpt>
      <trkpt lat="52.07833" lon="5.16273">
        <ele>2</ele>
      </trkpt>
      <trkpt lat="52.07815" lon="5.1631">
        <ele>2</ele>
      </trkpt>
      <trkpt lat="52.07749" lon="5.16493">
        <ele>1</ele>
      </trkpt>
      <trkpt lat="52.07696" lon="5.16622">
        <ele>2</ele>
      </trkpt>
      <trkpt lat="52.0759" lon="5.1684">
        <ele>9</ele>
      </trkpt>
      <trkpt lat="52.07517" lon="5.1701">
        <ele>6</ele>
      </trkpt>
      <trkpt lat="52.07464" lon="5.17132">
        <ele>5</ele>
      </trkpt>
      <trkpt lat="52.07453" lon="5.17153">
        <ele>5</ele>
      </trkpt>
      <trkpt lat="52.07305" lon="5.1736">
        <ele>5</ele>
      </trkpt>
      <trkpt lat="52.07301" lon="5.17369">
        <ele>5</ele>
      </trkpt>
      <trkpt lat="52.07294" lon="5.17402">
        <ele>5</ele>
      </trkpt>
      <trkpt lat="52.07069" lon="5.17682">
        <ele>6</ele>
      </trkpt>
    </trkseg>
  </trk>
</gpx>
