<?xml version="1.0" encoding="UTF-8"?>
<gpx version="1.1" creator="GPSBabel - http://www.gpsbabel.org" xmlns="http://www.topografix.com/GPX/1/1" xmlns:xsi="http://www.w3.org/2001/XMLSchema-instance">
  <metadata>
    <name>Fietsknoop</name>
    <time>2020-06-15T08:26:36.378Z</time>
    <bounds minlat="52.093445890" minlon="5.046446000" maxlat="52.180694000" maxlon="5.156429000"/>
  </metadata>
  <wpt lat="52.093446000" lon="5.116972000">
    <name>31</name>
    <cmt>31</cmt>
    <desc>31</desc>
  </wpt>
  <wpt lat="52.096621000" lon="5.116079000">
    <name>28</name>
    <cmt>28</cmt>
    <desc>28</desc>
  </wpt>
  <wpt lat="52.113729000" lon="5.138616000">
    <name>90</name>
    <cmt>90</cmt>
    <desc>90</desc>
  </wpt>
  <wpt lat="52.127860000" lon="5.134511000">
    <name>91</name>
    <cmt>91</cmt>
    <desc>91</desc>
  </wpt>
  <wpt lat="52.134710870" lon="5.121477010">
    <name>5</name>
    <cmt>5</cmt>
    <desc>5</desc>
  </wpt>
  <wpt lat="52.150551610" lon="5.126079730">
    <name>32</name>
    <cmt>32</cmt>
    <desc>32</desc>
  </wpt>
  <wpt lat="52.151075000" lon="5.148559000">
    <name>93</name>
    <cmt>93</cmt>
    <desc>93</desc>
  </wpt>
  <wpt lat="52.179780000" lon="5.150698000">
    <name>20</name>
    <cmt>20</cmt>
    <desc>20</desc>
  </wpt>
  <wpt lat="52.179807000" lon="5.143083000">
    <name>29</name>
    <cmt>29</cmt>
    <desc>29</desc>
  </wpt>
  <wpt lat="52.169768000" lon="5.080776000">
    <name>49</name>
    <cmt>49</cmt>
    <desc>49</desc>
  </wpt>
  <wpt lat="52.170949000" lon="5.070210000">
    <name>27</name>
    <cmt>27</cmt>
    <desc>27</desc>
  </wpt>
  <wpt lat="52.165768310" lon="5.046446450">
    <name>23</name>
    <cmt>23</cmt>
    <desc>23</desc>
  </wpt>
  <wpt lat="52.141517550" lon="5.073421550">
    <name>62</name>
    <cmt>62</cmt>
    <desc>62</desc>
  </wpt>
  <wpt lat="52.132851000" lon="5.063726000">
    <name>45</name>
    <cmt>45</cmt>
    <desc>45</desc>
  </wpt>
  <wpt lat="52.118993000" lon="5.086231000">
    <name>53</name>
    <cmt>53</cmt>
    <desc>53</desc>
  </wpt>
  <wpt lat="52.118552590" lon="5.090587720">
    <name>72</name>
    <cmt>72</cmt>
    <desc>72</desc>
  </wpt>
  <trk>
    <name>Fietsknoop</name>
    <trkseg>
      <trkpt lat="52.093445890" lon="5.116972060"/>
      <trkpt lat="52.093478000" lon="5.116962000"/>
      <trkpt lat="52.094011000" lon="5.116808000"/>
      <trkpt lat="52.095528000" lon="5.116641000"/>
      <trkpt lat="52.096166000" lon="5.116292000"/>
      <trkpt lat="52.096191000" lon="5.116258000"/>
      <trkpt lat="52.096237000" lon="5.116284000"/>
      <trkpt lat="52.096264000" lon="5.116283000"/>
      <trkpt lat="52.096620620" lon="5.116079100"/>
      <trkpt lat="52.096621000" lon="5.116079000"/>
      <trkpt lat="52.096710000" lon="5.117120000"/>
      <trkpt lat="52.096651000" lon="5.119480000"/>
      <trkpt lat="52.096684000" lon="5.119754000"/>
      <trkpt lat="52.096792000" lon="5.119963000"/>
      <trkpt lat="52.097501000" lon="5.120531000"/>
      <trkpt lat="52.097557000" lon="5.121095000"/>
      <trkpt lat="52.097079000" lon="5.122608000"/>
      <trkpt lat="52.097689000" lon="5.124142000"/>
      <trkpt lat="52.097847000" lon="5.124126000"/>
      <trkpt lat="52.098773000" lon="5.124539000"/>
      <trkpt lat="52.099366000" lon="5.124684000"/>
      <trkpt lat="52.099289000" lon="5.125577000"/>
      <trkpt lat="52.099325000" lon="5.126054000"/>
      <trkpt lat="52.099683000" lon="5.127740000"/>
      <trkpt lat="52.100023000" lon="5.128791000"/>
      <trkpt lat="52.101063000" lon="5.129255000"/>
      <trkpt lat="52.102103000" lon="5.129719000"/>
      <trkpt lat="52.103303000" lon="5.130293000"/>
      <trkpt lat="52.103283000" lon="5.130937000"/>
      <trkpt lat="52.103754000" lon="5.131226000"/>
      <trkpt lat="52.103909000" lon="5.130937000"/>
      <trkpt lat="52.104192000" lon="5.130867000"/>
      <trkpt lat="52.104492000" lon="5.130899000"/>
      <trkpt lat="52.105692000" lon="5.131615000"/>
      <trkpt lat="52.106891000" lon="5.132331000"/>
      <trkpt lat="52.107052000" lon="5.132632000"/>
      <trkpt lat="52.107178000" lon="5.134756000"/>
      <trkpt lat="52.107336000" lon="5.135303000"/>
      <trkpt lat="52.107649000" lon="5.135786000"/>
      <trkpt lat="52.108995000" lon="5.136918000"/>
      <trkpt lat="52.110340000" lon="5.138050000"/>
      <trkpt lat="52.110340000" lon="5.138050000"/>
      <trkpt lat="52.110699000" lon="5.138123000"/>
      <trkpt lat="52.111025000" lon="5.137994000"/>
      <trkpt lat="52.111025000" lon="5.137994000"/>
      <trkpt lat="52.112419000" lon="5.136989000"/>
      <trkpt lat="52.113209000" lon="5.136608000"/>
      <trkpt lat="52.113503000" lon="5.136951000"/>
      <trkpt lat="52.113651000" lon="5.137423000"/>
      <trkpt lat="52.113647000" lon="5.137933000"/>
      <trkpt lat="52.113578000" lon="5.138325000"/>
      <trkpt lat="52.113729000" lon="5.138616000"/>
      <trkpt lat="52.113729000" lon="5.138616000"/>
      <trkpt lat="52.114650000" lon="5.138811000"/>
      <trkpt lat="52.115225000" lon="5.138392000"/>
      <trkpt lat="52.116707000" lon="5.139111000"/>
      <trkpt lat="52.116941000" lon="5.139706000"/>
      <trkpt lat="52.117129000" lon="5.139841000"/>
      <trkpt lat="52.117639000" lon="5.139712000"/>
      <trkpt lat="52.118283000" lon="5.140250000"/>
      <trkpt lat="52.118530000" lon="5.140196000"/>
      <trkpt lat="52.118704000" lon="5.140690000"/>
      <trkpt lat="52.119001000" lon="5.141103000"/>
      <trkpt lat="52.119541000" lon="5.141505000"/>
      <trkpt lat="52.120209000" lon="5.141704000"/>
      <trkpt lat="52.120552000" lon="5.141731000"/>
      <trkpt lat="52.120582000" lon="5.140931000"/>
      <trkpt lat="52.120753000" lon="5.140577000"/>
      <trkpt lat="52.121364000" lon="5.137926000"/>
      <trkpt lat="52.121974000" lon="5.135274000"/>
      <trkpt lat="52.123283000" lon="5.136025000"/>
      <trkpt lat="52.123745000" lon="5.134072000"/>
      <trkpt lat="52.124206000" lon="5.132119000"/>
      <trkpt lat="52.123753000" lon="5.133986000"/>
      <trkpt lat="52.123300000" lon="5.135852000"/>
      <trkpt lat="52.123711000" lon="5.134084000"/>
      <trkpt lat="52.124122000" lon="5.132315000"/>
      <trkpt lat="52.124277000" lon="5.132176000"/>
      <trkpt lat="52.125173000" lon="5.132760000"/>
      <trkpt lat="52.126069000" lon="5.133344000"/>
      <trkpt lat="52.126964000" lon="5.133927000"/>
      <trkpt lat="52.127860000" lon="5.134511000"/>
      <trkpt lat="52.127860000" lon="5.134511000"/>
      <trkpt lat="52.128585000" lon="5.131869000"/>
      <trkpt lat="52.128117000" lon="5.131440000"/>
      <trkpt lat="52.127702000" lon="5.130946000"/>
      <trkpt lat="52.127610000" lon="5.130603000"/>
      <trkpt lat="52.127676000" lon="5.130110000"/>
      <trkpt lat="52.128348000" lon="5.128726000"/>
      <trkpt lat="52.127228000" lon="5.128023000"/>
      <trkpt lat="52.126109000" lon="5.127321000"/>
      <trkpt lat="52.124989000" lon="5.126618000"/>
      <trkpt lat="52.123869000" lon="5.125915000"/>
      <trkpt lat="52.124409000" lon="5.123726000"/>
      <trkpt lat="52.123849000" lon="5.122921000"/>
      <trkpt lat="52.124485000" lon="5.121344000"/>
      <trkpt lat="52.125120000" lon="5.119767000"/>
      <trkpt lat="52.126004000" lon="5.120751000"/>
      <trkpt lat="52.126888000" lon="5.121734000"/>
      <trkpt lat="52.127772000" lon="5.122718000"/>
      <trkpt lat="52.128656000" lon="5.123702000"/>
      <trkpt lat="52.129539000" lon="5.124685000"/>
      <trkpt lat="52.130423000" lon="5.125669000"/>
      <trkpt lat="52.131307000" lon="5.126652000"/>
      <trkpt lat="52.132191000" lon="5.127636000"/>
      <trkpt lat="52.132821000" lon="5.126096000"/>
      <trkpt lat="52.133451000" lon="5.124557000"/>
      <trkpt lat="52.134081000" lon="5.123017000"/>
      <trkpt lat="52.134711000" lon="5.121477000"/>
      <trkpt lat="52.134711000" lon="5.121477000"/>
      <trkpt lat="52.135728000" lon="5.122602000"/>
      <trkpt lat="52.136746000" lon="5.123726000"/>
      <trkpt lat="52.137763000" lon="5.124851000"/>
      <trkpt lat="52.138781000" lon="5.125975000"/>
      <trkpt lat="52.139179000" lon="5.123770000"/>
      <trkpt lat="52.139577000" lon="5.121566000"/>
      <trkpt lat="52.139974000" lon="5.119361000"/>
      <trkpt lat="52.140372000" lon="5.117156000"/>
      <trkpt lat="52.140398000" lon="5.116614000"/>
      <trkpt lat="52.140227000" lon="5.116174000"/>
      <trkpt lat="52.140754000" lon="5.114951000"/>
      <trkpt lat="52.141979000" lon="5.116342000"/>
      <trkpt lat="52.143203000" lon="5.117733000"/>
      <trkpt lat="52.144428000" lon="5.119124000"/>
      <trkpt lat="52.145653000" lon="5.120515000"/>
      <trkpt lat="52.146878000" lon="5.121906000"/>
      <trkpt lat="52.148102000" lon="5.123298000"/>
      <trkpt lat="52.149327000" lon="5.124689000"/>
      <trkpt lat="52.150552000" lon="5.126080000"/>
      <trkpt lat="52.150552000" lon="5.126080000"/>
      <trkpt lat="52.150486000" lon="5.126904000"/>
      <trkpt lat="52.149633000" lon="5.128836000"/>
      <trkpt lat="52.149633000" lon="5.128836000"/>
      <trkpt lat="52.149772000" lon="5.129436000"/>
      <trkpt lat="52.149772000" lon="5.129436000"/>
      <trkpt lat="52.149587000" lon="5.131582000"/>
      <trkpt lat="52.149391000" lon="5.133403000"/>
      <trkpt lat="52.149195000" lon="5.135225000"/>
      <trkpt lat="52.148999000" lon="5.137046000"/>
      <trkpt lat="52.148804000" lon="5.138867000"/>
      <trkpt lat="52.148608000" lon="5.140688000"/>
      <trkpt lat="52.148412000" lon="5.142510000"/>
      <trkpt lat="52.148216000" lon="5.144331000"/>
      <trkpt lat="52.148020000" lon="5.146152000"/>
      <trkpt lat="52.149548000" lon="5.147356000"/>
      <trkpt lat="52.151075000" lon="5.148559000"/>
      <trkpt lat="52.151075000" lon="5.148559000"/>
      <trkpt lat="52.151194000" lon="5.148201000"/>
      <trkpt lat="52.151263000" lon="5.148094000"/>
      <trkpt lat="52.151372000" lon="5.148039000"/>
      <trkpt lat="52.151490000" lon="5.148023000"/>
      <trkpt lat="52.152090000" lon="5.148608000"/>
      <trkpt lat="52.153423000" lon="5.149965000"/>
      <trkpt lat="52.154745000" lon="5.151297000"/>
      <trkpt lat="52.155967000" lon="5.152440000"/>
      <trkpt lat="52.156826000" lon="5.153006000"/>
      <trkpt lat="52.157754000" lon="5.153614000"/>
      <trkpt lat="52.158771000" lon="5.154278000"/>
      <trkpt lat="52.159637000" lon="5.154838000"/>
      <trkpt lat="52.160879000" lon="5.155629000"/>
      <trkpt lat="52.162121000" lon="5.156420000"/>
      <trkpt lat="52.162148000" lon="5.156429000"/>
      <trkpt lat="52.162251000" lon="5.156423000"/>
      <trkpt lat="52.162355000" lon="5.156379000"/>
      <trkpt lat="52.162462000" lon="5.156267000"/>
      <trkpt lat="52.163025000" lon="5.154988000"/>
      <trkpt lat="52.163668000" lon="5.153503000"/>
      <trkpt lat="52.164385000" lon="5.151850000"/>
      <trkpt lat="52.165280000" lon="5.149778000"/>
      <trkpt lat="52.165955000" lon="5.148222000"/>
      <trkpt lat="52.166722000" lon="5.146474000"/>
      <trkpt lat="52.166683000" lon="5.146384000"/>
      <trkpt lat="52.166688000" lon="5.146326000"/>
      <trkpt lat="52.166699000" lon="5.146276000"/>
      <trkpt lat="52.166732000" lon="5.146232000"/>
      <trkpt lat="52.166782000" lon="5.146228000"/>
      <trkpt lat="52.166807000" lon="5.146251000"/>
      <trkpt lat="52.167189000" lon="5.145312000"/>
      <trkpt lat="52.167235000" lon="5.145260000"/>
      <trkpt lat="52.167303000" lon="5.145213000"/>
      <trkpt lat="52.167360000" lon="5.145218000"/>
      <trkpt lat="52.167421000" lon="5.145253000"/>
      <trkpt lat="52.168386000" lon="5.146321000"/>
      <trkpt lat="52.168483000" lon="5.146378000"/>
      <trkpt lat="52.168551000" lon="5.146395000"/>
      <trkpt lat="52.168608000" lon="5.146372000"/>
      <trkpt lat="52.169513000" lon="5.144145000"/>
      <trkpt lat="52.169564000" lon="5.144072000"/>
      <trkpt lat="52.169629000" lon="5.144023000"/>
      <trkpt lat="52.169700000" lon="5.144004000"/>
      <trkpt lat="52.169757000" lon="5.144008000"/>
      <trkpt lat="52.169833000" lon="5.144067000"/>
      <trkpt lat="52.171201000" lon="5.145665000"/>
      <trkpt lat="52.172569000" lon="5.147262000"/>
      <trkpt lat="52.173873000" lon="5.148747000"/>
      <trkpt lat="52.175176000" lon="5.150231000"/>
      <trkpt lat="52.176259000" lon="5.151497000"/>
      <trkpt lat="52.177342000" lon="5.152762000"/>
      <trkpt lat="52.178315000" lon="5.153892000"/>
      <trkpt lat="52.179287000" lon="5.155021000"/>
      <trkpt lat="52.179323000" lon="5.155040000"/>
      <trkpt lat="52.179403000" lon="5.155053000"/>
      <trkpt lat="52.179500000" lon="5.153419000"/>
      <trkpt lat="52.179653000" lon="5.150676000"/>
      <trkpt lat="52.179752000" lon="5.150693000"/>
      <trkpt lat="52.179780000" lon="5.150698000"/>
      <trkpt lat="52.179779820" lon="5.150697870"/>
      <trkpt lat="52.179783000" lon="5.150649000"/>
      <trkpt lat="52.179881000" lon="5.148899000"/>
      <trkpt lat="52.179991000" lon="5.146770000"/>
      <trkpt lat="52.179978000" lon="5.146603000"/>
      <trkpt lat="52.179954000" lon="5.146487000"/>
      <trkpt lat="52.179916000" lon="5.146384000"/>
      <trkpt lat="52.179956000" lon="5.144038000"/>
      <trkpt lat="52.179807380" lon="5.143082580"/>
      <trkpt lat="52.179807000" lon="5.143083000"/>
      <trkpt lat="52.179803000" lon="5.143029000"/>
      <trkpt lat="52.179786000" lon="5.142826000"/>
      <trkpt lat="52.179885000" lon="5.140988000"/>
      <trkpt lat="52.179983000" lon="5.139149000"/>
      <trkpt lat="52.180066000" lon="5.137364000"/>
      <trkpt lat="52.180149000" lon="5.135580000"/>
      <trkpt lat="52.180231000" lon="5.133795000"/>
      <trkpt lat="52.180314000" lon="5.132010000"/>
      <trkpt lat="52.180400000" lon="5.129613000"/>
      <trkpt lat="52.180460000" lon="5.126818000"/>
      <trkpt lat="52.180534000" lon="5.125113000"/>
      <trkpt lat="52.180657000" lon="5.122439000"/>
      <trkpt lat="52.180694000" lon="5.121042000"/>
      <trkpt lat="52.180276000" lon="5.118793000"/>
      <trkpt lat="52.179957000" lon="5.117048000"/>
      <trkpt lat="52.179694000" lon="5.115190000"/>
      <trkpt lat="52.179407000" lon="5.113573000"/>
      <trkpt lat="52.179119000" lon="5.111957000"/>
      <trkpt lat="52.178832000" lon="5.110340000"/>
      <trkpt lat="52.178544000" lon="5.108723000"/>
      <trkpt lat="52.178191000" lon="5.106847000"/>
      <trkpt lat="52.177839000" lon="5.104916000"/>
      <trkpt lat="52.177486000" lon="5.102985000"/>
      <trkpt lat="52.177172000" lon="5.101348000"/>
      <trkpt lat="52.176814000" lon="5.099461000"/>
      <trkpt lat="52.176463000" lon="5.097508000"/>
      <trkpt lat="52.176112000" lon="5.095555000"/>
      <trkpt lat="52.175668000" lon="5.093121000"/>
      <trkpt lat="52.174756000" lon="5.093520000"/>
      <trkpt lat="52.173843000" lon="5.093918000"/>
      <trkpt lat="52.172834000" lon="5.094630000"/>
      <trkpt lat="52.172728000" lon="5.094639000"/>
      <trkpt lat="52.172658000" lon="5.094560000"/>
      <trkpt lat="52.172507000" lon="5.093923000"/>
      <trkpt lat="52.172209000" lon="5.092454000"/>
      <trkpt lat="52.171911000" lon="5.090985000"/>
      <trkpt lat="52.171593000" lon="5.089474000"/>
      <trkpt lat="52.171085000" lon="5.086824000"/>
      <trkpt lat="52.170706000" lon="5.084943000"/>
      <trkpt lat="52.170195000" lon="5.082605000"/>
      <trkpt lat="52.169950000" lon="5.081595000"/>
      <trkpt lat="52.169768000" lon="5.080776000"/>
      <trkpt lat="52.169768000" lon="5.080776000"/>
      <trkpt lat="52.170336000" lon="5.080385000"/>
      <trkpt lat="52.171386000" lon="5.079729000"/>
      <trkpt lat="52.172436000" lon="5.079072000"/>
      <trkpt lat="52.172910000" lon="5.078815000"/>
      <trkpt lat="52.172897000" lon="5.078755000"/>
      <trkpt lat="52.172290000" lon="5.076049000"/>
      <trkpt lat="52.171912000" lon="5.074319000"/>
      <trkpt lat="52.171843000" lon="5.074352000"/>
      <trkpt lat="52.171773000" lon="5.074191000"/>
      <trkpt lat="52.171395000" lon="5.072684000"/>
      <trkpt lat="52.171040000" lon="5.071084000"/>
      <trkpt lat="52.171031000" lon="5.070624000"/>
      <trkpt lat="52.171006000" lon="5.070472000"/>
      <trkpt lat="52.170949000" lon="5.070210000"/>
      <trkpt lat="52.170949000" lon="5.070210000"/>
      <trkpt lat="52.170418000" lon="5.067587000"/>
      <trkpt lat="52.169887000" lon="5.064964000"/>
      <trkpt lat="52.169348000" lon="5.064363000"/>
      <trkpt lat="52.169072000" lon="5.062883000"/>
      <trkpt lat="52.168795000" lon="5.061402000"/>
      <trkpt lat="52.168914000" lon="5.060651000"/>
      <trkpt lat="52.168521000" lon="5.058875000"/>
      <trkpt lat="52.168128000" lon="5.057100000"/>
      <trkpt lat="52.167734000" lon="5.055324000"/>
      <trkpt lat="52.167341000" lon="5.053549000"/>
      <trkpt lat="52.166948000" lon="5.051773000"/>
      <trkpt lat="52.166555000" lon="5.049998000"/>
      <trkpt lat="52.166162000" lon="5.048222000"/>
      <trkpt lat="52.165768000" lon="5.046446000"/>
      <trkpt lat="52.165768000" lon="5.046446000"/>
      <trkpt lat="52.164660000" lon="5.047131000"/>
      <trkpt lat="52.163551000" lon="5.047815000"/>
      <trkpt lat="52.162443000" lon="5.048499000"/>
      <trkpt lat="52.161334000" lon="5.049184000"/>
      <trkpt lat="52.160226000" lon="5.049868000"/>
      <trkpt lat="52.159117000" lon="5.050552000"/>
      <trkpt lat="52.158009000" lon="5.051237000"/>
      <trkpt lat="52.156900000" lon="5.051921000"/>
      <trkpt lat="52.157335000" lon="5.053895000"/>
      <trkpt lat="52.157769000" lon="5.055869000"/>
      <trkpt lat="52.158204000" lon="5.057843000"/>
      <trkpt lat="52.158638000" lon="5.059817000"/>
      <trkpt lat="52.157381000" lon="5.060557000"/>
      <trkpt lat="52.156124000" lon="5.061298000"/>
      <trkpt lat="52.154866000" lon="5.062038000"/>
      <trkpt lat="52.153609000" lon="5.062779000"/>
      <trkpt lat="52.152352000" lon="5.063519000"/>
      <trkpt lat="52.151095000" lon="5.064259000"/>
      <trkpt lat="52.149837000" lon="5.065000000"/>
      <trkpt lat="52.148580000" lon="5.065740000"/>
      <trkpt lat="52.147855000" lon="5.064431000"/>
      <trkpt lat="52.146868000" lon="5.062092000"/>
      <trkpt lat="52.146078000" lon="5.063610000"/>
      <trkpt lat="52.145288000" lon="5.065128000"/>
      <trkpt lat="52.144498000" lon="5.066646000"/>
      <trkpt lat="52.143708000" lon="5.068164000"/>
      <trkpt lat="52.143160000" lon="5.069478000"/>
      <trkpt lat="52.142613000" lon="5.070793000"/>
      <trkpt lat="52.142065000" lon="5.072107000"/>
      <trkpt lat="52.141518000" lon="5.073422000"/>
      <trkpt lat="52.141518000" lon="5.073422000"/>
      <trkpt lat="52.140781000" lon="5.072462000"/>
      <trkpt lat="52.140045000" lon="5.071503000"/>
      <trkpt lat="52.139215000" lon="5.071316000"/>
      <trkpt lat="52.138670000" lon="5.070484000"/>
      <trkpt lat="52.138604000" lon="5.069953000"/>
      <trkpt lat="52.138663000" lon="5.069181000"/>
      <trkpt lat="52.137856000" lon="5.068118000"/>
      <trkpt lat="52.137048000" lon="5.067054000"/>
      <trkpt lat="52.135576000" lon="5.067552000"/>
      <trkpt lat="52.134532000" lon="5.066115000"/>
      <trkpt lat="52.134532000" lon="5.066115000"/>
      <trkpt lat="52.133828000" lon="5.065283000"/>
      <trkpt lat="52.133838000" lon="5.065117000"/>
      <trkpt lat="52.133199000" lon="5.064366000"/>
      <trkpt lat="52.132851000" lon="5.063726000"/>
      <trkpt lat="52.132851000" lon="5.063726000"/>
      <trkpt lat="52.132311000" lon="5.064516000"/>
      <trkpt lat="52.131771000" lon="5.065298000"/>
      <trkpt lat="52.131656000" lon="5.065564000"/>
      <trkpt lat="52.131276000" lon="5.067481000"/>
      <trkpt lat="52.130919000" lon="5.068207000"/>
      <trkpt lat="52.130281000" lon="5.068810000"/>
      <trkpt lat="52.129137000" lon="5.069308000"/>
      <trkpt lat="52.128719000" lon="5.069373000"/>
      <trkpt lat="52.128229000" lon="5.069608000"/>
      <trkpt lat="52.127644000" lon="5.070140000"/>
      <trkpt lat="52.127597000" lon="5.070161000"/>
      <trkpt lat="52.127551000" lon="5.070142000"/>
      <trkpt lat="52.127513000" lon="5.070065000"/>
      <trkpt lat="52.126981000" lon="5.070922000"/>
      <trkpt lat="52.125519000" lon="5.072586000"/>
      <trkpt lat="52.125558000" lon="5.072653000"/>
      <trkpt lat="52.126401000" lon="5.074108000"/>
      <trkpt lat="52.127243000" lon="5.075563000"/>
      <trkpt lat="52.126331000" lon="5.077240000"/>
      <trkpt lat="52.125702000" lon="5.078385000"/>
      <trkpt lat="52.125072000" lon="5.079530000"/>
      <trkpt lat="52.124112000" lon="5.081190000"/>
      <trkpt lat="52.123474000" lon="5.082280000"/>
      <trkpt lat="52.122835000" lon="5.083370000"/>
      <trkpt lat="52.122783000" lon="5.083352000"/>
      <trkpt lat="52.121908000" lon="5.082252000"/>
      <trkpt lat="52.121169000" lon="5.081870000"/>
      <trkpt lat="52.121119000" lon="5.081882000"/>
      <trkpt lat="52.121084000" lon="5.081916000"/>
      <trkpt lat="52.120615000" lon="5.083540000"/>
      <trkpt lat="52.120146000" lon="5.085163000"/>
      <trkpt lat="52.120115000" lon="5.085193000"/>
      <trkpt lat="52.120064000" lon="5.085206000"/>
      <trkpt lat="52.120062000" lon="5.085060000"/>
      <trkpt lat="52.120031000" lon="5.085002000"/>
      <trkpt lat="52.120000000" lon="5.084974000"/>
      <trkpt lat="52.119134000" lon="5.084714000"/>
      <trkpt lat="52.119011000" lon="5.086116000"/>
      <trkpt lat="52.118993000" lon="5.086231000"/>
      <trkpt lat="52.118993000" lon="5.086231000"/>
      <trkpt lat="52.118711000" lon="5.088696000"/>
      <trkpt lat="52.118494000" lon="5.090048000"/>
      <trkpt lat="52.118552590" lon="5.090587720"/>
      <trkpt lat="52.118553000" lon="5.090588000"/>
      <trkpt lat="52.118266000" lon="5.092537000"/>
      <trkpt lat="52.117963000" lon="5.093610000"/>
      <trkpt lat="52.117594000" lon="5.094243000"/>
      <trkpt lat="52.116105000" lon="5.095348000"/>
      <trkpt lat="52.115380000" lon="5.096174000"/>
      <trkpt lat="52.114155000" lon="5.097848000"/>
      <trkpt lat="52.113440000" lon="5.098875000"/>
      <trkpt lat="52.112725000" lon="5.099903000"/>
      <trkpt lat="52.112010000" lon="5.100930000"/>
      <trkpt lat="52.111295000" lon="5.101957000"/>
      <trkpt lat="52.110063000" lon="5.103824000"/>
      <trkpt lat="52.108831000" lon="5.105691000"/>
      <trkpt lat="52.108330000" lon="5.106248000"/>
      <trkpt lat="52.107411000" lon="5.106871000"/>
      <trkpt lat="52.106492000" lon="5.107493000"/>
      <trkpt lat="52.106656000" lon="5.108308000"/>
      <trkpt lat="52.105259000" lon="5.109006000"/>
      <trkpt lat="52.104706000" lon="5.110240000"/>
      <trkpt lat="52.104215000" lon="5.110872000"/>
      <trkpt lat="52.103438000" lon="5.111505000"/>
      <trkpt lat="52.102311000" lon="5.112106000"/>
      <trkpt lat="52.100894000" lon="5.112406000"/>
      <trkpt lat="52.100416000" lon="5.112535000"/>
      <trkpt lat="52.100047000" lon="5.112953000"/>
      <trkpt lat="52.099312000" lon="5.113399000"/>
      <trkpt lat="52.097967000" lon="5.114739000"/>
      <trkpt lat="52.096621000" lon="5.116079000"/>
      <trkpt lat="52.096620620" lon="5.116079100"/>
      <trkpt lat="52.096264000" lon="5.116283000"/>
      <trkpt lat="52.096237000" lon="5.116284000"/>
      <trkpt lat="52.096191000" lon="5.116258000"/>
      <trkpt lat="52.096166000" lon="5.116292000"/>
      <trkpt lat="52.095528000" lon="5.116641000"/>
      <trkpt lat="52.094011000" lon="5.116808000"/>
      <trkpt lat="52.093478000" lon="5.116962000"/>
      <trkpt lat="52.093445890" lon="5.116972060"/>
    </trkseg>
  </trk>
</gpx>
